{
"type": "FeatureCollection",
"name": "highway",
"crs": { "type": "name", "properties": { "name": "urn:ogc:def:crs:OGC:1.3:CRS84" } },
"features": [
{ "type": "Feature", "properties": { "full_id": "w225556786", "osm_id": "225556786", "osm_type": "way", "highway": "primary", "old_name": null, "source:maxspeed": null, "oneway": null, "maxheight": null, "surface": null, "source:nat_name": "DPWH-RBI", "ref": "302", "overtaking": "no", "nat_name": "Governor J.J. Linao National Road", "name": "Governor J. J. Linao National Road", "maxweight": "18", "maxspeed:psv": "70", "maxspeed:motorcycle": "60", "maxspeed:hgv": "50", "maxspeed": "80", "layer": "1", "lanes": "4", "designation": "national_secondary_road", "contributor": "wph-eppgarcia;waypoints.ph - eppgarcia", "bridge": "yes", "alt_name": "Samat-Bagac Road" }, "geometry": { "type": "LineString", "coordinates": [ [ 120.4767721, 14.6318405 ], [ 120.4763453, 14.6319729 ] ] } },
{ "type": "Feature", "properties": { "full_id": "w225556787", "osm_id": "225556787", "osm_type": "way", "highway": "primary", "old_name": null, "source:maxspeed": null, "oneway": null, "maxheight": null, "surface": "concrete", "source:nat_name": "DPWH-RBI", "ref": "302", "overtaking": null, "nat_name": "Governor J.J. Linao National Road", "name": "Governor J. J. Linao National Road", "maxweight": null, "maxspeed:psv": "70", "maxspeed:motorcycle": "60", "maxspeed:hgv": "50", "maxspeed": "80", "layer": null, "lanes": "4", "designation": "national_secondary_road", "contributor": "wph-eppgarcia;waypoints.ph - eppgarcia", "bridge": null, "alt_name": "Samat-Bagac Road" }, "geometry": { "type": "LineString", "coordinates": [ [ 120.4763453, 14.6319729 ], [ 120.476077, 14.6320545 ], [ 120.4758046, 14.6321235 ], [ 120.4757351, 14.632131 ], [ 120.4756707, 14.6321232 ], [ 120.4756088, 14.6320872 ], [ 120.4755605, 14.6320405 ], [ 120.4755313, 14.6319703 ], [ 120.4754612, 14.6314461 ], [ 120.4754347, 14.6313526 ], [ 120.4753834, 14.6312878 ], [ 120.4753247, 14.6312358 ], [ 120.4752466, 14.6312074 ], [ 120.4751554, 14.6312126 ], [ 120.4750803, 14.6312281 ], [ 120.4750026, 14.6312722 ], [ 120.4749409, 14.6313216 ], [ 120.4749089, 14.6313707 ], [ 120.4748929, 14.631446 ], [ 120.4748872, 14.6315603 ], [ 120.4748955, 14.6317393 ], [ 120.4749277, 14.6320455 ], [ 120.4749223, 14.6321673 ], [ 120.4748953, 14.632261 ], [ 120.4748416, 14.6323285 ], [ 120.4747853, 14.6323804 ], [ 120.4747182, 14.6324141 ], [ 120.4746595, 14.6324216 ], [ 120.4745656, 14.6324009 ], [ 120.4745037, 14.6323466 ], [ 120.474461, 14.6322737 ], [ 120.4742846, 14.6318059 ], [ 120.4742502, 14.6317147 ], [ 120.4740882, 14.6312981 ], [ 120.4740477, 14.6312151 ], [ 120.4739967, 14.6311399 ], [ 120.4739273, 14.6310723 ], [ 120.4738465, 14.6310205 ], [ 120.4737732, 14.6309935 ], [ 120.4735447, 14.6309488 ], [ 120.4733061, 14.6309027 ], [ 120.4731024, 14.6308631 ], [ 120.4729434, 14.6308314 ], [ 120.4721249, 14.6306744 ], [ 120.4719262, 14.6306258 ], [ 120.4717969, 14.6305648 ], [ 120.4717643, 14.6305494 ], [ 120.471599, 14.6304571 ], [ 120.4714253, 14.6303013 ], [ 120.4713254, 14.6301977 ], [ 120.4710265, 14.6298876 ], [ 120.470915, 14.629772 ], [ 120.4703866, 14.6291933 ], [ 120.4702517, 14.6290437 ], [ 120.470143, 14.6289435 ], [ 120.4698368, 14.6286197 ], [ 120.4696134, 14.6283758 ], [ 120.4693592, 14.6280982 ], [ 120.4690429, 14.6277529 ], [ 120.4687295, 14.6274328 ], [ 120.4685788, 14.627265 ], [ 120.4684697, 14.6271122 ], [ 120.4683803, 14.6269406 ], [ 120.4683325, 14.6268162 ], [ 120.4683223, 14.6267894 ], [ 120.4683026, 14.6267381 ], [ 120.4681664, 14.626307 ], [ 120.4679209, 14.6255128 ], [ 120.4678054, 14.6251616 ], [ 120.467795, 14.6251305 ], [ 120.4674658, 14.6241435 ], [ 120.4674537, 14.6241156 ], [ 120.4672538, 14.6237899 ], [ 120.4672217, 14.6237476 ], [ 120.4670095, 14.6235085 ], [ 120.4667014, 14.6231916 ], [ 120.466297, 14.6227778 ], [ 120.4662239, 14.6227245 ], [ 120.4661382, 14.6226964 ], [ 120.4660509, 14.6226882 ], [ 120.465965, 14.6226947 ], [ 120.4658918, 14.6227133 ], [ 120.4658255, 14.6227518 ], [ 120.4657706, 14.6227985 ], [ 120.4656945, 14.6228839 ], [ 120.4655949, 14.6230426 ], [ 120.4655328, 14.6231416 ], [ 120.4652209, 14.6237108 ], [ 120.4650293, 14.6239297 ], [ 120.4648596, 14.6240337 ], [ 120.4643452, 14.6240666 ], [ 120.4642618, 14.6240663 ], [ 120.4636064, 14.6240898 ], [ 120.4634331, 14.6240927 ], [ 120.4633834, 14.6240935 ], [ 120.4632454, 14.6240746 ], [ 120.4631853, 14.6240572 ], [ 120.4631225, 14.6240186 ], [ 120.4630401, 14.6239521 ], [ 120.4629771, 14.6238748 ], [ 120.4629109, 14.6237185 ], [ 120.4628766, 14.6236488 ], [ 120.4626505, 14.6231898 ], [ 120.4624381, 14.6227353 ], [ 120.4623762, 14.6226609 ], [ 120.4622982, 14.6225943 ], [ 120.4622099, 14.6225707 ], [ 120.4621121, 14.622556 ], [ 120.4619994, 14.6225668 ], [ 120.4619404, 14.622585 ], [ 120.4618904, 14.6226076 ], [ 120.4617922, 14.6226849 ], [ 120.4617493, 14.6227355 ], [ 120.461729, 14.6227859 ], [ 120.4616822, 14.6229568 ], [ 120.4616474, 14.6231703 ], [ 120.4615593, 14.6243183 ], [ 120.4615394, 14.6244711 ], [ 120.4615009, 14.6246355 ], [ 120.4614562, 14.6247463 ], [ 120.4613931, 14.624828 ], [ 120.4613234, 14.6249111 ], [ 120.4612201, 14.6250084 ], [ 120.4611343, 14.625085 ], [ 120.4610109, 14.6251589 ], [ 120.4607561, 14.6252692 ], [ 120.460441, 14.6253756 ], [ 120.4601526, 14.6255262 ], [ 120.4600507, 14.6256144 ], [ 120.4599612, 14.6257961 ], [ 120.4598442, 14.6260912 ] ] } },
{ "type": "Feature", "properties": { "full_id": "w468608207", "osm_id": "468608207", "osm_type": "way", "highway": "primary", "old_name": null, "source:maxspeed": "sign", "oneway": "yes", "maxheight": "5.2", "surface": "asphalt", "source:nat_name": null, "ref": "301", "overtaking": null, "nat_name": "Roman Expressway", "name": "Roman Superhighway", "maxweight": null, "maxspeed:psv": "70", "maxspeed:motorcycle": "60", "maxspeed:hgv": "50", "maxspeed": "80", "layer": null, "lanes": "3", "designation": "national_secondary_road", "contributor": null, "bridge": null, "alt_name": null }, "geometry": { "type": "LineString", "coordinates": [ [ 120.5224086, 14.6747786 ], [ 120.52246, 14.6746228 ], [ 120.5226155, 14.6743711 ], [ 120.5227966, 14.6740649 ], [ 120.522844, 14.6739953 ], [ 120.5228882, 14.6739291 ], [ 120.5229468, 14.6738314 ], [ 120.5231571, 14.6735064 ], [ 120.5232281, 14.6734027 ], [ 120.5233216, 14.673332 ] ] } },
{ "type": "Feature", "properties": { "full_id": "w536587981", "osm_id": "536587981", "osm_type": "way", "highway": "primary", "old_name": null, "source:maxspeed": "sign", "oneway": null, "maxheight": "5.2", "surface": "asphalt", "source:nat_name": null, "ref": "301", "overtaking": null, "nat_name": "Roman Expressway", "name": "Roman Superhighway", "maxweight": null, "maxspeed:psv": "70", "maxspeed:motorcycle": "60", "maxspeed:hgv": "50", "maxspeed": "80", "layer": null, "lanes": "6", "designation": "national_secondary_road", "contributor": null, "bridge": null, "alt_name": null }, "geometry": { "type": "LineString", "coordinates": [ [ 120.5197704, 14.6789268 ], [ 120.5199303, 14.6786843 ], [ 120.5199952, 14.6785754 ], [ 120.5201746, 14.6782874 ], [ 120.5201803, 14.6782782 ], [ 120.5207064, 14.677434 ], [ 120.5208676, 14.6771831 ], [ 120.5210192, 14.6769473 ], [ 120.521088, 14.6768406 ], [ 120.5211628, 14.6767247 ], [ 120.521203, 14.6766588 ], [ 120.5212322, 14.6766109 ], [ 120.5213449, 14.676426 ], [ 120.5216316, 14.6759841 ], [ 120.5216969, 14.6758835 ], [ 120.521811, 14.6757076 ], [ 120.5220913, 14.6752557 ], [ 120.522353, 14.6748622 ], [ 120.5224086, 14.6747786 ] ] } },
{ "type": "Feature", "properties": { "full_id": "w821732849", "osm_id": "821732849", "osm_type": "way", "highway": "primary", "old_name": null, "source:maxspeed": "sign", "oneway": null, "maxheight": null, "surface": "asphalt", "source:nat_name": null, "ref": "301", "overtaking": null, "nat_name": "Roman Expressway", "name": "Roman Superhighway", "maxweight": null, "maxspeed:psv": "70", "maxspeed:motorcycle": "60", "maxspeed:hgv": "50", "maxspeed": "80", "layer": "1", "lanes": "6", "designation": "national_secondary_road", "contributor": null, "bridge": "yes", "alt_name": null }, "geometry": { "type": "LineString", "coordinates": [ [ 120.5179118, 14.6857004 ], [ 120.5179437, 14.6854512 ] ] } },
{ "type": "Feature", "properties": { "full_id": "w821732850", "osm_id": "821732850", "osm_type": "way", "highway": "primary", "old_name": null, "source:maxspeed": "sign", "oneway": null, "maxheight": null, "surface": "asphalt", "source:nat_name": null, "ref": "301", "overtaking": null, "nat_name": "Roman Expressway", "name": "Roman Superhighway", "maxweight": null, "maxspeed:psv": "70", "maxspeed:motorcycle": "60", "maxspeed:hgv": "50", "maxspeed": "80", "layer": null, "lanes": "6", "designation": "national_secondary_road", "contributor": null, "bridge": null, "alt_name": null }, "geometry": { "type": "LineString", "coordinates": [ [ 120.5176968, 14.6872431 ], [ 120.5177533, 14.6868357 ], [ 120.5177921, 14.686556 ], [ 120.5179118, 14.6857004 ] ] } },
{ "type": "Feature", "properties": { "full_id": "w821739067", "osm_id": "821739067", "osm_type": "way", "highway": "primary", "old_name": "Bataan Provincial Expressway", "source:maxspeed": "sign", "oneway": null, "maxheight": null, "surface": "asphalt", "source:nat_name": null, "ref": "301", "overtaking": null, "nat_name": "Roman Expressway", "name": "Roman Superhighway", "maxweight": null, "maxspeed:psv": "70", "maxspeed:motorcycle": "60", "maxspeed:hgv": "50", "maxspeed": "80", "layer": "1", "lanes": "6", "designation": "national_secondary_road", "contributor": null, "bridge": "yes", "alt_name": "Bataan Provincial Highway" }, "geometry": { "type": "LineString", "coordinates": [ [ 120.5166087, 14.6971555 ], [ 120.5166443, 14.6967953 ] ] } },
{ "type": "Feature", "properties": { "full_id": "w821739068", "osm_id": "821739068", "osm_type": "way", "highway": "primary", "old_name": "Bataan Provincial Expressway", "source:maxspeed": "sign", "oneway": null, "maxheight": null, "surface": "asphalt", "source:nat_name": null, "ref": "301", "overtaking": null, "nat_name": "Roman Expressway", "name": "Roman Superhighway", "maxweight": null, "maxspeed:psv": "70", "maxspeed:motorcycle": "60", "maxspeed:hgv": "50", "maxspeed": "80", "layer": null, "lanes": "6", "designation": "national_secondary_road", "contributor": null, "bridge": null, "alt_name": "Bataan Provincial Highway" }, "geometry": { "type": "LineString", "coordinates": [ [ 120.5166443, 14.6967953 ], [ 120.5166484, 14.6966952 ], [ 120.5167535, 14.6953115 ], [ 120.5167639, 14.6952148 ], [ 120.516771, 14.695083 ], [ 120.5167813, 14.6949542 ], [ 120.5169557, 14.6936282 ], [ 120.5170697, 14.6925549 ], [ 120.5172161, 14.691355 ], [ 120.5172246, 14.6912849 ], [ 120.5172602, 14.690944 ], [ 120.5172891, 14.6907279 ], [ 120.5172965, 14.6906576 ], [ 120.5173255, 14.6904334 ], [ 120.5173935, 14.6897994 ], [ 120.517441, 14.6893328 ], [ 120.5175114, 14.6886887 ], [ 120.5175351, 14.6884843 ], [ 120.5175563, 14.6883021 ], [ 120.517606, 14.6878723 ], [ 120.5176246, 14.6877481 ], [ 120.5176877, 14.6873269 ] ] } },
{ "type": "Feature", "properties": { "full_id": "w821743220", "osm_id": "821743220", "osm_type": "way", "highway": "primary", "old_name": null, "source:maxspeed": "sign", "oneway": null, "maxheight": null, "surface": "asphalt", "source:nat_name": null, "ref": "301", "overtaking": null, "nat_name": "Roman Expressway", "name": "Roman Superhighway", "maxweight": null, "maxspeed:psv": "70", "maxspeed:motorcycle": "60", "maxspeed:hgv": "50", "maxspeed": "80", "layer": "1", "lanes": "6", "designation": "national_secondary_road", "contributor": null, "bridge": "yes", "alt_name": null }, "geometry": { "type": "LineString", "coordinates": [ [ 120.5303106, 14.6623845 ], [ 120.5305267, 14.66199 ] ] } },
{ "type": "Feature", "properties": { "full_id": "w821743221", "osm_id": "821743221", "osm_type": "way", "highway": "primary", "old_name": "Bataan Provincial Expressway", "source:maxspeed": "sign", "oneway": null, "maxheight": null, "surface": "concrete", "source:nat_name": null, "ref": "301", "overtaking": null, "nat_name": "Roman Expressway", "name": "Roman Superhighway", "maxweight": null, "maxspeed:psv": "70", "maxspeed:motorcycle": "60", "maxspeed:hgv": "50", "maxspeed": "80", "layer": null, "lanes": "6", "designation": "national_secondary_road", "contributor": null, "bridge": null, "alt_name": "Bataan Provincial Highway" }, "geometry": { "type": "LineString", "coordinates": [ [ 120.5305267, 14.66199 ], [ 120.5305867, 14.6618705 ], [ 120.5307017, 14.6616356 ], [ 120.5309378, 14.6612004 ], [ 120.5310111, 14.6610643 ], [ 120.5310913, 14.6609152 ], [ 120.5311449, 14.6608155 ], [ 120.5312309, 14.6606557 ], [ 120.531664, 14.6598413 ], [ 120.531768, 14.6596448 ], [ 120.5320013, 14.6592171 ], [ 120.5322359, 14.6587739 ], [ 120.5322669, 14.6587151 ], [ 120.5326041, 14.6580744 ], [ 120.5328447, 14.6576242 ], [ 120.5329855, 14.6573606 ], [ 120.5332862, 14.6567981 ] ] } },
{ "type": "Feature", "properties": { "full_id": "w821744695", "osm_id": "821744695", "osm_type": "way", "highway": "primary", "old_name": null, "source:maxspeed": "sign", "oneway": null, "maxheight": null, "surface": "asphalt", "source:nat_name": null, "ref": "301", "overtaking": null, "nat_name": "Roman Expressway", "name": "Roman Superhighway", "maxweight": null, "maxspeed:psv": "70", "maxspeed:motorcycle": "60", "maxspeed:hgv": "50", "maxspeed": "80", "layer": null, "lanes": "6", "designation": "national_secondary_road", "contributor": null, "bridge": null, "alt_name": null }, "geometry": { "type": "LineString", "coordinates": [ [ 120.5183705, 14.6818068 ], [ 120.5183768, 14.6817605 ], [ 120.5183861, 14.6816929 ], [ 120.5184226, 14.6814462 ], [ 120.5184753, 14.6812168 ], [ 120.5185471, 14.6809687 ], [ 120.5187709, 14.6804828 ], [ 120.5189245, 14.6802108 ], [ 120.5192129, 14.6797878 ], [ 120.5193275, 14.6795938 ], [ 120.5194918, 14.6793728 ], [ 120.5196091, 14.6791875 ], [ 120.5196404, 14.6791381 ] ] } },
{ "type": "Feature", "properties": { "full_id": "w821744696", "osm_id": "821744696", "osm_type": "way", "highway": "primary", "old_name": null, "source:maxspeed": "sign", "oneway": null, "maxheight": null, "surface": "asphalt", "source:nat_name": null, "ref": "301", "overtaking": null, "nat_name": "Roman Expressway", "name": "Roman Superhighway", "maxweight": null, "maxspeed:psv": "70", "maxspeed:motorcycle": "60", "maxspeed:hgv": "50", "maxspeed": "80", "layer": null, "lanes": "6", "designation": "national_secondary_road", "contributor": null, "bridge": null, "alt_name": null }, "geometry": { "type": "LineString", "coordinates": [ [ 120.5179437, 14.6854512 ], [ 120.5179996, 14.6849327 ], [ 120.5180134, 14.6848052 ], [ 120.5180479, 14.6844694 ], [ 120.51819, 14.6833251 ], [ 120.5182015, 14.6832298 ], [ 120.5182079, 14.6831699 ], [ 120.5182244, 14.683014 ], [ 120.5182371, 14.6828939 ], [ 120.5182386, 14.6828799 ], [ 120.5182853, 14.6825458 ], [ 120.5183065, 14.6823944 ], [ 120.5183432, 14.6820572 ], [ 120.5183487, 14.6820066 ], [ 120.5183705, 14.6818068 ] ] } },
{ "type": "Feature", "properties": { "full_id": "w821749770", "osm_id": "821749770", "osm_type": "way", "highway": "primary", "old_name": null, "source:maxspeed": null, "oneway": null, "maxheight": null, "surface": "concrete", "source:nat_name": "DPWH-RBI", "ref": "302", "overtaking": null, "nat_name": "Governor J.J. Linao National Road", "name": "Governor J. J. Linao National Road", "maxweight": "18", "maxspeed:psv": "70", "maxspeed:motorcycle": "60", "maxspeed:hgv": "50", "maxspeed": "80", "layer": "1", "lanes": "2", "designation": "national_secondary_road", "contributor": "wph-eppgarcia;waypoints.ph - eppgarcia", "bridge": "yes", "alt_name": "Samat-Bagac Road" }, "geometry": { "type": "LineString", "coordinates": [ [ 120.4598442, 14.6260912 ], [ 120.4597448, 14.6263681 ] ] } },
{ "type": "Feature", "properties": { "full_id": "w821749771", "osm_id": "821749771", "osm_type": "way", "highway": "primary", "old_name": null, "source:maxspeed": null, "oneway": null, "maxheight": null, "surface": "concrete", "source:nat_name": "DPWH-RBI", "ref": "302", "overtaking": null, "nat_name": "Governor J.J. Linao National Road", "name": "Governor J. J. Linao National Road", "maxweight": null, "maxspeed:psv": "70", "maxspeed:motorcycle": "60", "maxspeed:hgv": "50", "maxspeed": "80", "layer": null, "lanes": "2", "designation": "national_secondary_road", "contributor": "wph-eppgarcia;waypoints.ph - eppgarcia", "bridge": null, "alt_name": "Samat-Bagac Road" }, "geometry": { "type": "LineString", "coordinates": [ [ 120.4597448, 14.6263681 ], [ 120.4596512, 14.6266187 ], [ 120.4595894, 14.6268329 ], [ 120.459495, 14.6269405 ], [ 120.4593775, 14.6269678 ], [ 120.4592514, 14.6269652 ], [ 120.4591334, 14.6269575 ], [ 120.4588411, 14.6269635 ], [ 120.458731, 14.6269886 ], [ 120.4586299, 14.6270456 ], [ 120.4583376, 14.6272371 ], [ 120.4581195, 14.6274324 ], [ 120.4578754, 14.6276244 ], [ 120.4576984, 14.627823 ], [ 120.4575764, 14.6279826 ], [ 120.4574124, 14.6281204 ], [ 120.4571469, 14.6282383 ], [ 120.4570022, 14.6283044 ], [ 120.4569152, 14.6283913 ], [ 120.4568566, 14.6285223 ], [ 120.4568079, 14.6286262 ], [ 120.456723, 14.628786 ], [ 120.4566416, 14.6288818 ], [ 120.4565479, 14.629005 ], [ 120.4564056, 14.629202 ], [ 120.4563728, 14.6292588 ], [ 120.4563595, 14.6292817 ], [ 120.4562852, 14.62941 ], [ 120.4562299, 14.6295358 ], [ 120.4561784, 14.6296948 ], [ 120.4561463, 14.6298088 ], [ 120.4560319, 14.6302151 ], [ 120.4559992, 14.6302742 ], [ 120.4559509, 14.6303287 ], [ 120.455864, 14.6303777 ], [ 120.4557404, 14.630413 ], [ 120.4555944, 14.6304144 ], [ 120.4555431, 14.6304324 ], [ 120.4555204, 14.6304403 ], [ 120.4554487, 14.6304793 ], [ 120.4551139, 14.6308768 ], [ 120.4545251, 14.6316811 ], [ 120.4542765, 14.632048 ], [ 120.4541378, 14.6321934 ], [ 120.4539918, 14.6323112 ], [ 120.4537356, 14.6324741 ], [ 120.4532409, 14.6327219 ], [ 120.4519942, 14.6334546 ], [ 120.4516494, 14.6336133 ], [ 120.4514751, 14.6336408 ], [ 120.4513156, 14.6336024 ], [ 120.4506191, 14.6333598 ], [ 120.4504672, 14.6333068 ], [ 120.4497947, 14.6330681 ], [ 120.4493846, 14.6329226 ], [ 120.4490456, 14.6328023 ], [ 120.4490409, 14.6328006 ], [ 120.4474297, 14.6322286 ], [ 120.4472085, 14.6321459 ], [ 120.4439086, 14.6310408 ] ] } },
{ "type": "Feature", "properties": { "full_id": "w821762386", "osm_id": "821762386", "osm_type": "way", "highway": "primary", "old_name": "Bataan Provincial Expressway", "source:maxspeed": "sign", "oneway": null, "maxheight": null, "surface": "concrete", "source:nat_name": "DPWH-RBI", "ref": "301", "overtaking": "no", "nat_name": "Roman Expressway", "name": "Roman Superhighway", "maxweight": "18", "maxspeed:psv": "70", "maxspeed:motorcycle": "60", "maxspeed:hgv": "50", "maxspeed": "80", "layer": "1", "lanes": "4", "designation": "national_secondary_road", "contributor": null, "bridge": "yes", "alt_name": "Bataan Provincial Highway" }, "geometry": { "type": "LineString", "coordinates": [ [ 120.5357761, 14.6521609 ], [ 120.536069, 14.6515993 ] ] } },
{ "type": "Feature", "properties": { "full_id": "w821762387", "osm_id": "821762387", "osm_type": "way", "highway": "primary", "old_name": "Bataan Provincial Expressway", "source:maxspeed": "sign", "oneway": null, "maxheight": null, "surface": "concrete", "source:nat_name": null, "ref": "301", "overtaking": null, "nat_name": null, "name": "Roman Superhighway", "maxweight": null, "maxspeed:psv": "70", "maxspeed:motorcycle": "60", "maxspeed:hgv": "50", "maxspeed": "80", "layer": null, "lanes": "6", "designation": "national_secondary_road", "contributor": null, "bridge": null, "alt_name": "Bataan Provincial Highway" }, "geometry": { "type": "LineString", "coordinates": [ [ 120.5345888, 14.654372 ], [ 120.5346894, 14.6541847 ], [ 120.5352043, 14.6532258 ], [ 120.5357174, 14.6522701 ], [ 120.535766, 14.6521796 ], [ 120.5357761, 14.6521609 ] ] } },
{ "type": "Feature", "properties": { "full_id": "w821774214", "osm_id": "821774214", "osm_type": "way", "highway": "primary", "old_name": "Bataan Provincial Expressway", "source:maxspeed": "sign", "oneway": null, "maxheight": null, "surface": "asphalt", "source:nat_name": null, "ref": "301", "overtaking": null, "nat_name": "Roman Expressway", "name": "Roman Superhighway", "maxweight": null, "maxspeed:psv": "70", "maxspeed:motorcycle": "60", "maxspeed:hgv": "50", "maxspeed": "80", "layer": null, "lanes": "6", "designation": "national_secondary_road", "contributor": null, "bridge": null, "alt_name": "Bataan Provincial Highway" }, "geometry": { "type": "LineString", "coordinates": [ [ 120.516046, 14.7018644 ], [ 120.5161198, 14.7012604 ], [ 120.5161596, 14.7009349 ], [ 120.5161612, 14.7008942 ], [ 120.5162854, 14.699913 ], [ 120.5163512, 14.6993932 ], [ 120.5163811, 14.6991571 ], [ 120.5163964, 14.6990188 ], [ 120.5163985, 14.6989998 ], [ 120.5164091, 14.6989163 ], [ 120.5164128, 14.698876 ], [ 120.5164828, 14.6981178 ], [ 120.5164993, 14.6979389 ], [ 120.5165475, 14.6975939 ], [ 120.5165729, 14.6974121 ], [ 120.5166087, 14.6971555 ] ] } },
{ "type": "Feature", "properties": { "full_id": "w825751117", "osm_id": "825751117", "osm_type": "way", "highway": "primary", "old_name": null, "source:maxspeed": "sign", "oneway": null, "maxheight": null, "surface": "asphalt", "source:nat_name": null, "ref": "301", "overtaking": null, "nat_name": "Roman Expressway", "name": "Roman Superhighway", "maxweight": null, "maxspeed:psv": "70", "maxspeed:motorcycle": "60", "maxspeed:hgv": "50", "maxspeed": "80", "layer": "1", "lanes": "6", "designation": "national_secondary_road", "contributor": null, "bridge": "yes", "alt_name": null }, "geometry": { "type": "LineString", "coordinates": [ [ 120.5254647, 14.670043 ], [ 120.5255686, 14.6698833 ] ] } },
{ "type": "Feature", "properties": { "full_id": "w825751118", "osm_id": "825751118", "osm_type": "way", "highway": "primary", "old_name": null, "source:maxspeed": "sign", "oneway": null, "maxheight": null, "surface": "asphalt", "source:nat_name": null, "ref": "301", "overtaking": null, "nat_name": "Roman Expressway", "name": "Roman Superhighway", "maxweight": null, "maxspeed:psv": "70", "maxspeed:motorcycle": "60", "maxspeed:hgv": "50", "maxspeed": "80", "layer": null, "lanes": "6", "designation": "national_secondary_road", "contributor": null, "bridge": null, "alt_name": null }, "geometry": { "type": "LineString", "coordinates": [ [ 120.5267198, 14.668028 ], [ 120.5270207, 14.6675707 ], [ 120.5282468, 14.6656959 ], [ 120.5287051, 14.6649687 ], [ 120.5288293, 14.664782 ], [ 120.528993, 14.6645239 ], [ 120.5292862, 14.664059 ], [ 120.5293527, 14.6639581 ], [ 120.5295939, 14.6635913 ], [ 120.5299825, 14.6629684 ], [ 120.5303106, 14.6623845 ] ] } },
{ "type": "Feature", "properties": { "full_id": "w825751739", "osm_id": "825751739", "osm_type": "way", "highway": "primary", "old_name": null, "source:maxspeed": "sign", "oneway": null, "maxheight": null, "surface": "asphalt", "source:nat_name": null, "ref": "301", "overtaking": null, "nat_name": "Roman Expressway", "name": "Roman Superhighway", "maxweight": null, "maxspeed:psv": "70", "maxspeed:motorcycle": "60", "maxspeed:hgv": "50", "maxspeed": "80", "layer": "1", "lanes": "6", "designation": "national_secondary_road", "contributor": null, "bridge": "yes", "alt_name": null }, "geometry": { "type": "LineString", "coordinates": [ [ 120.5264948, 14.6683799 ], [ 120.5267198, 14.668028 ] ] } },
{ "type": "Feature", "properties": { "full_id": "w825751740", "osm_id": "825751740", "osm_type": "way", "highway": "primary", "old_name": null, "source:maxspeed": "sign", "oneway": null, "maxheight": null, "surface": "asphalt", "source:nat_name": null, "ref": "301", "overtaking": null, "nat_name": "Roman Expressway", "name": "Roman Superhighway", "maxweight": null, "maxspeed:psv": "70", "maxspeed:motorcycle": "60", "maxspeed:hgv": "50", "maxspeed": "80", "layer": null, "lanes": "6", "designation": "national_secondary_road", "contributor": null, "bridge": null, "alt_name": null }, "geometry": { "type": "LineString", "coordinates": [ [ 120.5255686, 14.6698833 ], [ 120.5256719, 14.669728 ] ] } },
{ "type": "Feature", "properties": { "full_id": "w826124035", "osm_id": "826124035", "osm_type": "way", "highway": "primary", "old_name": null, "source:maxspeed": "sign", "oneway": null, "maxheight": null, "surface": "asphalt", "source:nat_name": "DPWH-RBI", "ref": "301", "overtaking": "no", "nat_name": "Roman Expressway", "name": "Roman Superhighway", "maxweight": "18", "maxspeed:psv": "70", "maxspeed:motorcycle": "60", "maxspeed:hgv": "50", "maxspeed": "80", "layer": "1", "lanes": "6", "designation": "national_secondary_road", "contributor": null, "bridge": "yes", "alt_name": null }, "geometry": { "type": "LineString", "coordinates": [ [ 120.5196404, 14.6791381 ], [ 120.5197704, 14.6789268 ] ] } },
{ "type": "Feature", "properties": { "full_id": "w1050768879", "osm_id": "1050768879", "osm_type": "way", "highway": "primary", "old_name": null, "source:maxspeed": "sign", "oneway": "yes", "maxheight": "5.2", "surface": "asphalt", "source:nat_name": null, "ref": "301", "overtaking": null, "nat_name": "Roman Expressway", "name": "Roman Superhighway", "maxweight": null, "maxspeed:psv": "70", "maxspeed:motorcycle": "60", "maxspeed:hgv": "50", "maxspeed": "80", "layer": null, "lanes": "3", "designation": "national_secondary_road", "contributor": null, "bridge": null, "alt_name": null }, "geometry": { "type": "LineString", "coordinates": [ [ 120.5228942, 14.6740837 ], [ 120.5228252, 14.6741972 ], [ 120.5227051, 14.6744024 ], [ 120.5225418, 14.6746539 ], [ 120.5224086, 14.6747786 ] ] } },
{ "type": "Feature", "properties": { "full_id": "w1050768881", "osm_id": "1050768881", "osm_type": "way", "highway": "primary", "old_name": null, "source:maxspeed": "sign", "oneway": null, "maxheight": null, "surface": "asphalt", "source:nat_name": null, "ref": "301", "overtaking": null, "nat_name": "Roman Expressway", "name": "Roman Superhighway", "maxweight": null, "maxspeed:psv": "70", "maxspeed:motorcycle": "60", "maxspeed:hgv": "50", "maxspeed": "80", "layer": null, "lanes": "6", "designation": "national_secondary_road", "contributor": null, "bridge": null, "alt_name": null }, "geometry": { "type": "LineString", "coordinates": [ [ 120.5233216, 14.673332 ], [ 120.523494, 14.6730717 ], [ 120.5235713, 14.6729551 ], [ 120.5237036, 14.6727555 ], [ 120.5237815, 14.672629 ], [ 120.5238247, 14.6725629 ], [ 120.5239635, 14.6723508 ], [ 120.5239829, 14.6723211 ], [ 120.5240459, 14.6722286 ], [ 120.5241175, 14.6721233 ], [ 120.5242739, 14.6718935 ], [ 120.5245584, 14.6714754 ], [ 120.5245842, 14.6714375 ], [ 120.5246108, 14.6713984 ], [ 120.52465, 14.6713407 ], [ 120.5246819, 14.6712955 ], [ 120.5247229, 14.6712288 ], [ 120.5247718, 14.6711489 ], [ 120.5248419, 14.6710347 ], [ 120.5249583, 14.6708433 ], [ 120.5249776, 14.6708117 ], [ 120.525098, 14.6706143 ], [ 120.5252055, 14.6704382 ], [ 120.5254647, 14.670043 ] ] } },
{ "type": "Feature", "properties": { "full_id": "w1075162953", "osm_id": "1075162953", "osm_type": "way", "highway": "primary", "old_name": null, "source:maxspeed": "sign", "oneway": null, "maxheight": null, "surface": "asphalt", "source:nat_name": null, "ref": "301", "overtaking": null, "nat_name": "Roman Expressway", "name": "Roman Superhighway", "maxweight": null, "maxspeed:psv": "70", "maxspeed:motorcycle": "60", "maxspeed:hgv": "50", "maxspeed": "80", "layer": null, "lanes": "6", "designation": "national_secondary_road", "contributor": null, "bridge": null, "alt_name": null }, "geometry": { "type": "LineString", "coordinates": [ [ 120.5261864, 14.6688625 ], [ 120.5264948, 14.6683799 ] ] } },
{ "type": "Feature", "properties": { "full_id": "w1075162954", "osm_id": "1075162954", "osm_type": "way", "highway": "primary", "old_name": null, "source:maxspeed": "sign", "oneway": "yes", "maxheight": null, "surface": "asphalt", "source:nat_name": null, "ref": "301", "overtaking": null, "nat_name": "Roman Expressway", "name": "Roman Superhighway", "maxweight": null, "maxspeed:psv": "70", "maxspeed:motorcycle": "60", "maxspeed:hgv": "50", "maxspeed": "80", "layer": null, "lanes": "3", "designation": "national_secondary_road", "contributor": null, "bridge": null, "alt_name": null }, "geometry": { "type": "LineString", "coordinates": [ [ 120.5256719, 14.669728 ], [ 120.5256937, 14.6695918 ], [ 120.5261148, 14.6689152 ], [ 120.5261864, 14.6688625 ] ] } },
{ "type": "Feature", "properties": { "full_id": "w1075162955", "osm_id": "1075162955", "osm_type": "way", "highway": "primary", "old_name": null, "source:maxspeed": "sign", "oneway": "yes", "maxheight": null, "surface": "asphalt", "source:nat_name": null, "ref": "301", "overtaking": null, "nat_name": "Roman Expressway", "name": "Roman Superhighway", "maxweight": null, "maxspeed:psv": "70", "maxspeed:motorcycle": "60", "maxspeed:hgv": "50", "maxspeed": "80", "layer": null, "lanes": "3", "designation": "national_secondary_road", "contributor": null, "bridge": null, "alt_name": null }, "geometry": { "type": "LineString", "coordinates": [ [ 120.5261864, 14.6688625 ], [ 120.52619, 14.6689451 ], [ 120.5258093, 14.6695862 ], [ 120.5257729, 14.6696476 ], [ 120.5256719, 14.669728 ] ] } },
{ "type": "Feature", "properties": { "full_id": "w1076729013", "osm_id": "1076729013", "osm_type": "way", "highway": "primary", "old_name": "Bataan Provincial Expressway", "source:maxspeed": "sign", "oneway": null, "maxheight": null, "surface": "concrete", "source:nat_name": null, "ref": "301", "overtaking": null, "nat_name": null, "name": "Roman Superhighway", "maxweight": null, "maxspeed:psv": "70", "maxspeed:motorcycle": "60", "maxspeed:hgv": "50", "maxspeed": "80", "layer": null, "lanes": "6", "designation": "national_secondary_road", "contributor": null, "bridge": null, "alt_name": "Bataan Provincial Highway" }, "geometry": { "type": "LineString", "coordinates": [ [ 120.5337814, 14.6558757 ], [ 120.5337955, 14.6558495 ], [ 120.533803, 14.6558355 ] ] } },
{ "type": "Feature", "properties": { "full_id": "w1076729015", "osm_id": "1076729015", "osm_type": "way", "highway": "primary", "old_name": "Bataan Provincial Expressway", "source:maxspeed": "sign", "oneway": null, "maxheight": null, "surface": "concrete", "source:nat_name": null, "ref": "301", "overtaking": null, "nat_name": null, "name": "Roman Superhighway", "maxweight": null, "maxspeed:psv": "70", "maxspeed:motorcycle": "60", "maxspeed:hgv": "50", "maxspeed": "80", "layer": null, "lanes": "6", "designation": "national_secondary_road", "contributor": null, "bridge": null, "alt_name": "Bataan Provincial Highway" }, "geometry": { "type": "LineString", "coordinates": [ [ 120.533686, 14.6560535 ], [ 120.5337814, 14.6558757 ] ] } },
{ "type": "Feature", "properties": { "full_id": "w1076729020", "osm_id": "1076729020", "osm_type": "way", "highway": "primary", "old_name": "Bataan Provincial Expressway", "source:maxspeed": "sign", "oneway": null, "maxheight": null, "surface": "concrete", "source:nat_name": null, "ref": "301", "overtaking": null, "nat_name": "Roman Expressway", "name": "Roman Superhighway", "maxweight": null, "maxspeed:psv": "70", "maxspeed:motorcycle": "60", "maxspeed:hgv": "50", "maxspeed": "80", "layer": null, "lanes": "6", "designation": "national_secondary_road", "contributor": null, "bridge": null, "alt_name": "Bataan Provincial Highway" }, "geometry": { "type": "LineString", "coordinates": [ [ 120.5334396, 14.6565123 ], [ 120.5336279, 14.6561616 ] ] } },
{ "type": "Feature", "properties": { "full_id": "w1076729021", "osm_id": "1076729021", "osm_type": "way", "highway": "primary", "old_name": "Bataan Provincial Expressway", "source:maxspeed": "sign", "oneway": null, "maxheight": null, "surface": "concrete", "source:nat_name": null, "ref": "301", "overtaking": null, "nat_name": "Roman Expressway", "name": "Roman Superhighway", "maxweight": null, "maxspeed:psv": "70", "maxspeed:motorcycle": "60", "maxspeed:hgv": "50", "maxspeed": "80", "layer": null, "lanes": "6", "designation": "national_secondary_road", "contributor": null, "bridge": null, "alt_name": "Bataan Provincial Highway" }, "geometry": { "type": "LineString", "coordinates": [ [ 120.5332862, 14.6567981 ], [ 120.5334396, 14.6565123 ] ] } },
{ "type": "Feature", "properties": { "full_id": "w1076729022", "osm_id": "1076729022", "osm_type": "way", "highway": "primary", "old_name": "Bataan Provincial Expressway", "source:maxspeed": "sign", "oneway": null, "maxheight": null, "surface": "concrete", "source:nat_name": null, "ref": "301", "overtaking": null, "nat_name": "Roman Expressway", "name": "Roman Superhighway", "maxweight": null, "maxspeed:psv": "70", "maxspeed:motorcycle": "60", "maxspeed:hgv": "50", "maxspeed": "80", "layer": null, "lanes": "6", "designation": "national_secondary_road", "contributor": null, "bridge": null, "alt_name": "Bataan Provincial Highway" }, "geometry": { "type": "LineString", "coordinates": [ [ 120.5336279, 14.6561616 ], [ 120.533686, 14.6560535 ] ] } },
{ "type": "Feature", "properties": { "full_id": "w1076729023", "osm_id": "1076729023", "osm_type": "way", "highway": "primary", "old_name": "Bataan Provincial Expressway", "source:maxspeed": "sign", "oneway": null, "maxheight": null, "surface": "concrete", "source:nat_name": null, "ref": "301", "overtaking": null, "nat_name": null, "name": "Roman Superhighway", "maxweight": null, "maxspeed:psv": "70", "maxspeed:motorcycle": "60", "maxspeed:hgv": "50", "maxspeed": "80", "layer": null, "lanes": "6", "designation": "national_secondary_road", "contributor": null, "bridge": null, "alt_name": "Bataan Provincial Highway" }, "geometry": { "type": "LineString", "coordinates": [ [ 120.5340328, 14.6554076 ], [ 120.5342668, 14.6549717 ], [ 120.5342857, 14.6549365 ], [ 120.5345167, 14.6545063 ] ] } },
{ "type": "Feature", "properties": { "full_id": "w1076729024", "osm_id": "1076729024", "osm_type": "way", "highway": "primary", "old_name": "Bataan Provincial Expressway", "source:maxspeed": "sign", "oneway": null, "maxheight": null, "surface": "concrete", "source:nat_name": null, "ref": "301", "overtaking": null, "nat_name": null, "name": "Roman Superhighway", "maxweight": null, "maxspeed:psv": "70", "maxspeed:motorcycle": "60", "maxspeed:hgv": "50", "maxspeed": "80", "layer": null, "lanes": "6", "designation": "national_secondary_road", "contributor": null, "bridge": null, "alt_name": "Bataan Provincial Highway" }, "geometry": { "type": "LineString", "coordinates": [ [ 120.533803, 14.6558355 ], [ 120.5339036, 14.6556621 ], [ 120.5339768, 14.6555118 ], [ 120.5340328, 14.6554076 ] ] } },
{ "type": "Feature", "properties": { "full_id": "w1076732752", "osm_id": "1076732752", "osm_type": "way", "highway": "primary", "old_name": null, "source:maxspeed": "sign", "oneway": null, "maxheight": null, "surface": "asphalt", "source:nat_name": null, "ref": "301", "overtaking": null, "nat_name": "Roman Expressway", "name": "Roman Superhighway", "maxweight": null, "maxspeed:psv": "70", "maxspeed:motorcycle": "60", "maxspeed:hgv": "50", "maxspeed": "80", "layer": null, "lanes": "6", "designation": "national_secondary_road", "contributor": null, "bridge": null, "alt_name": null }, "geometry": { "type": "LineString", "coordinates": [ [ 120.5176877, 14.6873269 ], [ 120.5176968, 14.6872431 ] ] } },
{ "type": "Feature", "properties": { "full_id": "w1076733857", "osm_id": "1076733857", "osm_type": "way", "highway": "primary", "old_name": "Bataan Provincial Expressway", "source:maxspeed": "sign", "oneway": null, "maxheight": null, "surface": "concrete", "source:nat_name": null, "ref": "301", "overtaking": null, "nat_name": null, "name": "Roman Superhighway", "maxweight": null, "maxspeed:psv": "70", "maxspeed:motorcycle": "60", "maxspeed:hgv": "50", "maxspeed": "80", "layer": null, "lanes": "6", "designation": "national_secondary_road", "contributor": null, "bridge": null, "alt_name": "Bataan Provincial Highway" }, "geometry": { "type": "LineString", "coordinates": [ [ 120.5345167, 14.6545063 ], [ 120.5345888, 14.654372 ] ] } },
{ "type": "Feature", "properties": { "full_id": "w1076755839", "osm_id": "1076755839", "osm_type": "way", "highway": "primary", "old_name": null, "source:maxspeed": "sign", "oneway": "yes", "maxheight": "5.2", "surface": "asphalt", "source:nat_name": null, "ref": "301", "overtaking": null, "nat_name": "Roman Expressway", "name": "Roman Superhighway", "maxweight": null, "maxspeed:psv": "70", "maxspeed:motorcycle": "60", "maxspeed:hgv": "50", "maxspeed": "80", "layer": null, "lanes": "3", "designation": "national_secondary_road", "contributor": null, "bridge": null, "alt_name": null }, "geometry": { "type": "LineString", "coordinates": [ [ 120.5229402, 14.6740083 ], [ 120.5228942, 14.6740837 ] ] } },
{ "type": "Feature", "properties": { "full_id": "w1076755841", "osm_id": "1076755841", "osm_type": "way", "highway": "primary", "old_name": null, "source:maxspeed": "sign", "oneway": "yes", "maxheight": "5.2", "surface": "asphalt", "source:nat_name": null, "ref": "301", "overtaking": null, "nat_name": "Roman Expressway", "name": "Roman Superhighway", "maxweight": null, "maxspeed:psv": "70", "maxspeed:motorcycle": "60", "maxspeed:hgv": "50", "maxspeed": "80", "layer": null, "lanes": "3", "designation": "national_secondary_road", "contributor": null, "bridge": null, "alt_name": null }, "geometry": { "type": "LineString", "coordinates": [ [ 120.5233216, 14.673332 ], [ 120.5233019, 14.6734364 ], [ 120.5230664, 14.6738014 ], [ 120.5230165, 14.6738794 ], [ 120.5229402, 14.6740083 ] ] } }
]
}
