{
"type": "FeatureCollection",
"name": "secondary",
"crs": { "type": "name", "properties": { "name": "urn:ogc:def:crs:OGC:1.3:CRS84" } },
"features": [
{ "type": "Feature", "properties": { "full_id": "w28400956", "osm_id": "28400956", "osm_type": "way", "highway": "secondary", "source:name": null, "bridge:name": null, "noname": null, "sidewalk": null, "bicycle": null, "oneway": null, "lit": null, "source:nat_name": null, "maxweight": null, "designation": null, "overtaking": null, "nat_name": null, "loc_name": null, "layer": null, "bridge": null, "official_name": null, "contributor": null, "alt_name": null, "maxspeed": null, "boundary": null, "admin_level": null, "surface": "concrete", "name": "P. Paterno Street", "lanes": "2" }, "geometry": { "type": "LineString", "coordinates": [ [ 120.5408649, 14.6792131 ], [ 120.5411465, 14.678807 ], [ 120.5414362, 14.6784035 ], [ 120.5417149, 14.6780244 ], [ 120.5419829, 14.6776599 ] ] } },
{ "type": "Feature", "properties": { "full_id": "w28400957", "osm_id": "28400957", "osm_type": "way", "highway": "secondary", "source:name": null, "bridge:name": null, "noname": null, "sidewalk": null, "bicycle": null, "oneway": null, "lit": null, "source:nat_name": null, "maxweight": null, "designation": null, "overtaking": null, "nat_name": null, "loc_name": null, "layer": null, "bridge": null, "official_name": null, "contributor": null, "alt_name": null, "maxspeed": null, "boundary": null, "admin_level": null, "surface": null, "name": "Kinatawan Street", "lanes": null }, "geometry": { "type": "LineString", "coordinates": [ [ 120.5303907, 14.6777379 ], [ 120.530607, 14.6772097 ], [ 120.5306631, 14.677085 ], [ 120.5307968, 14.6767861 ], [ 120.5308186, 14.6767389 ], [ 120.5310785, 14.6760749 ], [ 120.5311036, 14.6760016 ] ] } },
{ "type": "Feature", "properties": { "full_id": "w28401237", "osm_id": "28401237", "osm_type": "way", "highway": "secondary", "source:name": null, "bridge:name": null, "noname": null, "sidewalk": null, "bicycle": null, "oneway": null, "lit": null, "source:nat_name": null, "maxweight": null, "designation": null, "overtaking": null, "nat_name": null, "loc_name": null, "layer": null, "bridge": null, "official_name": null, "contributor": null, "alt_name": null, "maxspeed": "60", "boundary": "administrative", "admin_level": "10", "surface": null, "name": "Don Manuel Banzon Avenue", "lanes": "4" }, "geometry": { "type": "LineString", "coordinates": [ [ 120.5421361, 14.6799323 ], [ 120.541978, 14.6802487 ], [ 120.5416039, 14.6809691 ], [ 120.5415884, 14.6810017 ] ] } },
{ "type": "Feature", "properties": { "full_id": "w31859379", "osm_id": "31859379", "osm_type": "way", "highway": "secondary", "source:name": null, "bridge:name": null, "noname": null, "sidewalk": null, "bicycle": null, "oneway": null, "lit": null, "source:nat_name": null, "maxweight": null, "designation": null, "overtaking": null, "nat_name": null, "loc_name": null, "layer": null, "bridge": null, "official_name": "Congressman Teodoro B. Camacho Street", "contributor": "wph-eppgarcia", "alt_name": "National Road", "maxspeed": "60", "boundary": "administrative", "admin_level": "10", "surface": null, "name": "Camacho Street", "lanes": "2" }, "geometry": { "type": "LineString", "coordinates": [ [ 120.5441966, 14.6770508 ], [ 120.544037, 14.677272 ], [ 120.5437783, 14.6774754 ], [ 120.5431148, 14.6778453 ] ] } },
{ "type": "Feature", "properties": { "full_id": "w31859380", "osm_id": "31859380", "osm_type": "way", "highway": "secondary", "source:name": null, "bridge:name": null, "noname": null, "sidewalk": null, "bicycle": null, "oneway": null, "lit": null, "source:nat_name": null, "maxweight": null, "designation": null, "overtaking": null, "nat_name": "Layac – Balanga – Mariveles Port Road", "loc_name": "National Road", "layer": "1", "bridge": "yes", "official_name": null, "contributor": "wph-eppgarcia", "alt_name": null, "maxspeed": "60", "boundary": null, "admin_level": null, "surface": null, "name": "Layac – Balanga – Mariveles Port Road", "lanes": "2" }, "geometry": { "type": "LineString", "coordinates": [ [ 120.5447698, 14.676505 ], [ 120.5441966, 14.6770508 ] ] } },
{ "type": "Feature", "properties": { "full_id": "w107426471", "osm_id": "107426471", "osm_type": "way", "highway": "secondary", "source:name": null, "bridge:name": null, "noname": null, "sidewalk": null, "bicycle": null, "oneway": null, "lit": null, "source:nat_name": null, "maxweight": null, "designation": null, "overtaking": null, "nat_name": null, "loc_name": null, "layer": null, "bridge": null, "official_name": null, "contributor": null, "alt_name": null, "maxspeed": null, "boundary": null, "admin_level": null, "surface": "asphalt", "name": "J. P. Rizal Street", "lanes": "2" }, "geometry": { "type": "LineString", "coordinates": [ [ 120.5397062, 14.6786392 ], [ 120.5401976, 14.6788765 ], [ 120.5408649, 14.6792131 ] ] } },
{ "type": "Feature", "properties": { "full_id": "w107426472", "osm_id": "107426472", "osm_type": "way", "highway": "secondary", "source:name": null, "bridge:name": null, "noname": null, "sidewalk": null, "bicycle": null, "oneway": null, "lit": null, "source:nat_name": null, "maxweight": null, "designation": null, "overtaking": null, "nat_name": null, "loc_name": null, "layer": null, "bridge": null, "official_name": null, "contributor": null, "alt_name": null, "maxspeed": "60", "boundary": null, "admin_level": null, "surface": "asphalt", "name": "Don Manuel Banzon Avenue", "lanes": "2" }, "geometry": { "type": "LineString", "coordinates": [ [ 120.5395042, 14.6851667 ], [ 120.5394359, 14.6853056 ], [ 120.5394025, 14.6853693 ], [ 120.5392868, 14.6856457 ], [ 120.5392469, 14.6857239 ], [ 120.5391583, 14.685897 ], [ 120.5391474, 14.6859184 ], [ 120.5389312, 14.6862697 ] ] } },
{ "type": "Feature", "properties": { "full_id": "w107426521", "osm_id": "107426521", "osm_type": "way", "highway": "secondary", "source:name": null, "bridge:name": null, "noname": null, "sidewalk": null, "bicycle": null, "oneway": null, "lit": null, "source:nat_name": null, "maxweight": null, "designation": null, "overtaking": "no", "nat_name": null, "loc_name": null, "layer": "1", "bridge": "yes", "official_name": null, "contributor": null, "alt_name": null, "maxspeed": null, "boundary": null, "admin_level": null, "surface": null, "name": null, "lanes": null }, "geometry": { "type": "LineString", "coordinates": [ [ 120.5395476, 14.6785627 ], [ 120.5397062, 14.6786392 ] ] } },
{ "type": "Feature", "properties": { "full_id": "w107426535", "osm_id": "107426535", "osm_type": "way", "highway": "secondary", "source:name": null, "bridge:name": null, "noname": null, "sidewalk": null, "bicycle": null, "oneway": null, "lit": null, "source:nat_name": "DPWH-RBI", "maxweight": "18", "designation": "national_tertiary_road", "overtaking": "no", "nat_name": "Layac – Balanga – Mariveles Port Road", "loc_name": null, "layer": "1", "bridge": "yes", "official_name": null, "contributor": null, "alt_name": null, "maxspeed": "60", "boundary": null, "admin_level": null, "surface": "asphalt", "name": "Don Manuel Banzon Avenue", "lanes": "2" }, "geometry": { "type": "LineString", "coordinates": [ [ 120.5396472, 14.6848759 ], [ 120.5395042, 14.6851667 ] ] } },
{ "type": "Feature", "properties": { "full_id": "w108762412", "osm_id": "108762412", "osm_type": "way", "highway": "secondary", "source:name": null, "bridge:name": null, "noname": null, "sidewalk": null, "bicycle": null, "oneway": null, "lit": null, "source:nat_name": null, "maxweight": null, "designation": null, "overtaking": null, "nat_name": null, "loc_name": null, "layer": null, "bridge": null, "official_name": null, "contributor": null, "alt_name": null, "maxspeed": null, "boundary": null, "admin_level": null, "surface": "asphalt", "name": "Capitol Drive", "lanes": "2" }, "geometry": { "type": "LineString", "coordinates": [ [ 120.5311036, 14.6760016 ], [ 120.5316634, 14.6761353 ], [ 120.5325582, 14.6762895 ], [ 120.5327946, 14.6763309 ], [ 120.5331179, 14.6763869 ], [ 120.5332285, 14.676406 ], [ 120.5334952, 14.6764541 ], [ 120.5338114, 14.6765048 ], [ 120.533908, 14.6765231 ], [ 120.5344722, 14.6766301 ], [ 120.5352302, 14.6767667 ], [ 120.5355774, 14.6768293 ], [ 120.5361653, 14.6769798 ], [ 120.5367136, 14.6771895 ], [ 120.5371135, 14.6773813 ], [ 120.5371312, 14.6773886 ], [ 120.5375292, 14.6775754 ], [ 120.5379344, 14.677764 ], [ 120.5383436, 14.6779643 ], [ 120.5387272, 14.6781493 ], [ 120.5390493, 14.6783287 ], [ 120.5393585, 14.6784732 ], [ 120.5395476, 14.6785627 ] ] } },
{ "type": "Feature", "properties": { "full_id": "w108775749", "osm_id": "108775749", "osm_type": "way", "highway": "secondary", "source:name": null, "bridge:name": null, "noname": null, "sidewalk": null, "bicycle": null, "oneway": null, "lit": null, "source:nat_name": null, "maxweight": null, "designation": null, "overtaking": null, "nat_name": null, "loc_name": null, "layer": null, "bridge": null, "official_name": null, "contributor": null, "alt_name": null, "maxspeed": "60", "boundary": null, "admin_level": null, "surface": "asphalt", "name": "Old National Road", "lanes": "2" }, "geometry": { "type": "LineString", "coordinates": [ [ 120.5389312, 14.6862697 ], [ 120.5389286, 14.6863158 ], [ 120.5389235, 14.6864041 ], [ 120.5389084, 14.6865723 ], [ 120.5388537, 14.6868707 ], [ 120.5388308, 14.6869957 ], [ 120.5388156, 14.6871516 ], [ 120.5388064, 14.6872242 ], [ 120.538796, 14.6873062 ] ] } },
{ "type": "Feature", "properties": { "full_id": "w109035069", "osm_id": "109035069", "osm_type": "way", "highway": "secondary", "source:name": null, "bridge:name": null, "noname": null, "sidewalk": null, "bicycle": null, "oneway": null, "lit": null, "source:nat_name": null, "maxweight": null, "designation": null, "overtaking": null, "nat_name": null, "loc_name": null, "layer": null, "bridge": null, "official_name": null, "contributor": null, "alt_name": null, "maxspeed": "60", "boundary": null, "admin_level": null, "surface": "asphalt", "name": "Old National Road", "lanes": "2" }, "geometry": { "type": "LineString", "coordinates": [ [ 120.5387145, 14.6887657 ], [ 120.5386865, 14.6893766 ] ] } },
{ "type": "Feature", "properties": { "full_id": "w109037231", "osm_id": "109037231", "osm_type": "way", "highway": "secondary", "source:name": null, "bridge:name": null, "noname": null, "sidewalk": null, "bicycle": null, "oneway": null, "lit": null, "source:nat_name": null, "maxweight": null, "designation": null, "overtaking": null, "nat_name": null, "loc_name": null, "layer": null, "bridge": null, "official_name": null, "contributor": "wph-eppgarcia", "alt_name": null, "maxspeed": null, "boundary": null, "admin_level": null, "surface": "asphalt", "name": "Aguirre Street", "lanes": "2" }, "geometry": { "type": "LineString", "coordinates": [ [ 120.540591, 14.6797123 ], [ 120.540524, 14.6797796 ], [ 120.5404903, 14.6798134 ], [ 120.5402344, 14.6800809 ], [ 120.5399848, 14.6802843 ], [ 120.539881, 14.6803594 ] ] } },
{ "type": "Feature", "properties": { "full_id": "w109673857", "osm_id": "109673857", "osm_type": "way", "highway": "secondary", "source:name": null, "bridge:name": null, "noname": null, "sidewalk": null, "bicycle": null, "oneway": null, "lit": null, "source:nat_name": null, "maxweight": null, "designation": null, "overtaking": null, "nat_name": null, "loc_name": null, "layer": null, "bridge": null, "official_name": null, "contributor": null, "alt_name": null, "maxspeed": "60", "boundary": null, "admin_level": null, "surface": "asphalt", "name": "Don Manuel Banzon Avenue", "lanes": "4" }, "geometry": { "type": "LineString", "coordinates": [ [ 120.5400559, 14.6841183 ], [ 120.5399364, 14.6843394 ], [ 120.5398311, 14.6845342 ], [ 120.5397747, 14.6846427 ], [ 120.5396472, 14.6848759 ] ] } },
{ "type": "Feature", "properties": { "full_id": "w134544863", "osm_id": "134544863", "osm_type": "way", "highway": "secondary", "source:name": null, "bridge:name": null, "noname": null, "sidewalk": null, "bicycle": null, "oneway": "yes", "lit": "yes", "source:nat_name": null, "maxweight": null, "designation": null, "overtaking": null, "nat_name": null, "loc_name": null, "layer": null, "bridge": null, "official_name": null, "contributor": null, "alt_name": null, "maxspeed": null, "boundary": null, "admin_level": null, "surface": "concrete", "name": "Enrique Garcia Sr. Avenue", "lanes": "2" }, "geometry": { "type": "LineString", "coordinates": [ [ 120.5380949, 14.6894481 ], [ 120.5355759, 14.6892201 ], [ 120.5352934, 14.6891945 ], [ 120.5350371, 14.6891706 ], [ 120.5348649, 14.6891562 ], [ 120.5345778, 14.6891224 ], [ 120.5341675, 14.6890807 ], [ 120.5309311, 14.6887595 ], [ 120.530865, 14.6887506 ], [ 120.529295, 14.6885854 ], [ 120.5292435, 14.6885802 ], [ 120.528259, 14.6884801 ], [ 120.527714, 14.6884205 ], [ 120.5268569, 14.6883286 ], [ 120.5252489, 14.6881563 ], [ 120.5242647, 14.6880508 ], [ 120.5213945, 14.6877317 ], [ 120.5203535, 14.6876159 ], [ 120.5201944, 14.6875987 ], [ 120.5187789, 14.6874452 ] ] } },
{ "type": "Feature", "properties": { "full_id": "w134544980", "osm_id": "134544980", "osm_type": "way", "highway": "secondary", "source:name": null, "bridge:name": null, "noname": null, "sidewalk": null, "bicycle": null, "oneway": "yes", "lit": "yes", "source:nat_name": null, "maxweight": null, "designation": null, "overtaking": null, "nat_name": null, "loc_name": null, "layer": null, "bridge": null, "official_name": null, "contributor": null, "alt_name": null, "maxspeed": null, "boundary": null, "admin_level": null, "surface": "concrete", "name": "Enrique Garcia Sr. Avenue", "lanes": "2" }, "geometry": { "type": "LineString", "coordinates": [ [ 120.5176968, 14.6872431 ], [ 120.5193759, 14.6874213 ], [ 120.5203475, 14.6875244 ], [ 120.5230049, 14.6878155 ], [ 120.5231978, 14.6878366 ], [ 120.5239672, 14.6879209 ], [ 120.5242871, 14.687956 ], [ 120.5256045, 14.6881005 ], [ 120.5268253, 14.6882345 ], [ 120.5272127, 14.688277 ], [ 120.5273749, 14.6882948 ], [ 120.5277727, 14.6883384 ], [ 120.5279298, 14.6883557 ], [ 120.5282775, 14.6883938 ], [ 120.5285507, 14.6884215 ], [ 120.530386, 14.6886075 ], [ 120.5306689, 14.6886361 ], [ 120.5308797, 14.688655 ], [ 120.531083, 14.6886781 ], [ 120.5335287, 14.6889259 ], [ 120.5345949, 14.689034 ], [ 120.5350417, 14.6890714 ], [ 120.5381164, 14.6893287 ] ] } },
{ "type": "Feature", "properties": { "full_id": "w152425952", "osm_id": "152425952", "osm_type": "way", "highway": "secondary", "source:name": null, "bridge:name": null, "noname": null, "sidewalk": null, "bicycle": null, "oneway": null, "lit": null, "source:nat_name": null, "maxweight": null, "designation": null, "overtaking": null, "nat_name": null, "loc_name": null, "layer": null, "bridge": null, "official_name": null, "contributor": null, "alt_name": "Lerma Street", "maxspeed": null, "boundary": null, "admin_level": null, "surface": "asphalt", "name": "Calero Street", "lanes": "2" }, "geometry": { "type": "LineString", "coordinates": [ [ 120.5389312, 14.6862697 ], [ 120.5388625, 14.6857871 ], [ 120.5388369, 14.6856413 ], [ 120.5388315, 14.6856106 ], [ 120.5387698, 14.6853529 ], [ 120.5387519, 14.6852781 ], [ 120.5387131, 14.6851158 ], [ 120.5386816, 14.6849842 ], [ 120.5384861, 14.6843485 ], [ 120.5384735, 14.6843076 ], [ 120.5383962, 14.6839674 ], [ 120.5383579, 14.683656 ], [ 120.5383475, 14.6835446 ], [ 120.5383245, 14.6832981 ], [ 120.5383184, 14.6830162 ], [ 120.5383226, 14.6829019 ], [ 120.5383431, 14.6827672 ], [ 120.5383944, 14.6826068 ], [ 120.5384733, 14.6824208 ], [ 120.5385641, 14.6822303 ], [ 120.5385817, 14.6821961 ], [ 120.53862, 14.6821216 ] ] } },
{ "type": "Feature", "properties": { "full_id": "w169406289", "osm_id": "169406289", "osm_type": "way", "highway": "secondary", "source:name": null, "bridge:name": null, "noname": null, "sidewalk": null, "bicycle": null, "oneway": null, "lit": null, "source:nat_name": null, "maxweight": null, "designation": null, "overtaking": null, "nat_name": null, "loc_name": null, "layer": null, "bridge": null, "official_name": null, "contributor": null, "alt_name": "Lerma Street", "maxspeed": null, "boundary": null, "admin_level": null, "surface": "asphalt", "name": "Calero Street", "lanes": "2" }, "geometry": { "type": "LineString", "coordinates": [ [ 120.538644, 14.6820742 ], [ 120.5390391, 14.6812939 ], [ 120.5391291, 14.6811555 ], [ 120.5391504, 14.681122 ], [ 120.5392085, 14.6810322 ], [ 120.5392675, 14.6809411 ], [ 120.5394406, 14.6807138 ] ] } },
{ "type": "Feature", "properties": { "full_id": "w174863874", "osm_id": "174863874", "osm_type": "way", "highway": "secondary", "source:name": null, "bridge:name": null, "noname": null, "sidewalk": null, "bicycle": null, "oneway": null, "lit": null, "source:nat_name": null, "maxweight": null, "designation": null, "overtaking": null, "nat_name": null, "loc_name": null, "layer": null, "bridge": null, "official_name": "Congressman Teodoro B. Camacho Street", "contributor": null, "alt_name": "Bataan National Road", "maxspeed": "60", "boundary": "administrative", "admin_level": "10", "surface": "asphalt", "name": "Camacho Street", "lanes": "2" }, "geometry": { "type": "LineString", "coordinates": [ [ 120.5431148, 14.6778453 ], [ 120.5429839, 14.6781127 ], [ 120.5429269, 14.678235 ], [ 120.5425261, 14.6790952 ], [ 120.542209, 14.6797759 ], [ 120.5421714, 14.6798566 ], [ 120.5421361, 14.6799323 ] ] } },
{ "type": "Feature", "properties": { "full_id": "w264060732", "osm_id": "264060732", "osm_type": "way", "highway": "secondary", "source:name": null, "bridge:name": null, "noname": null, "sidewalk": "both", "bicycle": "yes", "oneway": null, "lit": null, "source:nat_name": null, "maxweight": null, "designation": null, "overtaking": null, "nat_name": null, "loc_name": null, "layer": null, "bridge": null, "official_name": null, "contributor": null, "alt_name": null, "maxspeed": "60", "boundary": null, "admin_level": null, "surface": "asphalt", "name": "Don Manuel Banzon Avenue", "lanes": "4" }, "geometry": { "type": "LineString", "coordinates": [ [ 120.5415884, 14.6810017 ], [ 120.5413996, 14.6814063 ], [ 120.54139, 14.681427 ], [ 120.5411962, 14.6818423 ], [ 120.5411657, 14.6819077 ], [ 120.5411166, 14.6820011 ], [ 120.5410226, 14.68218 ], [ 120.5406107, 14.6829636 ] ] } },
{ "type": "Feature", "properties": { "full_id": "w264060734", "osm_id": "264060734", "osm_type": "way", "highway": "secondary", "source:name": null, "bridge:name": null, "noname": null, "sidewalk": null, "bicycle": null, "oneway": null, "lit": null, "source:nat_name": null, "maxweight": null, "designation": null, "overtaking": null, "nat_name": null, "loc_name": null, "layer": null, "bridge": null, "official_name": null, "contributor": null, "alt_name": null, "maxspeed": "60", "boundary": "administrative", "admin_level": "10", "surface": "asphalt", "name": "Don Manuel Banzon Avenue", "lanes": "4" }, "geometry": { "type": "LineString", "coordinates": [ [ 120.5406107, 14.6829636 ], [ 120.540483, 14.6832488 ], [ 120.5402459, 14.6837315 ], [ 120.5400559, 14.6841183 ] ] } },
{ "type": "Feature", "properties": { "full_id": "w301430393", "osm_id": "301430393", "osm_type": "way", "highway": "secondary", "source:name": null, "bridge:name": null, "noname": null, "sidewalk": null, "bicycle": null, "oneway": null, "lit": null, "source:nat_name": null, "maxweight": null, "designation": null, "overtaking": null, "nat_name": null, "loc_name": null, "layer": null, "bridge": null, "official_name": null, "contributor": null, "alt_name": null, "maxspeed": "40", "boundary": null, "admin_level": null, "surface": "concrete", "name": "A. Banzon Street", "lanes": null }, "geometry": { "type": "LineString", "coordinates": [ [ 120.5394406, 14.6807138 ], [ 120.5392198, 14.6806146 ], [ 120.5388359, 14.6805174 ], [ 120.5381446, 14.6803734 ], [ 120.5379026, 14.680327 ], [ 120.5375396, 14.6802573 ], [ 120.5373347, 14.6802283 ], [ 120.5369352, 14.6801716 ], [ 120.5365465, 14.6801167 ], [ 120.5365037, 14.6801106 ], [ 120.5358062, 14.6799883 ], [ 120.5356574, 14.6799471 ], [ 120.5349434, 14.6798185 ], [ 120.5347547, 14.6797753 ] ] } },
{ "type": "Feature", "properties": { "full_id": "w301430631", "osm_id": "301430631", "osm_type": "way", "highway": "secondary", "source:name": null, "bridge:name": null, "noname": null, "sidewalk": null, "bicycle": null, "oneway": null, "lit": null, "source:nat_name": null, "maxweight": null, "designation": null, "overtaking": null, "nat_name": null, "loc_name": null, "layer": null, "bridge": null, "official_name": null, "contributor": null, "alt_name": null, "maxspeed": "40", "boundary": null, "admin_level": null, "surface": "concrete", "name": "Doctor F. Anacleto Avenue", "lanes": null }, "geometry": { "type": "LineString", "coordinates": [ [ 120.5263546, 14.6766074 ], [ 120.5251711, 14.6760701 ], [ 120.525113, 14.67604 ], [ 120.5244867, 14.6757453 ], [ 120.5243459, 14.6756758 ], [ 120.5240638, 14.6755346 ], [ 120.5239171, 14.6754649 ], [ 120.5236493, 14.6753375 ], [ 120.5232494, 14.6751547 ], [ 120.5228095, 14.6749549 ], [ 120.5225753, 14.674852 ], [ 120.5224086, 14.6747786 ] ] } },
{ "type": "Feature", "properties": { "full_id": "w301430632", "osm_id": "301430632", "osm_type": "way", "highway": "secondary", "source:name": null, "bridge:name": null, "noname": null, "sidewalk": null, "bicycle": null, "oneway": null, "lit": null, "source:nat_name": null, "maxweight": null, "designation": null, "overtaking": null, "nat_name": null, "loc_name": null, "layer": null, "bridge": null, "official_name": null, "contributor": null, "alt_name": null, "maxspeed": "40", "boundary": null, "admin_level": null, "surface": "concrete", "name": "Rotary Avenue", "lanes": null }, "geometry": { "type": "LineString", "coordinates": [ [ 120.5263546, 14.6766074 ], [ 120.5273089, 14.6769742 ], [ 120.5277825, 14.6771082 ], [ 120.5285195, 14.6772875 ], [ 120.5291453, 14.6774396 ], [ 120.529321, 14.6774823 ], [ 120.5296446, 14.6775609 ], [ 120.5301664, 14.677689 ], [ 120.5303907, 14.6777379 ] ] } },
{ "type": "Feature", "properties": { "full_id": "w301430690", "osm_id": "301430690", "osm_type": "way", "highway": "secondary", "source:name": null, "bridge:name": null, "noname": null, "sidewalk": null, "bicycle": null, "oneway": null, "lit": null, "source:nat_name": null, "maxweight": null, "designation": null, "overtaking": null, "nat_name": null, "loc_name": null, "layer": null, "bridge": null, "official_name": null, "contributor": null, "alt_name": null, "maxspeed": "40", "boundary": null, "admin_level": null, "surface": "concrete", "name": "Manahan Street", "lanes": null }, "geometry": { "type": "LineString", "coordinates": [ [ 120.5303907, 14.6777379 ], [ 120.5311521, 14.6779756 ], [ 120.5314396, 14.678073 ], [ 120.531926, 14.6782223 ], [ 120.5319527, 14.6782342 ], [ 120.5324812, 14.6784412 ], [ 120.5327671, 14.6785992 ], [ 120.5328606, 14.6786766 ], [ 120.5330936, 14.6788872 ], [ 120.5332283, 14.6789865 ], [ 120.5335785, 14.6792448 ], [ 120.533857, 14.6794306 ], [ 120.5340971, 14.6795514 ], [ 120.5341231, 14.6795618 ], [ 120.5344005, 14.6796725 ], [ 120.5345002, 14.6796993 ], [ 120.5346562, 14.6797466 ] ] } },
{ "type": "Feature", "properties": { "full_id": "w307124723", "osm_id": "307124723", "osm_type": "way", "highway": "secondary", "source:name": null, "bridge:name": null, "noname": "yes", "sidewalk": null, "bicycle": null, "oneway": null, "lit": null, "source:nat_name": null, "maxweight": null, "designation": null, "overtaking": null, "nat_name": null, "loc_name": null, "layer": "1", "bridge": "yes", "official_name": null, "contributor": null, "alt_name": null, "maxspeed": "40", "boundary": null, "admin_level": null, "surface": "concrete", "name": null, "lanes": null }, "geometry": { "type": "LineString", "coordinates": [ [ 120.5347547, 14.6797753 ], [ 120.5346562, 14.6797466 ] ] } },
{ "type": "Feature", "properties": { "full_id": "w340377322", "osm_id": "340377322", "osm_type": "way", "highway": "secondary", "source:name": null, "bridge:name": null, "noname": null, "sidewalk": null, "bicycle": null, "oneway": null, "lit": null, "source:nat_name": null, "maxweight": null, "designation": null, "overtaking": null, "nat_name": null, "loc_name": null, "layer": null, "bridge": null, "official_name": null, "contributor": null, "alt_name": null, "maxspeed": "60", "boundary": null, "admin_level": null, "surface": null, "name": "Old National Road", "lanes": "2" }, "geometry": { "type": "LineString", "coordinates": [ [ 120.5384535, 14.6932157 ], [ 120.5384506, 14.6932513 ], [ 120.5384177, 14.6936527 ], [ 120.5383437, 14.6945562 ] ] } },
{ "type": "Feature", "properties": { "full_id": "w340377323", "osm_id": "340377323", "osm_type": "way", "highway": "secondary", "source:name": null, "bridge:name": "Tuyo Br.", "noname": null, "sidewalk": null, "bicycle": null, "oneway": null, "lit": null, "source:nat_name": null, "maxweight": null, "designation": null, "overtaking": null, "nat_name": null, "loc_name": null, "layer": "1", "bridge": "yes", "official_name": null, "contributor": null, "alt_name": null, "maxspeed": "60", "boundary": null, "admin_level": null, "surface": null, "name": "Old National Road", "lanes": "2" }, "geometry": { "type": "LineString", "coordinates": [ [ 120.5384654, 14.693108 ], [ 120.5384535, 14.6932157 ] ] } },
{ "type": "Feature", "properties": { "full_id": "w340377338", "osm_id": "340377338", "osm_type": "way", "highway": "secondary", "source:name": null, "bridge:name": null, "noname": null, "sidewalk": null, "bicycle": null, "oneway": null, "lit": null, "source:nat_name": null, "maxweight": null, "designation": null, "overtaking": null, "nat_name": null, "loc_name": null, "layer": "1", "bridge": "yes", "official_name": null, "contributor": null, "alt_name": null, "maxspeed": "60", "boundary": null, "admin_level": null, "surface": "asphalt", "name": "Old National Road", "lanes": "2" }, "geometry": { "type": "LineString", "coordinates": [ [ 120.538796, 14.6873062 ], [ 120.5387901, 14.6873802 ] ] } },
{ "type": "Feature", "properties": { "full_id": "w340377339", "osm_id": "340377339", "osm_type": "way", "highway": "secondary", "source:name": null, "bridge:name": null, "noname": null, "sidewalk": null, "bicycle": null, "oneway": null, "lit": null, "source:nat_name": null, "maxweight": null, "designation": null, "overtaking": null, "nat_name": null, "loc_name": null, "layer": null, "bridge": null, "official_name": null, "contributor": null, "alt_name": null, "maxspeed": "60", "boundary": null, "admin_level": null, "surface": "asphalt", "name": "Old National Road", "lanes": "2" }, "geometry": { "type": "LineString", "coordinates": [ [ 120.5387901, 14.6873802 ], [ 120.538783, 14.6874651 ] ] } },
{ "type": "Feature", "properties": { "full_id": "w536587985", "osm_id": "536587985", "osm_type": "way", "highway": "secondary", "source:name": null, "bridge:name": null, "noname": null, "sidewalk": null, "bicycle": null, "oneway": null, "lit": null, "source:nat_name": null, "maxweight": null, "designation": null, "overtaking": null, "nat_name": null, "loc_name": null, "layer": null, "bridge": null, "official_name": null, "contributor": null, "alt_name": "National Road", "maxspeed": "60", "boundary": null, "admin_level": null, "surface": null, "name": "Old National Road", "lanes": "2" }, "geometry": { "type": "LineString", "coordinates": [ [ 120.538681, 14.6895054 ], [ 120.538674, 14.6896729 ], [ 120.5386229, 14.6907896 ], [ 120.5385536, 14.6917442 ], [ 120.5385453, 14.6920089 ], [ 120.5384994, 14.6927645 ], [ 120.5384654, 14.693108 ] ] } },
{ "type": "Feature", "properties": { "full_id": "w536587987", "osm_id": "536587987", "osm_type": "way", "highway": "secondary", "source:name": null, "bridge:name": null, "noname": null, "sidewalk": null, "bicycle": null, "oneway": null, "lit": null, "source:nat_name": null, "maxweight": null, "designation": null, "overtaking": null, "nat_name": null, "loc_name": null, "layer": null, "bridge": null, "official_name": null, "contributor": null, "alt_name": "Lerma Street", "maxspeed": null, "boundary": null, "admin_level": null, "surface": "asphalt", "name": "Calero Street", "lanes": "2" }, "geometry": { "type": "LineString", "coordinates": [ [ 120.53862, 14.6821216 ], [ 120.538644, 14.6820742 ] ] } },
{ "type": "Feature", "properties": { "full_id": "w806252565", "osm_id": "806252565", "osm_type": "way", "highway": "secondary", "source:name": null, "bridge:name": null, "noname": null, "sidewalk": null, "bicycle": null, "oneway": null, "lit": null, "source:nat_name": null, "maxweight": null, "designation": null, "overtaking": null, "nat_name": null, "loc_name": null, "layer": null, "bridge": null, "official_name": null, "contributor": "wph-eppgarcia", "alt_name": null, "maxspeed": null, "boundary": null, "admin_level": null, "surface": "asphalt", "name": "Aguirre Street", "lanes": "2" }, "geometry": { "type": "LineString", "coordinates": [ [ 120.5396521, 14.6805443 ], [ 120.5394406, 14.6807138 ] ] } },
{ "type": "Feature", "properties": { "full_id": "w806252566", "osm_id": "806252566", "osm_type": "way", "highway": "secondary", "source:name": null, "bridge:name": null, "noname": null, "sidewalk": null, "bicycle": null, "oneway": null, "lit": null, "source:nat_name": null, "maxweight": null, "designation": null, "overtaking": null, "nat_name": null, "loc_name": null, "layer": "1", "bridge": "yes", "official_name": null, "contributor": "wph-eppgarcia", "alt_name": null, "maxspeed": "20", "boundary": null, "admin_level": null, "surface": "asphalt", "name": "Aguirre Street", "lanes": "2" }, "geometry": { "type": "LineString", "coordinates": [ [ 120.539881, 14.6803594 ], [ 120.5396521, 14.6805443 ] ] } },
{ "type": "Feature", "properties": { "full_id": "w821735681", "osm_id": "821735681", "osm_type": "way", "highway": "secondary", "source:name": null, "bridge:name": null, "noname": null, "sidewalk": null, "bicycle": null, "oneway": null, "lit": null, "source:nat_name": null, "maxweight": null, "designation": null, "overtaking": null, "nat_name": null, "loc_name": null, "layer": null, "bridge": null, "official_name": null, "contributor": null, "alt_name": null, "maxspeed": "60", "boundary": null, "admin_level": null, "surface": null, "name": "Old National Road", "lanes": "2" }, "geometry": { "type": "LineString", "coordinates": [ [ 120.5378611, 14.7052173 ], [ 120.5378488, 14.7051092 ], [ 120.537777, 14.7045283 ], [ 120.5377636, 14.7044202 ], [ 120.5377295, 14.7040766 ], [ 120.5377241, 14.7040219 ], [ 120.5377215, 14.7039889 ], [ 120.5376878, 14.7035565 ], [ 120.5376607, 14.7032094 ], [ 120.5376513, 14.7030883 ], [ 120.5376484, 14.7028154 ], [ 120.5376533, 14.7025064 ], [ 120.537657, 14.7024266 ], [ 120.5376814, 14.7018957 ], [ 120.5377476, 14.7013819 ], [ 120.5377884, 14.7008719 ], [ 120.537871, 14.6999132 ], [ 120.5379099, 14.6994877 ], [ 120.53795, 14.6990683 ], [ 120.5379796, 14.6986929 ], [ 120.5380181, 14.6982034 ], [ 120.5380413, 14.6979113 ], [ 120.5380495, 14.6978419 ], [ 120.5380663, 14.6976991 ], [ 120.5381206, 14.6970602 ], [ 120.5381602, 14.6966597 ], [ 120.538198, 14.6962772 ], [ 120.5382105, 14.6961798 ], [ 120.5382553, 14.6957868 ], [ 120.5383042, 14.6951981 ], [ 120.5383437, 14.6945562 ] ] } },
{ "type": "Feature", "properties": { "full_id": "w821735682", "osm_id": "821735682", "osm_type": "way", "highway": "secondary", "source:name": null, "bridge:name": null, "noname": null, "sidewalk": null, "bicycle": null, "oneway": null, "lit": null, "source:nat_name": null, "maxweight": null, "designation": null, "overtaking": null, "nat_name": null, "loc_name": null, "layer": null, "bridge": null, "official_name": null, "contributor": null, "alt_name": null, "maxspeed": "60", "boundary": null, "admin_level": null, "surface": "asphalt", "name": "Old National Road", "lanes": "2" }, "geometry": { "type": "LineString", "coordinates": [ [ 120.538783, 14.6874651 ], [ 120.5387145, 14.6887657 ] ] } },
{ "type": "Feature", "properties": { "full_id": "w821735683", "osm_id": "821735683", "osm_type": "way", "highway": "secondary", "source:name": null, "bridge:name": null, "noname": null, "sidewalk": null, "bicycle": null, "oneway": "yes", "lit": null, "source:nat_name": null, "maxweight": null, "designation": null, "overtaking": null, "nat_name": null, "loc_name": null, "layer": null, "bridge": null, "official_name": null, "contributor": null, "alt_name": null, "maxspeed": null, "boundary": null, "admin_level": null, "surface": "concrete", "name": "Enrique Garcia Sr. Avenue", "lanes": "2" }, "geometry": { "type": "LineString", "coordinates": [ [ 120.538681, 14.6895054 ], [ 120.5380949, 14.6894481 ] ] } },
{ "type": "Feature", "properties": { "full_id": "w821735684", "osm_id": "821735684", "osm_type": "way", "highway": "secondary", "source:name": null, "bridge:name": null, "noname": null, "sidewalk": null, "bicycle": null, "oneway": "yes", "lit": null, "source:nat_name": null, "maxweight": null, "designation": null, "overtaking": null, "nat_name": null, "loc_name": null, "layer": null, "bridge": null, "official_name": null, "contributor": null, "alt_name": null, "maxspeed": null, "boundary": null, "admin_level": null, "surface": "concrete", "name": "Enrique Garcia Sr. Avenue", "lanes": "3" }, "geometry": { "type": "LineString", "coordinates": [ [ 120.5381164, 14.6893287 ], [ 120.5382857, 14.6893429 ], [ 120.538413, 14.6893536 ], [ 120.5385159, 14.6893623 ], [ 120.5386865, 14.6893766 ] ] } },
{ "type": "Feature", "properties": { "full_id": "w1037036600", "osm_id": "1037036600", "osm_type": "way", "highway": "secondary", "source:name": "extrapolated from node:1367403907", "bridge:name": null, "noname": null, "sidewalk": null, "bicycle": null, "oneway": null, "lit": null, "source:nat_name": null, "maxweight": null, "designation": null, "overtaking": null, "nat_name": null, "loc_name": null, "layer": null, "bridge": null, "official_name": null, "contributor": null, "alt_name": null, "maxspeed": null, "boundary": null, "admin_level": null, "surface": "asphalt", "name": "Hugo Banzon Street", "lanes": "2" }, "geometry": { "type": "LineString", "coordinates": [ [ 120.5419829, 14.6776599 ], [ 120.5425077, 14.6779012 ] ] } },
{ "type": "Feature", "properties": { "full_id": "w1073151479", "osm_id": "1073151479", "osm_type": "way", "highway": "secondary", "source:name": null, "bridge:name": null, "noname": null, "sidewalk": null, "bicycle": null, "oneway": "yes", "lit": null, "source:nat_name": null, "maxweight": null, "designation": null, "overtaking": null, "nat_name": null, "loc_name": null, "layer": null, "bridge": null, "official_name": null, "contributor": null, "alt_name": null, "maxspeed": null, "boundary": null, "admin_level": null, "surface": "concrete", "name": "Enrique Garcia Sr. Avenue", "lanes": "3" }, "geometry": { "type": "LineString", "coordinates": [ [ 120.5187789, 14.6874452 ], [ 120.5181261, 14.6873744 ], [ 120.517986, 14.6873592 ], [ 120.5176877, 14.6873269 ] ] } },
{ "type": "Feature", "properties": { "full_id": "w1076732751", "osm_id": "1076732751", "osm_type": "way", "highway": "secondary", "source:name": null, "bridge:name": null, "noname": null, "sidewalk": null, "bicycle": null, "oneway": null, "lit": null, "source:nat_name": null, "maxweight": null, "designation": null, "overtaking": null, "nat_name": null, "loc_name": null, "layer": null, "bridge": null, "official_name": null, "contributor": null, "alt_name": null, "maxspeed": "60", "boundary": null, "admin_level": null, "surface": "asphalt", "name": "Old National Road", "lanes": "2" }, "geometry": { "type": "LineString", "coordinates": [ [ 120.5386865, 14.6893766 ], [ 120.538681, 14.6895054 ] ] } },
{ "type": "Feature", "properties": { "full_id": "w1216733560", "osm_id": "1216733560", "osm_type": "way", "highway": "secondary", "source:name": null, "bridge:name": null, "noname": null, "sidewalk": null, "bicycle": null, "oneway": "yes", "lit": null, "source:nat_name": null, "maxweight": null, "designation": null, "overtaking": null, "nat_name": null, "loc_name": null, "layer": null, "bridge": null, "official_name": null, "contributor": null, "alt_name": null, "maxspeed": null, "boundary": null, "admin_level": null, "surface": "asphalt", "name": "Hugo Banzon Street", "lanes": "2" }, "geometry": { "type": "LineString", "coordinates": [ [ 120.5425077, 14.6779012 ], [ 120.542825, 14.6780421 ], [ 120.5429839, 14.6781127 ] ] } },
{ "type": "Feature", "properties": { "full_id": "w1333212469", "osm_id": "1333212469", "osm_type": "way", "highway": "secondary", "source:name": null, "bridge:name": null, "noname": null, "sidewalk": null, "bicycle": null, "oneway": "yes", "lit": null, "source:nat_name": null, "maxweight": null, "designation": null, "overtaking": null, "nat_name": null, "loc_name": null, "layer": null, "bridge": null, "official_name": null, "contributor": "wph-eppgarcia", "alt_name": null, "maxspeed": null, "boundary": null, "admin_level": null, "surface": "asphalt", "name": "Aguirre Street", "lanes": "2" }, "geometry": { "type": "LineString", "coordinates": [ [ 120.540591, 14.6797123 ], [ 120.5405757, 14.6796613 ], [ 120.5407019, 14.6794125 ], [ 120.5407849, 14.6792488 ], [ 120.5408649, 14.6792131 ] ] } },
{ "type": "Feature", "properties": { "full_id": "w1333212470", "osm_id": "1333212470", "osm_type": "way", "highway": "secondary", "source:name": null, "bridge:name": null, "noname": null, "sidewalk": null, "bicycle": null, "oneway": "yes", "lit": null, "source:nat_name": null, "maxweight": null, "designation": null, "overtaking": null, "nat_name": null, "loc_name": null, "layer": null, "bridge": null, "official_name": null, "contributor": "wph-eppgarcia", "alt_name": null, "maxspeed": null, "boundary": null, "admin_level": null, "surface": "asphalt", "name": "Aguirre Street", "lanes": "2" }, "geometry": { "type": "LineString", "coordinates": [ [ 120.5408649, 14.6792131 ], [ 120.5408627, 14.6792903 ], [ 120.5407809, 14.6794455 ], [ 120.5406508, 14.6796925 ], [ 120.540591, 14.6797123 ] ] } }
]
}
