{
"type": "FeatureCollection",
"name": "tertiary",
"crs": { "type": "name", "properties": { "name": "urn:ogc:def:crs:OGC:1.3:CRS84" } },
"features": [
{ "type": "Feature", "properties": { "full_id": "w28400846", "osm_id": "28400846", "osm_type": "way", "highway": "tertiary", "source:name": null, "loc_name": null, "layer": null, "bridge": null, "oneway": null, "surface": null, "lanes": null, "maxspeed": null, "name:etymology:wikidata": "Q1500", "name:etymology": "José Rizal", "name": "J. P. Rizal Street", "boundary": "administrative", "admin_level": "10" }, "geometry": { "type": "LineString", "coordinates": [ [ 120.5421361, 14.6799323 ], [ 120.5423434, 14.6800568 ], [ 120.542552, 14.6801821 ], [ 120.5429697, 14.6804571 ], [ 120.5433338, 14.6806968 ], [ 120.5437764, 14.680995 ] ] } },
{ "type": "Feature", "properties": { "full_id": "w28400847", "osm_id": "28400847", "osm_type": "way", "highway": "tertiary", "source:name": null, "loc_name": null, "layer": null, "bridge": null, "oneway": null, "surface": null, "lanes": null, "maxspeed": null, "name:etymology:wikidata": null, "name:etymology": null, "name": "Sibacan Road", "boundary": "administrative", "admin_level": "10" }, "geometry": { "type": "LineString", "coordinates": [ [ 120.5476708, 14.683776 ], [ 120.5473458, 14.6847608 ], [ 120.5471922, 14.6852103 ], [ 120.5469007, 14.6861985 ], [ 120.5469087, 14.6862801 ], [ 120.5469751, 14.6864621 ], [ 120.5470054, 14.6865695 ] ] } },
{ "type": "Feature", "properties": { "full_id": "w28400952", "osm_id": "28400952", "osm_type": "way", "highway": "tertiary", "source:name": null, "loc_name": null, "layer": null, "bridge": null, "oneway": null, "surface": null, "lanes": null, "maxspeed": "30", "name:etymology:wikidata": null, "name:etymology": null, "name": "Market Road", "boundary": null, "admin_level": null }, "geometry": { "type": "LineString", "coordinates": [ [ 120.5332285, 14.676406 ], [ 120.5333318, 14.6757137 ], [ 120.5334485, 14.6749502 ], [ 120.5334673, 14.6748275 ] ] } },
{ "type": "Feature", "properties": { "full_id": "w77594306", "osm_id": "77594306", "osm_type": "way", "highway": "tertiary", "source:name": null, "loc_name": null, "layer": null, "bridge": null, "oneway": null, "surface": null, "lanes": null, "maxspeed": "40", "name:etymology:wikidata": null, "name:etymology": null, "name": "Balanga – Cadre Road", "boundary": null, "admin_level": null }, "geometry": { "type": "LineString", "coordinates": [ [ 120.5183065, 14.6823944 ], [ 120.518644, 14.6824336 ], [ 120.5198157, 14.682553 ], [ 120.5199279, 14.6825641 ], [ 120.5200356, 14.6825802 ], [ 120.5201479, 14.6826009 ], [ 120.5202556, 14.6826244 ], [ 120.5203065, 14.6826405 ], [ 120.5203575, 14.6826736 ], [ 120.5204219, 14.6827229 ], [ 120.5204704, 14.6827569 ], [ 120.5205477, 14.6828101 ], [ 120.5209012, 14.683053 ], [ 120.5210106, 14.6831134 ], [ 120.521028, 14.6831189 ], [ 120.5210413, 14.6831222 ], [ 120.5213197, 14.6831638 ], [ 120.5217027, 14.683221 ], [ 120.5227947, 14.6833902 ], [ 120.5233628, 14.6834782 ] ] } },
{ "type": "Feature", "properties": { "full_id": "w77594309", "osm_id": "77594309", "osm_type": "way", "highway": "tertiary", "source:name": null, "loc_name": null, "layer": null, "bridge": null, "oneway": null, "surface": null, "lanes": null, "maxspeed": "40", "name:etymology:wikidata": null, "name:etymology": null, "name": null, "boundary": null, "admin_level": null }, "geometry": { "type": "LineString", "coordinates": [ [ 120.5233628, 14.6834782 ], [ 120.5259602, 14.6827297 ], [ 120.5269504, 14.6824803 ], [ 120.5278784, 14.6823029 ], [ 120.5293595, 14.6819752 ], [ 120.5299415, 14.6818438 ], [ 120.5300737, 14.6818144 ], [ 120.5312625, 14.6815433 ], [ 120.5314262, 14.6815119 ], [ 120.532125, 14.6813815 ], [ 120.5325977, 14.6812836 ], [ 120.532807, 14.6812077 ], [ 120.5329998, 14.6811226 ], [ 120.5333053, 14.6809718 ], [ 120.5334078, 14.6808989 ], [ 120.5334944, 14.6808033 ], [ 120.5335526, 14.680703 ], [ 120.5336147, 14.6806105 ], [ 120.5336773, 14.6805499 ], [ 120.5337632, 14.680511 ], [ 120.5339533, 14.6804476 ], [ 120.5341318, 14.6803869 ], [ 120.5342849, 14.6803242 ], [ 120.5344426, 14.6802457 ], [ 120.5346302, 14.6800935 ], [ 120.5348156, 14.6799308 ], [ 120.5349434, 14.6798185 ] ] } },
{ "type": "Feature", "properties": { "full_id": "w81459391", "osm_id": "81459391", "osm_type": "way", "highway": "tertiary", "source:name": null, "loc_name": null, "layer": null, "bridge": null, "oneway": null, "surface": "asphalt", "lanes": "2", "maxspeed": null, "name:etymology:wikidata": null, "name:etymology": null, "name": "Fiscal Camacho Street", "boundary": null, "admin_level": null }, "geometry": { "type": "LineString", "coordinates": [ [ 120.5248885, 14.6713045 ], [ 120.524912, 14.6713053 ], [ 120.5250458, 14.6713098 ], [ 120.5251566, 14.671313 ], [ 120.5253072, 14.6713219 ], [ 120.5264143, 14.6713738 ], [ 120.5274881, 14.6714242 ], [ 120.5275814, 14.67143 ], [ 120.5281489, 14.6714654 ], [ 120.5294838, 14.6715278 ], [ 120.5296673, 14.6715343 ], [ 120.5302027, 14.6715613 ], [ 120.5302504, 14.6715637 ], [ 120.5307271, 14.6717406 ], [ 120.5311596, 14.6718777 ], [ 120.5315678, 14.6720186 ], [ 120.5318243, 14.6721021 ], [ 120.5320888, 14.6722202 ], [ 120.5327533, 14.672573 ], [ 120.5328166, 14.6726066 ] ] } },
{ "type": "Feature", "properties": { "full_id": "w99692167", "osm_id": "99692167", "osm_type": "way", "highway": "tertiary", "source:name": null, "loc_name": null, "layer": null, "bridge": null, "oneway": null, "surface": null, "lanes": null, "maxspeed": null, "name:etymology:wikidata": null, "name:etymology": null, "name": "Gallardo Street", "boundary": "administrative", "admin_level": "10" }, "geometry": { "type": "LineString", "coordinates": [ [ 120.5417318, 14.675775 ], [ 120.5413816, 14.6757698 ] ] } },
{ "type": "Feature", "properties": { "full_id": "w99692181", "osm_id": "99692181", "osm_type": "way", "highway": "tertiary", "source:name": null, "loc_name": null, "layer": null, "bridge": null, "oneway": "yes", "surface": null, "lanes": null, "maxspeed": null, "name:etymology:wikidata": null, "name:etymology": null, "name": "M. H. del Pilar Street", "boundary": null, "admin_level": null }, "geometry": { "type": "LineString", "coordinates": [ [ 120.5437864, 14.6671561 ], [ 120.5438749, 14.6669031 ], [ 120.543995, 14.6667415 ] ] } },
{ "type": "Feature", "properties": { "full_id": "w99692206", "osm_id": "99692206", "osm_type": "way", "highway": "tertiary", "source:name": null, "loc_name": null, "layer": null, "bridge": null, "oneway": null, "surface": null, "lanes": null, "maxspeed": null, "name:etymology:wikidata": null, "name:etymology": null, "name": "Tuyo Vicinal Road", "boundary": null, "admin_level": null }, "geometry": { "type": "LineString", "coordinates": [ [ 120.5172246, 14.6912849 ], [ 120.5182222, 14.6912772 ], [ 120.5183188, 14.6912979 ], [ 120.5184263, 14.6913369 ], [ 120.5186784, 14.6914147 ], [ 120.5190191, 14.6914897 ], [ 120.5200474, 14.6916925 ], [ 120.5202075, 14.6916982 ], [ 120.5204226, 14.6917059 ], [ 120.5207813, 14.6916404 ], [ 120.5209529, 14.6919596 ], [ 120.5210385, 14.6920408 ], [ 120.5218256, 14.6924384 ], [ 120.5220425, 14.6925222 ], [ 120.5222034, 14.6925666 ], [ 120.5223504, 14.6925589 ], [ 120.5224554, 14.692555 ], [ 120.5225703, 14.6925719 ], [ 120.5244497, 14.6930679 ], [ 120.5245364, 14.6931271 ], [ 120.5245709, 14.6932058 ], [ 120.5245866, 14.6947947 ], [ 120.5245994, 14.6949163 ], [ 120.5246314, 14.6949899 ], [ 120.5247305, 14.6950666 ], [ 120.5257649, 14.6956406 ], [ 120.5260232, 14.6957894 ], [ 120.5262943, 14.6960027 ], [ 120.526371, 14.6960459 ], [ 120.5264644, 14.6960568 ], [ 120.5269889, 14.6961208 ], [ 120.5275108, 14.6961773 ], [ 120.5282798, 14.6961844 ], [ 120.528931, 14.6962083 ], [ 120.5291549, 14.6962211 ], [ 120.5292678, 14.6962327 ], [ 120.5294366, 14.6962691 ], [ 120.5303527, 14.6965778 ], [ 120.5307791, 14.6967211 ], [ 120.5315649, 14.6969865 ], [ 120.5317086, 14.6970188 ], [ 120.5318432, 14.6970353 ], [ 120.5319634, 14.6970396 ], [ 120.5320948, 14.6970379 ], [ 120.5321807, 14.6970136 ], [ 120.5326637, 14.6968704 ], [ 120.5327885, 14.6968317 ], [ 120.5329945, 14.696801 ], [ 120.5331054, 14.6968041 ], [ 120.5331858, 14.6968119 ], [ 120.5332659, 14.6968242 ], [ 120.5335013, 14.6968752 ], [ 120.5335755, 14.6968915 ], [ 120.5337964, 14.696922 ], [ 120.53396, 14.6969246 ], [ 120.5340783, 14.6969034 ], [ 120.5341766, 14.6968832 ], [ 120.5342647, 14.6968411 ], [ 120.5343398, 14.696784 ], [ 120.534431, 14.6967075 ], [ 120.5345307, 14.6966071 ], [ 120.5346317, 14.6964923 ], [ 120.5352733, 14.6960329 ], [ 120.5360382, 14.6954982 ], [ 120.5361374, 14.6954534 ], [ 120.5362549, 14.6954288 ], [ 120.536318, 14.6954349 ], [ 120.5364008, 14.6954486 ], [ 120.5364393, 14.6954628 ] ] } },
{ "type": "Feature", "properties": { "full_id": "w99716409", "osm_id": "99716409", "osm_type": "way", "highway": "tertiary", "source:name": null, "loc_name": null, "layer": null, "bridge": null, "oneway": null, "surface": null, "lanes": null, "maxspeed": null, "name:etymology:wikidata": null, "name:etymology": null, "name": "Munting Batangas Road", "boundary": null, "admin_level": null }, "geometry": { "type": "LineString", "coordinates": [ [ 120.5183065, 14.6823944 ], [ 120.5177211, 14.6823414 ], [ 120.5172921, 14.682282 ], [ 120.5170715, 14.6822515 ], [ 120.5155096, 14.6820242 ], [ 120.5149036, 14.6819371 ], [ 120.514487, 14.681875 ], [ 120.5137704, 14.6817279 ], [ 120.5127338, 14.6816682 ], [ 120.512273, 14.6816462 ], [ 120.511466, 14.6816223 ], [ 120.5103112, 14.6814692 ], [ 120.5098926, 14.6814298 ], [ 120.5094828, 14.6813912 ], [ 120.5090936, 14.6813546 ], [ 120.5090653, 14.681348 ], [ 120.5089764, 14.6813274 ], [ 120.5083514, 14.6811826 ], [ 120.5082148, 14.6811509 ], [ 120.5073247, 14.680902 ], [ 120.5072327, 14.6808753 ], [ 120.5068753, 14.6807716 ], [ 120.5066592, 14.680709 ], [ 120.5065704, 14.6806832 ], [ 120.5062367, 14.6805807 ], [ 120.5062013, 14.6805728 ], [ 120.5060726, 14.6805303 ], [ 120.5056124, 14.680389 ], [ 120.5053597, 14.6803107 ], [ 120.5050002, 14.6801993 ], [ 120.5044809, 14.6800383 ], [ 120.5038548, 14.679695 ], [ 120.5037364, 14.6796247 ], [ 120.5033344, 14.6793858 ], [ 120.5025152, 14.6785472 ], [ 120.5024531, 14.6784969 ], [ 120.5023847, 14.6784606 ], [ 120.5023094, 14.6784445 ], [ 120.500273, 14.6783363 ], [ 120.5001663, 14.6783166 ], [ 120.5000988, 14.6782935 ], [ 120.5000283, 14.6782503 ], [ 120.4984049, 14.6768437 ], [ 120.4972685, 14.6759457 ], [ 120.4971161, 14.6758607 ], [ 120.4969597, 14.6758124 ], [ 120.4967923, 14.6757932 ], [ 120.496624, 14.6757919 ], [ 120.496459, 14.6758263 ], [ 120.4961862, 14.6759059 ], [ 120.4960466, 14.6759301 ], [ 120.4959338, 14.6759277 ], [ 120.4952605, 14.6758499 ], [ 120.494801, 14.6758648 ], [ 120.4945369, 14.6758825 ], [ 120.494355, 14.6758918 ], [ 120.4941999, 14.6758743 ], [ 120.4940781, 14.6758403 ], [ 120.4935124, 14.6755986 ] ] } },
{ "type": "Feature", "properties": { "full_id": "w107423948", "osm_id": "107423948", "osm_type": "way", "highway": "tertiary", "source:name": null, "loc_name": null, "layer": null, "bridge": null, "oneway": null, "surface": "concrete", "lanes": "2", "maxspeed": null, "name:etymology:wikidata": null, "name:etymology": null, "name": null, "boundary": null, "admin_level": null }, "geometry": { "type": "LineString", "coordinates": [ [ 120.5172246, 14.6912849 ], [ 120.5171105, 14.6912831 ], [ 120.5170074, 14.691298 ], [ 120.516886, 14.6913283 ], [ 120.5164549, 14.6914874 ], [ 120.5163449, 14.6915159 ], [ 120.516228, 14.6915172 ], [ 120.5154273, 14.6914029 ], [ 120.5146355, 14.6913049 ], [ 120.5131225, 14.6911047 ], [ 120.5127104, 14.6910502 ], [ 120.5125055, 14.691021 ], [ 120.5124012, 14.6910014 ], [ 120.5121432, 14.6909703 ], [ 120.5110769, 14.6908437 ], [ 120.5107879, 14.6908215 ], [ 120.5105411, 14.6908067 ], [ 120.5103969, 14.6907926 ], [ 120.5101776, 14.6907696 ], [ 120.5090827, 14.6903827 ], [ 120.50882, 14.6903039 ], [ 120.5086497, 14.6902528 ], [ 120.5084391, 14.6901896 ], [ 120.5080512, 14.6901283 ], [ 120.5076028, 14.6900831 ], [ 120.5070968, 14.68993 ], [ 120.5063263, 14.6896688 ], [ 120.5061538, 14.6896103 ], [ 120.5059111, 14.6895432 ], [ 120.5058058, 14.689514 ], [ 120.5056562, 14.6894725 ], [ 120.5053396, 14.6893885 ], [ 120.5052086, 14.6893528 ], [ 120.5050662, 14.689314 ], [ 120.5046772, 14.6891742 ], [ 120.5036523, 14.6886568 ], [ 120.5031713, 14.6884108 ], [ 120.5028806, 14.6882953 ], [ 120.5028306, 14.688287 ], [ 120.5027705, 14.6882986 ], [ 120.5026564, 14.6883528 ], [ 120.5025468, 14.6883769 ], [ 120.5005574, 14.6883485 ], [ 120.500046, 14.688372 ], [ 120.4999515, 14.6883763 ], [ 120.4987067, 14.6884336 ], [ 120.4980464, 14.6884638 ], [ 120.4974917, 14.6884855 ], [ 120.4974392, 14.6884917 ], [ 120.4935779, 14.6887395 ], [ 120.4931809, 14.688765 ], [ 120.4911704, 14.6888941 ], [ 120.4897326, 14.6889289 ], [ 120.4896194, 14.6889299 ], [ 120.4895058, 14.6889245 ], [ 120.4892683, 14.6888945 ], [ 120.4890584, 14.6888812 ], [ 120.4888553, 14.6888945 ], [ 120.4887865, 14.6888846 ], [ 120.488765, 14.6888686 ], [ 120.4887418, 14.6888513 ], [ 120.4887073, 14.688778 ], [ 120.4886032, 14.6883661 ], [ 120.488577, 14.6882517 ], [ 120.488547, 14.6881467 ], [ 120.4885156, 14.6880029 ], [ 120.4884859, 14.6879372 ], [ 120.4884472, 14.687916 ], [ 120.4884045, 14.6878991 ], [ 120.4883322, 14.6878991 ], [ 120.4878047, 14.6879505 ], [ 120.4876565, 14.687958 ], [ 120.4875061, 14.6879523 ], [ 120.486983, 14.6878724 ], [ 120.4864309, 14.6877688 ], [ 120.4863531, 14.6877426 ], [ 120.4863042, 14.6877253 ], [ 120.486255, 14.6876902 ], [ 120.4862189, 14.6876494 ], [ 120.4861879, 14.6875761 ], [ 120.4861398, 14.687453 ], [ 120.4860941, 14.687403 ], [ 120.4860386, 14.6873685 ], [ 120.4859879, 14.687351 ], [ 120.4857612, 14.6873464 ], [ 120.4856631, 14.6873296 ], [ 120.4855384, 14.6872998 ], [ 120.4854601, 14.6872732 ], [ 120.4853775, 14.6872207 ], [ 120.4853275, 14.68717 ], [ 120.4852483, 14.6870201 ] ] } },
{ "type": "Feature", "properties": { "full_id": "w107425056", "osm_id": "107425056", "osm_type": "way", "highway": "tertiary", "source:name": null, "loc_name": null, "layer": "1", "bridge": "yes", "oneway": null, "surface": null, "lanes": null, "maxspeed": null, "name:etymology:wikidata": null, "name:etymology": null, "name": "Puerto Rivas Road", "boundary": null, "admin_level": null }, "geometry": { "type": "LineString", "coordinates": [ [ 120.5587409, 14.6906791 ], [ 120.5591204, 14.6904728 ] ] } },
{ "type": "Feature", "properties": { "full_id": "w107426469", "osm_id": "107426469", "osm_type": "way", "highway": "tertiary", "source:name": null, "loc_name": null, "layer": null, "bridge": null, "oneway": null, "surface": null, "lanes": null, "maxspeed": null, "name:etymology:wikidata": null, "name:etymology": null, "name": "Gallardo Street", "boundary": null, "admin_level": null }, "geometry": { "type": "LineString", "coordinates": [ [ 120.5394195, 14.6748563 ], [ 120.5393617, 14.6746898 ] ] } },
{ "type": "Feature", "properties": { "full_id": "w107426478", "osm_id": "107426478", "osm_type": "way", "highway": "tertiary", "source:name": null, "loc_name": null, "layer": "1", "bridge": "yes", "oneway": null, "surface": null, "lanes": "2", "maxspeed": null, "name:etymology:wikidata": null, "name:etymology": null, "name": "General Capinpin Street", "boundary": null, "admin_level": null }, "geometry": { "type": "LineString", "coordinates": [ [ 120.5401357, 14.6769124 ], [ 120.5402984, 14.6769606 ] ] } },
{ "type": "Feature", "properties": { "full_id": "w107426487", "osm_id": "107426487", "osm_type": "way", "highway": "tertiary", "source:name": null, "loc_name": null, "layer": null, "bridge": null, "oneway": null, "surface": null, "lanes": null, "maxspeed": null, "name:etymology:wikidata": null, "name:etymology": null, "name": "Gallardo Street", "boundary": null, "admin_level": null }, "geometry": { "type": "LineString", "coordinates": [ [ 120.5393617, 14.6746898 ], [ 120.5392641, 14.6746546 ], [ 120.5390789, 14.674583 ], [ 120.5389559, 14.6744914 ], [ 120.5388739, 14.6743877 ], [ 120.5387004, 14.6740154 ], [ 120.5386259, 14.6739269 ], [ 120.5384999, 14.6738491 ], [ 120.5383617, 14.6737698 ], [ 120.5382384, 14.6736349 ], [ 120.5381794, 14.6735441 ], [ 120.5380868, 14.673382 ], [ 120.5380077, 14.6732457 ], [ 120.537997, 14.6732147 ], [ 120.538009, 14.6730086 ] ] } },
{ "type": "Feature", "properties": { "full_id": "w107426495", "osm_id": "107426495", "osm_type": "way", "highway": "tertiary", "source:name": null, "loc_name": null, "layer": null, "bridge": null, "oneway": null, "surface": "asphalt", "lanes": "2", "maxspeed": null, "name:etymology:wikidata": null, "name:etymology": null, "name": "General Capinpin Street", "boundary": null, "admin_level": null }, "geometry": { "type": "LineString", "coordinates": [ [ 120.5402984, 14.6769606 ], [ 120.5403745, 14.676989 ], [ 120.5404421, 14.6770165 ], [ 120.5406755, 14.6771014 ] ] } },
{ "type": "Feature", "properties": { "full_id": "w107426513", "osm_id": "107426513", "osm_type": "way", "highway": "tertiary", "source:name": null, "loc_name": null, "layer": "1", "bridge": "yes", "oneway": null, "surface": null, "lanes": null, "maxspeed": null, "name:etymology:wikidata": null, "name:etymology": null, "name": "Laurel Street", "boundary": null, "admin_level": null }, "geometry": { "type": "LineString", "coordinates": [ [ 120.5375659, 14.6795018 ], [ 120.5374808, 14.6796426 ] ] } },
{ "type": "Feature", "properties": { "full_id": "w107431365", "osm_id": "107431365", "osm_type": "way", "highway": "tertiary", "source:name": null, "loc_name": null, "layer": null, "bridge": null, "oneway": null, "surface": "concrete", "lanes": "2", "maxspeed": null, "name:etymology:wikidata": null, "name:etymology": null, "name": "Sampaguita Street", "boundary": null, "admin_level": null }, "geometry": { "type": "LineString", "coordinates": [ [ 120.5359158, 14.6752013 ], [ 120.5357515, 14.6759936 ], [ 120.5356611, 14.6764273 ], [ 120.5355774, 14.6768293 ] ] } },
{ "type": "Feature", "properties": { "full_id": "w108875660", "osm_id": "108875660", "osm_type": "way", "highway": "tertiary", "source:name": null, "loc_name": null, "layer": null, "bridge": null, "oneway": null, "surface": "concrete", "lanes": null, "maxspeed": null, "name:etymology:wikidata": null, "name:etymology": "Miguel Cuaderno", "name": "Cuaderno Avenue", "boundary": "administrative", "admin_level": "10" }, "geometry": { "type": "LineString", "coordinates": [ [ 120.5411657, 14.6819077 ], [ 120.5416013, 14.6821123 ], [ 120.5420098, 14.6823011 ], [ 120.5420325, 14.6823116 ], [ 120.5424824, 14.6825488 ] ] } },
{ "type": "Feature", "properties": { "full_id": "w108877362", "osm_id": "108877362", "osm_type": "way", "highway": "tertiary", "source:name": null, "loc_name": null, "layer": null, "bridge": null, "oneway": null, "surface": null, "lanes": null, "maxspeed": null, "name:etymology:wikidata": null, "name:etymology": null, "name": "Dama de Noche Street", "boundary": null, "admin_level": null }, "geometry": { "type": "LineString", "coordinates": [ [ 120.5446575, 14.6835703 ], [ 120.5444633, 14.6839647 ], [ 120.5442295, 14.68439 ], [ 120.5440131, 14.6848248 ], [ 120.5440235, 14.6851767 ], [ 120.5440608, 14.6854277 ], [ 120.5441328, 14.6856501 ], [ 120.5442537, 14.6858569 ], [ 120.5444371, 14.6860333 ], [ 120.544645, 14.6862033 ], [ 120.5467297, 14.6876788 ], [ 120.5472209, 14.6880027 ] ] } },
{ "type": "Feature", "properties": { "full_id": "w109039016", "osm_id": "109039016", "osm_type": "way", "highway": "tertiary", "source:name": null, "loc_name": null, "layer": null, "bridge": null, "oneway": null, "surface": "asphalt", "lanes": "2", "maxspeed": null, "name:etymology:wikidata": null, "name:etymology": null, "name": "General Capinpin Street", "boundary": null, "admin_level": null }, "geometry": { "type": "LineString", "coordinates": [ [ 120.5339124, 14.6748827 ], [ 120.5339681, 14.6748904 ], [ 120.5346207, 14.6749811 ], [ 120.5352691, 14.6750629 ], [ 120.5355264, 14.6750954 ], [ 120.5356158, 14.6751071 ], [ 120.5359158, 14.6752013 ], [ 120.5362174, 14.6752961 ], [ 120.5364277, 14.6753686 ], [ 120.5369246, 14.6755395 ], [ 120.5372426, 14.6756495 ], [ 120.5377306, 14.6758801 ], [ 120.5378572, 14.6759408 ], [ 120.5380809, 14.6760468 ], [ 120.5385803, 14.6762836 ], [ 120.5392921, 14.6766209 ], [ 120.5395357, 14.6767337 ], [ 120.5401357, 14.6769124 ] ] } },
{ "type": "Feature", "properties": { "full_id": "w109039722", "osm_id": "109039722", "osm_type": "way", "highway": "tertiary", "source:name": null, "loc_name": null, "layer": null, "bridge": null, "oneway": null, "surface": null, "lanes": null, "maxspeed": null, "name:etymology:wikidata": null, "name:etymology": null, "name": "Jose Basa Street", "boundary": null, "admin_level": null }, "geometry": { "type": "LineString", "coordinates": [ [ 120.5452127, 14.6791009 ], [ 120.5450537, 14.6798623 ], [ 120.5450359, 14.6799473 ], [ 120.5447429, 14.6816468 ] ] } },
{ "type": "Feature", "properties": { "full_id": "w109041482", "osm_id": "109041482", "osm_type": "way", "highway": "tertiary", "source:name": null, "loc_name": null, "layer": null, "bridge": null, "oneway": null, "surface": null, "lanes": null, "maxspeed": null, "name:etymology:wikidata": null, "name:etymology": null, "name": "Gallardo Street", "boundary": "administrative", "admin_level": "10" }, "geometry": { "type": "LineString", "coordinates": [ [ 120.5417318, 14.675775 ], [ 120.5426533, 14.6757915 ], [ 120.5426828, 14.6758071 ], [ 120.5430452, 14.6759281 ], [ 120.543211, 14.6760212 ] ] } },
{ "type": "Feature", "properties": { "full_id": "w109041483", "osm_id": "109041483", "osm_type": "way", "highway": "tertiary", "source:name": null, "loc_name": null, "layer": null, "bridge": null, "oneway": null, "surface": null, "lanes": null, "maxspeed": null, "name:etymology:wikidata": null, "name:etymology": null, "name": "Camacho Avenue", "boundary": null, "admin_level": null }, "geometry": { "type": "LineString", "coordinates": [ [ 120.5437163, 14.6763004 ], [ 120.5437551, 14.6763462 ], [ 120.5437694, 14.676423 ], [ 120.543767, 14.6764958 ], [ 120.5437345, 14.6765711 ], [ 120.5431148, 14.6778453 ] ] } },
{ "type": "Feature", "properties": { "full_id": "w109041958", "osm_id": "109041958", "osm_type": "way", "highway": "tertiary", "source:name": null, "loc_name": null, "layer": null, "bridge": null, "oneway": "yes", "surface": null, "lanes": null, "maxspeed": null, "name:etymology:wikidata": null, "name:etymology": null, "name": "Naval Street", "boundary": null, "admin_level": null }, "geometry": { "type": "LineString", "coordinates": [ [ 120.543995, 14.6667415 ], [ 120.5440659, 14.6669424 ], [ 120.5441855, 14.6674122 ], [ 120.5442619, 14.6681688 ], [ 120.5442906, 14.6684782 ], [ 120.5443228, 14.6688077 ], [ 120.5443279, 14.6693798 ], [ 120.5442678, 14.6701697 ], [ 120.5441529, 14.6714321 ], [ 120.5438294, 14.6733824 ], [ 120.54382, 14.6734511 ], [ 120.5437756, 14.6737337 ], [ 120.5437207, 14.6740111 ], [ 120.5436128, 14.6744383 ], [ 120.5435467, 14.6748795 ], [ 120.5435432, 14.6752554 ], [ 120.5435206, 14.6755456 ], [ 120.5434802, 14.6756421 ] ] } },
{ "type": "Feature", "properties": { "full_id": "w152426034", "osm_id": "152426034", "osm_type": "way", "highway": "tertiary", "source:name": null, "loc_name": null, "layer": null, "bridge": null, "oneway": null, "surface": null, "lanes": null, "maxspeed": null, "name:etymology:wikidata": null, "name:etymology": null, "name": "Fiscal Camacho Street", "boundary": null, "admin_level": null }, "geometry": { "type": "LineString", "coordinates": [ [ 120.5328166, 14.6726066 ], [ 120.5328868, 14.6726384 ], [ 120.5332863, 14.6728197 ], [ 120.5335763, 14.6729946 ], [ 120.533772, 14.6731127 ], [ 120.5340142, 14.6732606 ] ] } },
{ "type": "Feature", "properties": { "full_id": "w174863941", "osm_id": "174863941", "osm_type": "way", "highway": "tertiary", "source:name": null, "loc_name": null, "layer": null, "bridge": null, "oneway": null, "surface": null, "lanes": null, "maxspeed": null, "name:etymology:wikidata": null, "name:etymology": null, "name": "Camacho Avenue", "boundary": "administrative", "admin_level": "10" }, "geometry": { "type": "LineString", "coordinates": [ [ 120.543211, 14.6760212 ], [ 120.5434327, 14.6761265 ], [ 120.5437163, 14.6763004 ] ] } },
{ "type": "Feature", "properties": { "full_id": "w174864009", "osm_id": "174864009", "osm_type": "way", "highway": "tertiary", "source:name": null, "loc_name": null, "layer": null, "bridge": null, "oneway": null, "surface": null, "lanes": null, "maxspeed": null, "name:etymology:wikidata": null, "name:etymology": null, "name": "Gallardo Street", "boundary": null, "admin_level": null }, "geometry": { "type": "LineString", "coordinates": [ [ 120.538009, 14.6730086 ], [ 120.5379837, 14.6728734 ], [ 120.5379151, 14.6727543 ], [ 120.5377059, 14.6724922 ], [ 120.5375423, 14.672295 ], [ 120.5374176, 14.6721172 ], [ 120.5373345, 14.6719473 ], [ 120.537277, 14.6718112 ], [ 120.5372446, 14.6717345 ], [ 120.5372111, 14.6716281 ], [ 120.537203, 14.6715892 ], [ 120.5371856, 14.6714595 ], [ 120.5371534, 14.6713064 ], [ 120.5371105, 14.6711611 ], [ 120.5370649, 14.6710651 ], [ 120.5370583, 14.671052 ], [ 120.5369914, 14.6709251 ], [ 120.5367838, 14.6705579 ], [ 120.5366676, 14.6703377 ], [ 120.5364911, 14.6701322 ], [ 120.5362039, 14.669852 ], [ 120.536145, 14.6698247 ], [ 120.5358994, 14.6697456 ], [ 120.535783, 14.6697042 ], [ 120.5356451, 14.6696444 ], [ 120.5355762, 14.6695951 ], [ 120.5354381, 14.669481 ], [ 120.5353591, 14.6694066 ] ] } },
{ "type": "Feature", "properties": { "full_id": "w174866268", "osm_id": "174866268", "osm_type": "way", "highway": "tertiary", "source:name": null, "loc_name": null, "layer": null, "bridge": null, "oneway": "yes", "surface": "asphalt", "lanes": "2", "maxspeed": null, "name:etymology:wikidata": null, "name:etymology": null, "name": null, "boundary": null, "admin_level": null }, "geometry": { "type": "LineString", "coordinates": [ [ 120.5326374, 14.6747427 ], [ 120.5326677, 14.6744819 ], [ 120.5327138, 14.6738403 ], [ 120.5327339, 14.6735604 ], [ 120.5327581, 14.6733662 ], [ 120.5327831, 14.6731656 ], [ 120.5328116, 14.6726906 ], [ 120.5328166, 14.6726066 ] ] } },
{ "type": "Feature", "properties": { "full_id": "w174867160", "osm_id": "174867160", "osm_type": "way", "highway": "tertiary", "source:name": null, "loc_name": null, "layer": null, "bridge": null, "oneway": "yes", "surface": null, "lanes": null, "maxspeed": null, "name:etymology:wikidata": null, "name:etymology": null, "name": "Naval Street", "boundary": null, "admin_level": null }, "geometry": { "type": "LineString", "coordinates": [ [ 120.5434802, 14.6756421 ], [ 120.543211, 14.6760212 ] ] } },
{ "type": "Feature", "properties": { "full_id": "w188167042", "osm_id": "188167042", "osm_type": "way", "highway": "tertiary", "source:name": null, "loc_name": null, "layer": null, "bridge": null, "oneway": null, "surface": null, "lanes": null, "maxspeed": "30", "name:etymology:wikidata": null, "name:etymology": null, "name": "Maluya Road", "boundary": null, "admin_level": null }, "geometry": { "type": "LineString", "coordinates": [ [ 120.5349264, 14.6599781 ], [ 120.5355046, 14.6606456 ], [ 120.5357572, 14.6609135 ], [ 120.5358442, 14.6610093 ], [ 120.5361838, 14.6614126 ], [ 120.5362265, 14.6614581 ], [ 120.5362469, 14.6614798 ], [ 120.5363131, 14.6615447 ], [ 120.5364092, 14.6616303 ], [ 120.5365289, 14.6617188 ], [ 120.5367432, 14.6618604 ], [ 120.5373238, 14.6622161 ], [ 120.5373794, 14.6622511 ], [ 120.537534, 14.6623259 ], [ 120.5378026, 14.6624713 ], [ 120.5378102, 14.662475 ], [ 120.538011, 14.6625729 ], [ 120.5382189, 14.6626787 ], [ 120.5385903, 14.6628656 ], [ 120.5388371, 14.6629647 ], [ 120.539413, 14.6632571 ], [ 120.5394791, 14.6632907 ], [ 120.5399071, 14.6635081 ], [ 120.5400306, 14.6635708 ] ] } },
{ "type": "Feature", "properties": { "full_id": "w188169490", "osm_id": "188169490", "osm_type": "way", "highway": "tertiary", "source:name": null, "loc_name": null, "layer": null, "bridge": null, "oneway": null, "surface": null, "lanes": null, "maxspeed": null, "name:etymology:wikidata": null, "name:etymology": null, "name": "Miray Street", "boundary": null, "admin_level": null }, "geometry": { "type": "LineString", "coordinates": [ [ 120.5342694, 14.6666507 ], [ 120.5341814, 14.6663115 ], [ 120.5341534, 14.6661686 ], [ 120.5341411, 14.6660378 ], [ 120.5341575, 14.66566 ], [ 120.5341485, 14.6654872 ], [ 120.5341119, 14.6653603 ], [ 120.5340461, 14.6652607 ], [ 120.5339603, 14.6651567 ], [ 120.5338636, 14.6650764 ], [ 120.5337784, 14.665035 ], [ 120.5337218, 14.6650075 ], [ 120.5335129, 14.664957 ], [ 120.5331382, 14.6649179 ], [ 120.5327319, 14.6648296 ], [ 120.5326429, 14.6648028 ], [ 120.5319315, 14.6645779 ], [ 120.5312111, 14.6643194 ], [ 120.5310313, 14.6642822 ], [ 120.5302599, 14.664142 ], [ 120.5292862, 14.664059 ] ] } },
{ "type": "Feature", "properties": { "full_id": "w188210296", "osm_id": "188210296", "osm_type": "way", "highway": "tertiary", "source:name": null, "loc_name": null, "layer": null, "bridge": null, "oneway": null, "surface": null, "lanes": null, "maxspeed": null, "name:etymology:wikidata": null, "name:etymology": null, "name": "Maluang Road", "boundary": null, "admin_level": null }, "geometry": { "type": "LineString", "coordinates": [ [ 120.5322359, 14.6587739 ], [ 120.5309265, 14.6588614 ], [ 120.530786, 14.6588706 ], [ 120.5306355, 14.6588774 ], [ 120.5304443, 14.6588859 ], [ 120.5299231, 14.6589106 ], [ 120.5297906, 14.6589159 ], [ 120.5292725, 14.6589394 ], [ 120.5286388, 14.6589503 ], [ 120.5277978, 14.6589193 ], [ 120.5275612, 14.6589076 ], [ 120.5274218, 14.6588978 ], [ 120.5270327, 14.6588718 ], [ 120.5267882, 14.6588376 ], [ 120.5266623, 14.6588188 ], [ 120.5264339, 14.6587878 ], [ 120.5261469, 14.658739 ], [ 120.5258518, 14.658684 ], [ 120.5258041, 14.6586729 ], [ 120.525516, 14.6586117 ], [ 120.5248852, 14.6584661 ], [ 120.5244616, 14.658351 ], [ 120.5239637, 14.658407 ], [ 120.5234571, 14.658425 ], [ 120.5229287, 14.6579643 ], [ 120.5226687, 14.6578268 ], [ 120.5222944, 14.6578112 ], [ 120.5216036, 14.6579345 ], [ 120.5194579, 14.6580889 ], [ 120.5188286, 14.6580519 ], [ 120.5180887, 14.6579981 ], [ 120.5179864, 14.6579559 ], [ 120.5178845, 14.6578936 ], [ 120.5177872, 14.6577957 ], [ 120.5177557, 14.6573383 ], [ 120.5177228, 14.6572767 ], [ 120.5176619, 14.6572358 ], [ 120.5175988, 14.657193 ], [ 120.5175009, 14.6571489 ], [ 120.5174178, 14.65711 ], [ 120.5167419, 14.6569049 ], [ 120.5158731, 14.6566695 ], [ 120.5158191, 14.6566499 ], [ 120.515728, 14.6566169 ], [ 120.5155456, 14.6565183 ], [ 120.5154464, 14.6564197 ], [ 120.5153766, 14.6563081 ], [ 120.5150846, 14.6557561 ], [ 120.5148751, 14.6552133 ], [ 120.5147735, 14.6549386 ], [ 120.5146578, 14.6547771 ], [ 120.5145451, 14.6546396 ], [ 120.5143067, 14.6544326 ], [ 120.5139175, 14.6540739 ], [ 120.5136895, 14.6539234 ], [ 120.5135075, 14.6538618 ], [ 120.5133864, 14.6538131 ], [ 120.5132604, 14.6538014 ], [ 120.5128476, 14.6537995 ], [ 120.5124852, 14.6537832 ], [ 120.5121368, 14.6537268 ], [ 120.5120346, 14.6536613 ], [ 120.5118998, 14.6535477 ], [ 120.5113201, 14.6531177 ], [ 120.5106847, 14.6528549 ], [ 120.5099666, 14.6526155 ], [ 120.5098247, 14.6525824 ], [ 120.509329, 14.6525322 ], [ 120.5092266, 14.6525175 ], [ 120.5091003, 14.6524935 ], [ 120.5089715, 14.6524494 ], [ 120.5087929, 14.6523546 ], [ 120.50861, 14.6522141 ], [ 120.5084446, 14.6520765 ], [ 120.5083558, 14.6519904 ], [ 120.5082747, 14.6518768 ], [ 120.5081353, 14.6516162 ], [ 120.5080932, 14.6515619 ], [ 120.5080423, 14.6515185 ], [ 120.5079272, 14.6514321 ], [ 120.5078342, 14.6513944 ], [ 120.5076514, 14.6513511 ], [ 120.5073995, 14.6512991 ], [ 120.5073367, 14.6512703 ], [ 120.5071697, 14.6511497 ], [ 120.5069853, 14.6510176 ], [ 120.5068917, 14.6509576 ], [ 120.506759, 14.6509344 ], [ 120.5066103, 14.6509304 ], [ 120.5064568, 14.650933 ], [ 120.5062051, 14.6509518 ], [ 120.506008, 14.6509539 ], [ 120.5058719, 14.6509454 ], [ 120.5057258, 14.6509284 ], [ 120.5055767, 14.6508693 ], [ 120.5053652, 14.6508002 ], [ 120.5052213, 14.6507313 ], [ 120.5050954, 14.6506602 ], [ 120.5048679, 14.6505254 ], [ 120.504788, 14.650471 ], [ 120.50474, 14.6504183 ], [ 120.5046913, 14.6503364 ], [ 120.5045395, 14.6499982 ], [ 120.5044752, 14.6499503 ], [ 120.504421, 14.6499389 ], [ 120.5043496, 14.6499346 ], [ 120.5039434, 14.6499604 ], [ 120.5037998, 14.6499165 ], [ 120.5036944, 14.6498675 ], [ 120.5036064, 14.6498123 ], [ 120.5035063, 14.6497128 ], [ 120.503428, 14.6495984 ], [ 120.5032934, 14.6493432 ], [ 120.5031736, 14.6491647 ] ] } },
{ "type": "Feature", "properties": { "full_id": "w188306162", "osm_id": "188306162", "osm_type": "way", "highway": "tertiary", "source:name": null, "loc_name": null, "layer": null, "bridge": null, "oneway": null, "surface": null, "lanes": null, "maxspeed": null, "name:etymology:wikidata": null, "name:etymology": null, "name": null, "boundary": null, "admin_level": null }, "geometry": { "type": "LineString", "coordinates": [ [ 120.5292862, 14.664059 ], [ 120.5286453, 14.6640592 ], [ 120.5278675, 14.6640488 ], [ 120.5275501, 14.664045 ], [ 120.5269555, 14.6639839 ], [ 120.5267356, 14.6639035 ], [ 120.5260489, 14.6637063 ], [ 120.525609, 14.663644 ], [ 120.5249122, 14.663644 ], [ 120.52436, 14.6637014 ], [ 120.5236167, 14.663786 ], [ 120.522786, 14.6639552 ], [ 120.5220874, 14.6641607 ], [ 120.5217978, 14.6642952 ], [ 120.5217032, 14.6643378 ], [ 120.5216195, 14.66436 ], [ 120.5213288, 14.6643706 ], [ 120.5208835, 14.6643576 ], [ 120.5205965, 14.6644017 ], [ 120.5203682, 14.6644509 ], [ 120.5202558, 14.6645366 ], [ 120.5200494, 14.6648039 ], [ 120.5200075, 14.6648634 ], [ 120.5199528, 14.6648869 ], [ 120.5198245, 14.6649051 ], [ 120.5194836, 14.6649006 ], [ 120.5191654, 14.6648949 ], [ 120.5188289, 14.6648895 ], [ 120.5180779, 14.6648529 ], [ 120.5175584, 14.6648255 ], [ 120.517495, 14.6648292 ], [ 120.5171379, 14.6648652 ], [ 120.5167231, 14.6648979 ], [ 120.5166444, 14.6648898 ], [ 120.5166104, 14.6648819 ], [ 120.5165728, 14.664868 ], [ 120.516373, 14.6647674 ], [ 120.5160778, 14.6646068 ], [ 120.5158699, 14.6645195 ], [ 120.5156401, 14.6644199 ], [ 120.5155529, 14.6643751 ], [ 120.5153313, 14.6642564 ], [ 120.5152663, 14.6642183 ], [ 120.5150796, 14.6641087 ], [ 120.5150311, 14.6640864 ], [ 120.5146544, 14.6639909 ], [ 120.5141078, 14.6638425 ], [ 120.5136293, 14.6637359 ], [ 120.5131478, 14.6636434 ], [ 120.5130375, 14.6636244 ], [ 120.5129078, 14.6636154 ], [ 120.5126394, 14.6635906 ], [ 120.5123767, 14.6635696 ], [ 120.5121531, 14.6635273 ], [ 120.5120175, 14.663484 ], [ 120.5118721, 14.663415 ], [ 120.5117489, 14.6633426 ], [ 120.5116151, 14.6632407 ], [ 120.5113509, 14.6630524 ], [ 120.5112498, 14.6629802 ], [ 120.5111489, 14.6628886 ], [ 120.5110624, 14.662803 ], [ 120.5109818, 14.6627514 ], [ 120.5108957, 14.6627094 ], [ 120.5108103, 14.6626735 ], [ 120.5105673, 14.6625801 ], [ 120.5098623, 14.6623025 ], [ 120.5094573, 14.6621339 ], [ 120.5092239, 14.6620689 ], [ 120.5090976, 14.662061 ], [ 120.5085695, 14.6621078 ], [ 120.5081331, 14.6621572 ], [ 120.5075034, 14.6622609 ], [ 120.5071356, 14.6623172 ], [ 120.5068931, 14.6623544 ], [ 120.5068288, 14.6623726 ], [ 120.5067775, 14.6624087 ], [ 120.5065454, 14.6625722 ], [ 120.5064667, 14.6625996 ], [ 120.5063929, 14.6625931 ], [ 120.5063231, 14.6625632 ], [ 120.5062654, 14.6625075 ], [ 120.5061354, 14.6622999 ], [ 120.5060724, 14.6622064 ], [ 120.506008, 14.6621584 ], [ 120.5059141, 14.6621131 ], [ 120.5057947, 14.6620833 ], [ 120.5047604, 14.6619806 ], [ 120.5045515, 14.6619677 ], [ 120.5037893, 14.661988 ], [ 120.5037549, 14.6619903 ], [ 120.5035684, 14.6619945 ], [ 120.5017846, 14.6621162 ], [ 120.501298, 14.6621494 ], [ 120.4995467, 14.6622086 ], [ 120.4985404, 14.6622426 ], [ 120.4984425, 14.6622336 ], [ 120.4983422, 14.6622116 ], [ 120.497974, 14.6620872 ] ] } },
{ "type": "Feature", "properties": { "full_id": "w188887834", "osm_id": "188887834", "osm_type": "way", "highway": "tertiary", "source:name": null, "loc_name": null, "layer": null, "bridge": null, "oneway": null, "surface": null, "lanes": null, "maxspeed": null, "name:etymology:wikidata": null, "name:etymology": null, "name": "Naval Street", "boundary": null, "admin_level": null }, "geometry": { "type": "LineString", "coordinates": [ [ 120.543995, 14.6667415 ], [ 120.5439381, 14.6666671 ], [ 120.5438463, 14.6665471 ], [ 120.543582, 14.6662017 ], [ 120.5433894, 14.6658949 ], [ 120.5433143, 14.665677 ], [ 120.5432212, 14.6652107 ], [ 120.5431697, 14.6648264 ], [ 120.5431387, 14.6645991 ], [ 120.5430206, 14.6643043 ], [ 120.542977, 14.6641774 ], [ 120.5428637, 14.6639384 ], [ 120.5427627, 14.663776 ], [ 120.5426437, 14.6636374 ], [ 120.5424143, 14.6634214 ], [ 120.5422414, 14.6632586 ], [ 120.5420433, 14.6631126 ], [ 120.542006, 14.663072 ], [ 120.541786, 14.6628975 ], [ 120.5417347, 14.662868 ], [ 120.5416778, 14.6628807 ] ] } },
{ "type": "Feature", "properties": { "full_id": "w188887835", "osm_id": "188887835", "osm_type": "way", "highway": "tertiary", "source:name": null, "loc_name": null, "layer": null, "bridge": null, "oneway": null, "surface": null, "lanes": null, "maxspeed": null, "name:etymology:wikidata": null, "name:etymology": null, "name": "Banzon Street", "boundary": null, "admin_level": null }, "geometry": { "type": "LineString", "coordinates": [ [ 120.5416778, 14.6628807 ], [ 120.5409985, 14.6631691 ], [ 120.5406188, 14.663333 ], [ 120.5400306, 14.6635708 ] ] } },
{ "type": "Feature", "properties": { "full_id": "w264060735", "osm_id": "264060735", "osm_type": "way", "highway": "tertiary", "source:name": null, "loc_name": null, "layer": null, "bridge": null, "oneway": null, "surface": null, "lanes": null, "maxspeed": null, "name:etymology:wikidata": null, "name:etymology": null, "name": "Gallardo Street", "boundary": "administrative", "admin_level": "10" }, "geometry": { "type": "LineString", "coordinates": [ [ 120.5413816, 14.6757698 ], [ 120.5410392, 14.6757645 ], [ 120.5406966, 14.6757778 ], [ 120.5401738, 14.6757744 ], [ 120.5400742, 14.6757547 ] ] } },
{ "type": "Feature", "properties": { "full_id": "w264060736", "osm_id": "264060736", "osm_type": "way", "highway": "tertiary", "source:name": null, "loc_name": null, "layer": null, "bridge": null, "oneway": null, "surface": null, "lanes": null, "maxspeed": null, "name:etymology:wikidata": null, "name:etymology": null, "name": "Gallardo Street", "boundary": null, "admin_level": null }, "geometry": { "type": "LineString", "coordinates": [ [ 120.5400742, 14.6757547 ], [ 120.5399173, 14.6756404 ], [ 120.539802, 14.6755533 ], [ 120.5396626, 14.6753757 ], [ 120.5395585, 14.6751567 ], [ 120.5394195, 14.6748563 ] ] } },
{ "type": "Feature", "properties": { "full_id": "w264060737", "osm_id": "264060737", "osm_type": "way", "highway": "tertiary", "source:name": null, "loc_name": null, "layer": null, "bridge": null, "oneway": null, "surface": null, "lanes": null, "maxspeed": null, "name:etymology:wikidata": "Q1500", "name:etymology": "José Rizal", "name": "J. P. Rizal Street", "boundary": null, "admin_level": null }, "geometry": { "type": "LineString", "coordinates": [ [ 120.5516053, 14.6878624 ], [ 120.551867, 14.6879622 ], [ 120.5526471, 14.6883001 ], [ 120.5529037, 14.6884149 ], [ 120.5529711, 14.688445 ], [ 120.5540022, 14.6889142 ], [ 120.554207, 14.6889955 ], [ 120.5547646, 14.6892486 ], [ 120.5550123, 14.6893664 ], [ 120.5557561, 14.6896878 ], [ 120.5567625, 14.690172 ] ] } },
{ "type": "Feature", "properties": { "full_id": "w264060739", "osm_id": "264060739", "osm_type": "way", "highway": "tertiary", "source:name": null, "loc_name": null, "layer": null, "bridge": null, "oneway": null, "surface": null, "lanes": null, "maxspeed": null, "name:etymology:wikidata": "Q1500", "name:etymology": "José Rizal", "name": "J. P. Rizal Street", "boundary": "administrative", "admin_level": "10" }, "geometry": { "type": "LineString", "coordinates": [ [ 120.5447429, 14.6816468 ], [ 120.5447705, 14.6816667 ], [ 120.5450379, 14.6818589 ], [ 120.5465191, 14.6829239 ], [ 120.5465556, 14.6829502 ] ] } },
{ "type": "Feature", "properties": { "full_id": "w264060740", "osm_id": "264060740", "osm_type": "way", "highway": "tertiary", "source:name": null, "loc_name": null, "layer": null, "bridge": null, "oneway": null, "surface": null, "lanes": null, "maxspeed": null, "name:etymology:wikidata": "Q1500", "name:etymology": "José Rizal", "name": "J. P. Rizal Street", "boundary": "administrative", "admin_level": "10" }, "geometry": { "type": "LineString", "coordinates": [ [ 120.5465556, 14.6829502 ], [ 120.5472332, 14.6834394 ], [ 120.5476708, 14.683776 ] ] } },
{ "type": "Feature", "properties": { "full_id": "w264060741", "osm_id": "264060741", "osm_type": "way", "highway": "tertiary", "source:name": null, "loc_name": null, "layer": null, "bridge": null, "oneway": null, "surface": null, "lanes": null, "maxspeed": null, "name:etymology:wikidata": "Q1500", "name:etymology": "José Rizal", "name": "J. P. Rizal Street", "boundary": "administrative", "admin_level": "10" }, "geometry": { "type": "LineString", "coordinates": [ [ 120.5437764, 14.680995 ], [ 120.5442741, 14.6813303 ], [ 120.5447429, 14.6816468 ] ] } },
{ "type": "Feature", "properties": { "full_id": "w264060742", "osm_id": "264060742", "osm_type": "way", "highway": "tertiary", "source:name": null, "loc_name": null, "layer": null, "bridge": null, "oneway": null, "surface": null, "lanes": null, "maxspeed": null, "name:etymology:wikidata": "Q1500", "name:etymology": "José Rizal", "name": "J. P. Rizal Street", "boundary": "administrative", "admin_level": "10" }, "geometry": { "type": "LineString", "coordinates": [ [ 120.5478983, 14.6839981 ], [ 120.5482408, 14.6843573 ], [ 120.5487767, 14.6849408 ], [ 120.5488274, 14.6849944 ], [ 120.5493885, 14.6855849 ] ] } },
{ "type": "Feature", "properties": { "full_id": "w264060746", "osm_id": "264060746", "osm_type": "way", "highway": "tertiary", "source:name": null, "loc_name": null, "layer": null, "bridge": null, "oneway": null, "surface": null, "lanes": null, "maxspeed": null, "name:etymology:wikidata": null, "name:etymology": "Miguel Cuaderno", "name": "Cuaderno Avenue", "boundary": null, "admin_level": null }, "geometry": { "type": "LineString", "coordinates": [ [ 120.5424824, 14.6825488 ], [ 120.5429938, 14.6827863 ], [ 120.5434014, 14.6829699 ], [ 120.543675, 14.6830985 ], [ 120.543903, 14.6832068 ], [ 120.5442287, 14.6833632 ], [ 120.5446575, 14.6835703 ], [ 120.5454871, 14.6839269 ], [ 120.5462816, 14.6842835 ], [ 120.5473458, 14.6847608 ] ] } },
{ "type": "Feature", "properties": { "full_id": "w264060747", "osm_id": "264060747", "osm_type": "way", "highway": "tertiary", "source:name": null, "loc_name": null, "layer": null, "bridge": null, "oneway": "yes", "surface": null, "lanes": null, "maxspeed": null, "name:etymology:wikidata": null, "name:etymology": null, "name": "M. H. del Pilar Street", "boundary": "administrative", "admin_level": "10" }, "geometry": { "type": "LineString", "coordinates": [ [ 120.5435368, 14.6728417 ], [ 120.543706, 14.6718614 ], [ 120.5437144, 14.6716242 ], [ 120.5437228, 14.6713869 ] ] } },
{ "type": "Feature", "properties": { "full_id": "w264060748", "osm_id": "264060748", "osm_type": "way", "highway": "tertiary", "source:name": null, "loc_name": null, "layer": null, "bridge": null, "oneway": "yes", "surface": null, "lanes": null, "maxspeed": null, "name:etymology:wikidata": null, "name:etymology": null, "name": "M. H. del Pilar Street", "boundary": null, "admin_level": null }, "geometry": { "type": "LineString", "coordinates": [ [ 120.5430452, 14.6759281 ], [ 120.5432034, 14.6748288 ], [ 120.5433318, 14.6740293 ], [ 120.5434495, 14.6733472 ], [ 120.5434678, 14.673241 ], [ 120.5435368, 14.6728417 ] ] } },
{ "type": "Feature", "properties": { "full_id": "w264060749", "osm_id": "264060749", "osm_type": "way", "highway": "tertiary", "source:name": null, "loc_name": null, "layer": null, "bridge": null, "oneway": "yes", "surface": null, "lanes": null, "maxspeed": null, "name:etymology:wikidata": null, "name:etymology": null, "name": "M. H. del Pilar Street", "boundary": "administrative", "admin_level": "10" }, "geometry": { "type": "LineString", "coordinates": [ [ 120.5437228, 14.6713869 ], [ 120.5437756, 14.6701516 ], [ 120.5437964, 14.6694345 ], [ 120.5437998, 14.6690593 ], [ 120.5438025, 14.6687637 ], [ 120.5438019, 14.6687397 ], [ 120.5438016, 14.6687077 ], [ 120.5437812, 14.6682005 ], [ 120.5437998, 14.6675323 ], [ 120.5437864, 14.6671561 ] ] } },
{ "type": "Feature", "properties": { "full_id": "w264060763", "osm_id": "264060763", "osm_type": "way", "highway": "tertiary", "source:name": null, "loc_name": null, "layer": null, "bridge": null, "oneway": null, "surface": null, "lanes": null, "maxspeed": null, "name:etymology:wikidata": null, "name:etymology": null, "name": "Sibacan Road", "boundary": null, "admin_level": null }, "geometry": { "type": "LineString", "coordinates": [ [ 120.5470054, 14.6865695 ], [ 120.5472297, 14.6874914 ] ] } },
{ "type": "Feature", "properties": { "full_id": "w264060766", "osm_id": "264060766", "osm_type": "way", "highway": "tertiary", "source:name": null, "loc_name": null, "layer": null, "bridge": null, "oneway": null, "surface": null, "lanes": null, "maxspeed": null, "name:etymology:wikidata": null, "name:etymology": null, "name": null, "boundary": "administrative", "admin_level": "10" }, "geometry": { "type": "LineString", "coordinates": [ [ 120.5472297, 14.6874914 ], [ 120.5472213, 14.6878313 ], [ 120.5472209, 14.6880027 ] ] } },
{ "type": "Feature", "properties": { "full_id": "w688856361", "osm_id": "688856361", "osm_type": "way", "highway": "tertiary", "source:name": null, "loc_name": null, "layer": null, "bridge": null, "oneway": null, "surface": null, "lanes": null, "maxspeed": null, "name:etymology:wikidata": "Q1500", "name:etymology": "José Rizal", "name": "J. P. Rizal Street", "boundary": null, "admin_level": null }, "geometry": { "type": "LineString", "coordinates": [ [ 120.5493885, 14.6855849 ], [ 120.5499041, 14.6861332 ], [ 120.5504655, 14.6867063 ], [ 120.5510644, 14.687362 ], [ 120.5512913, 14.6875949 ], [ 120.5516053, 14.6878624 ] ] } },
{ "type": "Feature", "properties": { "full_id": "w688856365", "osm_id": "688856365", "osm_type": "way", "highway": "tertiary", "source:name": null, "loc_name": null, "layer": null, "bridge": null, "oneway": null, "surface": null, "lanes": null, "maxspeed": null, "name:etymology:wikidata": "Q1500", "name:etymology": "José Rizal", "name": "J. P. Rizal Street", "boundary": "administrative", "admin_level": "10" }, "geometry": { "type": "LineString", "coordinates": [ [ 120.5476708, 14.683776 ], [ 120.5478983, 14.6839981 ] ] } },
{ "type": "Feature", "properties": { "full_id": "w821736121", "osm_id": "821736121", "osm_type": "way", "highway": "tertiary", "source:name": null, "loc_name": null, "layer": null, "bridge": null, "oneway": null, "surface": "concrete", "lanes": "2", "maxspeed": null, "name:etymology:wikidata": null, "name:etymology": null, "name": "Laurel Street", "boundary": null, "admin_level": null }, "geometry": { "type": "LineString", "coordinates": [ [ 120.5383436, 14.6779643 ], [ 120.5377084, 14.6791766 ], [ 120.5375659, 14.6795018 ] ] } },
{ "type": "Feature", "properties": { "full_id": "w821743218", "osm_id": "821743218", "osm_type": "way", "highway": "tertiary", "source:name": null, "loc_name": null, "layer": "1", "bridge": "yes", "oneway": null, "surface": null, "lanes": null, "maxspeed": null, "name:etymology:wikidata": null, "name:etymology": null, "name": "Miray Street", "boundary": null, "admin_level": null }, "geometry": { "type": "LineString", "coordinates": [ [ 120.5342983, 14.6667654 ], [ 120.5342694, 14.6666507 ] ] } },
{ "type": "Feature", "properties": { "full_id": "w821743219", "osm_id": "821743219", "osm_type": "way", "highway": "tertiary", "source:name": null, "loc_name": null, "layer": null, "bridge": null, "oneway": null, "surface": null, "lanes": null, "maxspeed": null, "name:etymology:wikidata": null, "name:etymology": null, "name": "Miray Street", "boundary": null, "admin_level": null }, "geometry": { "type": "LineString", "coordinates": [ [ 120.5353591, 14.6694066 ], [ 120.5350533, 14.6692149 ], [ 120.5349646, 14.6691243 ], [ 120.5348009, 14.6688712 ], [ 120.5347355, 14.6687621 ], [ 120.534491, 14.6681889 ], [ 120.5343782, 14.6678498 ], [ 120.5343553, 14.6677924 ], [ 120.5343251, 14.6677164 ], [ 120.5342739, 14.6675317 ], [ 120.5342688, 14.6674401 ], [ 120.5342741, 14.6673661 ], [ 120.534288, 14.6672709 ], [ 120.5343318, 14.6670431 ], [ 120.5343356, 14.6669952 ], [ 120.5343331, 14.6669354 ], [ 120.5342983, 14.6667654 ] ] } },
{ "type": "Feature", "properties": { "full_id": "w821745224", "osm_id": "821745224", "osm_type": "way", "highway": "tertiary", "source:name": null, "loc_name": null, "layer": "1", "bridge": "yes", "oneway": null, "surface": null, "lanes": null, "maxspeed": null, "name:etymology:wikidata": null, "name:etymology": null, "name": "Maluang Road", "boundary": null, "admin_level": null }, "geometry": { "type": "LineString", "coordinates": [ [ 120.4750028, 14.6358665 ], [ 120.4748147, 14.6355572 ] ] } },
{ "type": "Feature", "properties": { "full_id": "w821745225", "osm_id": "821745225", "osm_type": "way", "highway": "tertiary", "source:name": null, "loc_name": null, "layer": null, "bridge": null, "oneway": null, "surface": null, "lanes": null, "maxspeed": null, "name:etymology:wikidata": null, "name:etymology": null, "name": "Maluang Road", "boundary": null, "admin_level": null }, "geometry": { "type": "LineString", "coordinates": [ [ 120.4752135, 14.6366611 ], [ 120.4752588, 14.6364145 ], [ 120.4752484, 14.6363445 ], [ 120.4750028, 14.6358665 ] ] } },
{ "type": "Feature", "properties": { "full_id": "w821745226", "osm_id": "821745226", "osm_type": "way", "highway": "tertiary", "source:name": null, "loc_name": null, "layer": null, "bridge": null, "oneway": null, "surface": null, "lanes": null, "maxspeed": null, "name:etymology:wikidata": null, "name:etymology": null, "name": "Maluang Road", "boundary": null, "admin_level": null }, "geometry": { "type": "LineString", "coordinates": [ [ 120.4748147, 14.6355572 ], [ 120.4747573, 14.6354516 ], [ 120.4746795, 14.635377 ], [ 120.4746406, 14.635353 ], [ 120.4741863, 14.6352961 ], [ 120.4740947, 14.6352596 ], [ 120.4736016, 14.6348549 ], [ 120.4735318, 14.634777 ], [ 120.4734352, 14.6336144 ], [ 120.4733709, 14.6331057 ], [ 120.4732877, 14.6321144 ], [ 120.4732287, 14.6315979 ], [ 120.4731885, 14.6313721 ], [ 120.4731295, 14.6311074 ], [ 120.4731024, 14.6308631 ] ] } },
{ "type": "Feature", "properties": { "full_id": "w821745227", "osm_id": "821745227", "osm_type": "way", "highway": "tertiary", "source:name": null, "loc_name": null, "layer": "1", "bridge": "yes", "oneway": null, "surface": null, "lanes": null, "maxspeed": null, "name:etymology:wikidata": null, "name:etymology": null, "name": "Maluang Road", "boundary": null, "admin_level": null }, "geometry": { "type": "LineString", "coordinates": [ [ 120.4759474, 14.6365056 ], [ 120.475714, 14.6365782 ] ] } },
{ "type": "Feature", "properties": { "full_id": "w821754312", "osm_id": "821754312", "osm_type": "way", "highway": "tertiary", "source:name": null, "loc_name": null, "layer": null, "bridge": null, "oneway": null, "surface": null, "lanes": null, "maxspeed": null, "name:etymology:wikidata": null, "name:etymology": null, "name": "Tuyo Vicinal Road", "boundary": null, "admin_level": null }, "geometry": { "type": "LineString", "coordinates": [ [ 120.5364863, 14.6954803 ], [ 120.536526, 14.6954931 ], [ 120.5367335, 14.6955375 ], [ 120.5373958, 14.6956762 ], [ 120.5377566, 14.6957364 ], [ 120.5382553, 14.6957868 ] ] } },
{ "type": "Feature", "properties": { "full_id": "w821754313", "osm_id": "821754313", "osm_type": "way", "highway": "tertiary", "source:name": null, "loc_name": null, "layer": "1", "bridge": "yes", "oneway": null, "surface": null, "lanes": null, "maxspeed": null, "name:etymology:wikidata": null, "name:etymology": null, "name": "Tuyo Vicinal Road", "boundary": null, "admin_level": null }, "geometry": { "type": "LineString", "coordinates": [ [ 120.5364393, 14.6954628 ], [ 120.5364863, 14.6954803 ] ] } },
{ "type": "Feature", "properties": { "full_id": "w822122528", "osm_id": "822122528", "osm_type": "way", "highway": "tertiary", "source:name": null, "loc_name": null, "layer": null, "bridge": null, "oneway": null, "surface": null, "lanes": null, "maxspeed": null, "name:etymology:wikidata": null, "name:etymology": null, "name": null, "boundary": null, "admin_level": null }, "geometry": { "type": "LineString", "coordinates": [ [ 120.4935124, 14.6755986 ], [ 120.4932967, 14.6740239 ], [ 120.4932415, 14.6737447 ], [ 120.4931136, 14.6720254 ], [ 120.4930868, 14.6716655 ], [ 120.4931042, 14.6716118 ], [ 120.4931748, 14.6715569 ], [ 120.4956039, 14.6712566 ], [ 120.4961787, 14.6711355 ], [ 120.4964469, 14.6710856 ], [ 120.4967373, 14.6710554 ], [ 120.4968349, 14.6710492 ], [ 120.4972368, 14.6710099 ], [ 120.4974737, 14.6709849 ], [ 120.4977254, 14.6709564 ], [ 120.4983235, 14.6709907 ], [ 120.4988587, 14.6710125 ], [ 120.4991603, 14.6710525 ], [ 120.4993366, 14.6710528 ], [ 120.499498, 14.6710422 ], [ 120.4996461, 14.6710132 ], [ 120.5001837, 14.6708524 ], [ 120.5003717, 14.6707971 ], [ 120.500967, 14.670622 ], [ 120.5012394, 14.6705631 ], [ 120.5018692, 14.6704167 ], [ 120.5020554, 14.6704059 ], [ 120.5022351, 14.6704247 ], [ 120.5025583, 14.6704786 ], [ 120.50276, 14.6705142 ], [ 120.5030559, 14.6705986 ], [ 120.5031195, 14.670618 ], [ 120.5032583, 14.6706603 ], [ 120.5033483, 14.6706939 ], [ 120.5034387, 14.67075 ], [ 120.5035789, 14.6709067 ], [ 120.5037013, 14.6709985 ], [ 120.5037774, 14.6710319 ], [ 120.5038571, 14.6710373 ], [ 120.5044292, 14.6710663 ], [ 120.5044862, 14.6710788 ], [ 120.5045338, 14.6711091 ], [ 120.5047028, 14.6713297 ], [ 120.5047521, 14.6713847 ], [ 120.5051442, 14.6716399 ], [ 120.5051786, 14.6716821 ], [ 120.5052024, 14.6717236 ], [ 120.505309, 14.6721215 ], [ 120.5053371, 14.6721859 ], [ 120.5053899, 14.6722508 ], [ 120.5057381, 14.6724675 ], [ 120.5059511, 14.6725705 ], [ 120.5060857, 14.6726356 ], [ 120.5062401, 14.6727012 ], [ 120.5064493, 14.6727902 ], [ 120.5066139, 14.6728452 ], [ 120.5066715, 14.6728645 ], [ 120.5067307, 14.6728792 ], [ 120.5069232, 14.6729273 ], [ 120.5070175, 14.6729264 ], [ 120.5072486, 14.6729242 ], [ 120.5075408, 14.6729259 ], [ 120.5077053, 14.6729382 ], [ 120.5078821, 14.6730199 ], [ 120.5084173, 14.6733282 ], [ 120.508806, 14.673491 ], [ 120.5091272, 14.6735729 ], [ 120.5093599, 14.6735961 ], [ 120.509587, 14.673608 ], [ 120.5098391, 14.6736115 ], [ 120.5104342, 14.6735944 ], [ 120.5109063, 14.6735825 ], [ 120.5113435, 14.6735667 ], [ 120.5117077, 14.6735536 ], [ 120.5121299, 14.6735384 ], [ 120.512711, 14.6734512 ], [ 120.5127524, 14.6734134 ], [ 120.5128367, 14.6733363 ], [ 120.5129733, 14.6730965 ], [ 120.5131268, 14.6728284 ], [ 120.5131932, 14.6727094 ], [ 120.5133171, 14.6724725 ], [ 120.5135415, 14.6722789 ], [ 120.5137183, 14.6722176 ], [ 120.5140235, 14.6722092 ], [ 120.5146191, 14.6722572 ], [ 120.5148758, 14.6722724 ], [ 120.515033, 14.672284 ], [ 120.5151266, 14.672291 ], [ 120.5154465, 14.6723526 ], [ 120.5158445, 14.6724293 ], [ 120.5162365, 14.6725249 ], [ 120.5172212, 14.6727651 ], [ 120.5178783, 14.6729721 ], [ 120.5183623, 14.6731246 ], [ 120.5187534, 14.6732679 ], [ 120.5190682, 14.6733491 ], [ 120.5192626, 14.6733884 ], [ 120.5196164, 14.6734598 ], [ 120.5197499, 14.6734872 ], [ 120.5200709, 14.6735416 ], [ 120.5213746, 14.6737721 ], [ 120.5215154, 14.6737977 ], [ 120.5217245, 14.6738313 ], [ 120.5220225, 14.6738912 ], [ 120.5222701, 14.6739479 ], [ 120.5224333, 14.6739842 ], [ 120.5227966, 14.6740649 ] ] } },
{ "type": "Feature", "properties": { "full_id": "w824748049", "osm_id": "824748049", "osm_type": "way", "highway": "tertiary", "source:name": null, "loc_name": null, "layer": "1", "bridge": "yes", "oneway": null, "surface": null, "lanes": null, "maxspeed": "30", "name:etymology:wikidata": null, "name:etymology": null, "name": "Maluya Road", "boundary": null, "admin_level": null }, "geometry": { "type": "LineString", "coordinates": [ [ 120.5348696, 14.659915 ], [ 120.5349264, 14.6599781 ] ] } },
{ "type": "Feature", "properties": { "full_id": "w824748050", "osm_id": "824748050", "osm_type": "way", "highway": "tertiary", "source:name": null, "loc_name": null, "layer": null, "bridge": null, "oneway": null, "surface": null, "lanes": null, "maxspeed": "30", "name:etymology:wikidata": null, "name:etymology": null, "name": "Maluya Road", "boundary": null, "admin_level": null }, "geometry": { "type": "LineString", "coordinates": [ [ 120.5328447, 14.6576242 ], [ 120.533288, 14.6581281 ], [ 120.5342399, 14.659193 ], [ 120.5344877, 14.659484 ], [ 120.5347417, 14.6597697 ], [ 120.534774, 14.6598078 ], [ 120.5348696, 14.659915 ] ] } },
{ "type": "Feature", "properties": { "full_id": "w878529769", "osm_id": "878529769", "osm_type": "way", "highway": "tertiary", "source:name": null, "loc_name": null, "layer": "1", "bridge": "yes", "oneway": null, "surface": null, "lanes": null, "maxspeed": null, "name:etymology:wikidata": null, "name:etymology": null, "name": "Maluang Road", "boundary": null, "admin_level": null }, "geometry": { "type": "LineString", "coordinates": [ [ 120.5031736, 14.6491647 ], [ 120.503017, 14.649001 ], [ 120.5028441, 14.6488486 ] ] } },
{ "type": "Feature", "properties": { "full_id": "w878529770", "osm_id": "878529770", "osm_type": "way", "highway": "tertiary", "source:name": null, "loc_name": null, "layer": null, "bridge": null, "oneway": null, "surface": null, "lanes": null, "maxspeed": null, "name:etymology:wikidata": null, "name:etymology": null, "name": "Maluang Road", "boundary": null, "admin_level": null }, "geometry": { "type": "LineString", "coordinates": [ [ 120.5028441, 14.6488486 ], [ 120.5027481, 14.6487834 ], [ 120.5027107, 14.648758 ], [ 120.5024138, 14.6486467 ], [ 120.5023863, 14.6486364 ], [ 120.502005, 14.6485087 ], [ 120.5014837, 14.6483349 ], [ 120.5011035, 14.6482068 ], [ 120.5007413, 14.6480623 ], [ 120.5002242, 14.647842 ], [ 120.5000213, 14.6477762 ], [ 120.4998589, 14.6477347 ], [ 120.4997855, 14.6477188 ], [ 120.4996768, 14.6477114 ], [ 120.4995637, 14.6477156 ], [ 120.4994737, 14.6477241 ], [ 120.4991385, 14.6477797 ], [ 120.4989509, 14.6478208 ], [ 120.4984315, 14.6479164 ], [ 120.498247, 14.6479611 ], [ 120.4980504, 14.6480163 ], [ 120.497934, 14.6480354 ], [ 120.4978385, 14.6480397 ], [ 120.4977495, 14.6480375 ], [ 120.497652, 14.6480234 ], [ 120.4956312, 14.6476211 ], [ 120.4933842, 14.6471778 ], [ 120.4922891, 14.64697 ], [ 120.492105, 14.6469397 ], [ 120.4917785, 14.6469013 ], [ 120.4909983, 14.6467691 ], [ 120.4907647, 14.6467663 ], [ 120.4905286, 14.6467819 ], [ 120.4900113, 14.6468158 ], [ 120.4897698, 14.646825 ], [ 120.4888714, 14.6468469 ], [ 120.4880959, 14.6468001 ], [ 120.4872861, 14.6467302 ], [ 120.4866424, 14.6466627 ], [ 120.4864708, 14.6466346 ], [ 120.4862931, 14.6465801 ], [ 120.4861184, 14.6465112 ], [ 120.4859364, 14.6464366 ], [ 120.4854646, 14.6464575 ], [ 120.484958, 14.646507 ], [ 120.4841225, 14.6465809 ], [ 120.4836424, 14.6466666 ], [ 120.4822436, 14.6470675 ], [ 120.4819432, 14.6470883 ], [ 120.4817179, 14.6469741 ], [ 120.4816297, 14.6469036 ], [ 120.4814711, 14.6467769 ], [ 120.4811922, 14.6466004 ], [ 120.4798477, 14.6465778 ] ] } },
{ "type": "Feature", "properties": { "full_id": "w886075244", "osm_id": "886075244", "osm_type": "way", "highway": "tertiary", "source:name": null, "loc_name": null, "layer": null, "bridge": null, "oneway": null, "surface": null, "lanes": null, "maxspeed": null, "name:etymology:wikidata": null, "name:etymology": null, "name": "Laurel Street", "boundary": null, "admin_level": null }, "geometry": { "type": "LineString", "coordinates": [ [ 120.5374808, 14.6796426 ], [ 120.5374477, 14.6797263 ], [ 120.5373347, 14.6802283 ] ] } },
{ "type": "Feature", "properties": { "full_id": "w909879464", "osm_id": "909879464", "osm_type": "way", "highway": "tertiary", "source:name": null, "loc_name": null, "layer": null, "bridge": null, "oneway": null, "surface": null, "lanes": null, "maxspeed": null, "name:etymology:wikidata": null, "name:etymology": null, "name": null, "boundary": null, "admin_level": null }, "geometry": { "type": "LineString", "coordinates": [ [ 120.4852483, 14.6870201 ], [ 120.4851535, 14.686838 ], [ 120.4850218, 14.6867138 ], [ 120.4849698, 14.6866641 ], [ 120.4848665, 14.6865668 ], [ 120.4848296, 14.6865462 ], [ 120.4847458, 14.6865071 ], [ 120.4846801, 14.6864902 ], [ 120.4846038, 14.6864815 ], [ 120.4843703, 14.6864838 ], [ 120.4843154, 14.6864813 ], [ 120.4842778, 14.6864669 ], [ 120.4840396, 14.6863277 ], [ 120.4838463, 14.6862528 ], [ 120.483606, 14.6862465 ], [ 120.4834616, 14.6862369 ], [ 120.483339, 14.686214 ], [ 120.4832278, 14.6861602 ], [ 120.4830556, 14.6860547 ], [ 120.4828698, 14.6859398 ], [ 120.4824967, 14.6858229 ], [ 120.4823762, 14.6857867 ] ] } },
{ "type": "Feature", "properties": { "full_id": "w909922008", "osm_id": "909922008", "osm_type": "way", "highway": "tertiary", "source:name": null, "loc_name": "Puerto Rivas Road", "layer": null, "bridge": null, "oneway": null, "surface": null, "lanes": null, "maxspeed": null, "name:etymology:wikidata": null, "name:etymology": null, "name": "M. Delos Reyes Street", "boundary": null, "admin_level": null }, "geometry": { "type": "LineString", "coordinates": [ [ 120.5593838, 14.6903484 ], [ 120.5595063, 14.6903891 ], [ 120.5597014, 14.6905179 ], [ 120.5597685, 14.6905622 ], [ 120.5599696, 14.6907026 ], [ 120.5599965, 14.6907645 ], [ 120.5600063, 14.690832 ], [ 120.5599024, 14.6915557 ], [ 120.5599106, 14.6916083 ], [ 120.5599463, 14.6916375 ], [ 120.5601362, 14.6916959 ] ] } },
{ "type": "Feature", "properties": { "full_id": "w909929687", "osm_id": "909929687", "osm_type": "way", "highway": "tertiary", "source:name": null, "loc_name": null, "layer": null, "bridge": null, "oneway": null, "surface": "concrete", "lanes": "2", "maxspeed": null, "name:etymology:wikidata": null, "name:etymology": null, "name": null, "boundary": null, "admin_level": null }, "geometry": { "type": "LineString", "coordinates": [ [ 120.5575802, 14.6901883 ], [ 120.5580439, 14.6910541 ] ] } },
{ "type": "Feature", "properties": { "full_id": "w909929688", "osm_id": "909929688", "osm_type": "way", "highway": "tertiary", "source:name": null, "loc_name": null, "layer": null, "bridge": null, "oneway": null, "surface": null, "lanes": null, "maxspeed": null, "name:etymology:wikidata": null, "name:etymology": null, "name": "J.P. Rizal Street", "boundary": null, "admin_level": null }, "geometry": { "type": "LineString", "coordinates": [ [ 120.5569826, 14.6904462 ], [ 120.5567625, 14.690172 ] ] } },
{ "type": "Feature", "properties": { "full_id": "w909929689", "osm_id": "909929689", "osm_type": "way", "highway": "tertiary", "source:name": null, "loc_name": null, "layer": null, "bridge": null, "oneway": null, "surface": null, "lanes": null, "maxspeed": null, "name:etymology:wikidata": null, "name:etymology": null, "name": "Puerto Rivas Road", "boundary": "administrative", "admin_level": "10" }, "geometry": { "type": "LineString", "coordinates": [ [ 120.5580439, 14.6910541 ], [ 120.5587409, 14.6906791 ] ] } },
{ "type": "Feature", "properties": { "full_id": "w909929690", "osm_id": "909929690", "osm_type": "way", "highway": "tertiary", "source:name": null, "loc_name": null, "layer": null, "bridge": null, "oneway": null, "surface": null, "lanes": null, "maxspeed": null, "name:etymology:wikidata": null, "name:etymology": null, "name": null, "boundary": null, "admin_level": null }, "geometry": { "type": "LineString", "coordinates": [ [ 120.5575802, 14.6901883 ], [ 120.5569826, 14.6904462 ] ] } },
{ "type": "Feature", "properties": { "full_id": "w1037036598", "osm_id": "1037036598", "osm_type": "way", "highway": "tertiary", "source:name": null, "loc_name": null, "layer": null, "bridge": null, "oneway": null, "surface": null, "lanes": null, "maxspeed": null, "name:etymology:wikidata": null, "name:etymology": null, "name": "P. Paterno Street", "boundary": null, "admin_level": null }, "geometry": { "type": "LineString", "coordinates": [ [ 120.5419829, 14.6776599 ], [ 120.543211, 14.6760212 ] ] } },
{ "type": "Feature", "properties": { "full_id": "w1037036599", "osm_id": "1037036599", "osm_type": "way", "highway": "tertiary", "source:name": "extrapolated from node:1367403907", "loc_name": null, "layer": null, "bridge": null, "oneway": null, "surface": "asphalt", "lanes": "2", "maxspeed": null, "name:etymology:wikidata": null, "name:etymology": null, "name": "Hugo Banzon Street", "boundary": null, "admin_level": null }, "geometry": { "type": "LineString", "coordinates": [ [ 120.5429839, 14.6781127 ], [ 120.5434247, 14.6783068 ], [ 120.5439353, 14.6785373 ], [ 120.5447698, 14.6788949 ], [ 120.5452127, 14.6791009 ] ] } },
{ "type": "Feature", "properties": { "full_id": "w1073093640", "osm_id": "1073093640", "osm_type": "way", "highway": "tertiary", "source:name": null, "loc_name": null, "layer": null, "bridge": null, "oneway": "yes", "surface": "asphalt", "lanes": "2", "maxspeed": null, "name:etymology:wikidata": null, "name:etymology": null, "name": "Fiscal Camacho Street", "boundary": null, "admin_level": null }, "geometry": { "type": "LineString", "coordinates": [ [ 120.5340142, 14.6732606 ], [ 120.5340166, 14.673358 ], [ 120.5340241, 14.67367 ], [ 120.5339993, 14.6739769 ], [ 120.5339384, 14.6746121 ], [ 120.5339124, 14.6748827 ] ] } },
{ "type": "Feature", "properties": { "full_id": "w1073093651", "osm_id": "1073093651", "osm_type": "way", "highway": "tertiary", "source:name": null, "loc_name": null, "layer": null, "bridge": null, "oneway": "yes", "surface": "asphalt", "lanes": "1", "maxspeed": null, "name:etymology:wikidata": null, "name:etymology": null, "name": "Fiscal Camacho Street", "boundary": null, "admin_level": null }, "geometry": { "type": "LineString", "coordinates": [ [ 120.5247229, 14.6712288 ], [ 120.5248535, 14.6712706 ], [ 120.5248885, 14.6713045 ] ] } },
{ "type": "Feature", "properties": { "full_id": "w1073093652", "osm_id": "1073093652", "osm_type": "way", "highway": "tertiary", "source:name": null, "loc_name": null, "layer": null, "bridge": null, "oneway": "yes", "surface": "asphalt", "lanes": "1", "maxspeed": null, "name:etymology:wikidata": null, "name:etymology": null, "name": "Fiscal Camacho Street", "boundary": null, "admin_level": null }, "geometry": { "type": "LineString", "coordinates": [ [ 120.5248885, 14.6713045 ], [ 120.5248395, 14.6713154 ], [ 120.5246819, 14.6712955 ] ] } },
{ "type": "Feature", "properties": { "full_id": "w1073098242", "osm_id": "1073098242", "osm_type": "way", "highway": "tertiary", "source:name": null, "loc_name": null, "layer": null, "bridge": null, "oneway": "yes", "surface": "asphalt", "lanes": "2", "maxspeed": null, "name:etymology:wikidata": null, "name:etymology": null, "name": "General Capinpin Street", "boundary": null, "admin_level": null }, "geometry": { "type": "LineString", "coordinates": [ [ 120.5339124, 14.6748827 ], [ 120.5335617, 14.6748392 ], [ 120.5334673, 14.6748275 ], [ 120.5333332, 14.6748138 ], [ 120.5332566, 14.674806 ], [ 120.5331486, 14.674795 ], [ 120.5326812, 14.6747472 ], [ 120.5326374, 14.6747427 ] ] } },
{ "type": "Feature", "properties": { "full_id": "w1127427395", "osm_id": "1127427395", "osm_type": "way", "highway": "tertiary", "source:name": null, "loc_name": null, "layer": null, "bridge": null, "oneway": null, "surface": "asphalt", "lanes": "2", "maxspeed": null, "name:etymology:wikidata": null, "name:etymology": null, "name": "Hugo Banzon Street", "boundary": null, "admin_level": null }, "geometry": { "type": "LineString", "coordinates": [ [ 120.5406755, 14.6771014 ], [ 120.5409979, 14.6772379 ], [ 120.5415554, 14.6774673 ], [ 120.5419829, 14.6776599 ] ] } },
{ "type": "Feature", "properties": { "full_id": "w1127642850", "osm_id": "1127642850", "osm_type": "way", "highway": "tertiary", "source:name": null, "loc_name": null, "layer": null, "bridge": null, "oneway": null, "surface": null, "lanes": null, "maxspeed": null, "name:etymology:wikidata": null, "name:etymology": null, "name": "Puerto Rivas Road", "boundary": null, "admin_level": null }, "geometry": { "type": "LineString", "coordinates": [ [ 120.5591204, 14.6904728 ], [ 120.5593838, 14.6903484 ] ] } },
{ "type": "Feature", "properties": { "full_id": "w1290008541", "osm_id": "1290008541", "osm_type": "way", "highway": "tertiary", "source:name": null, "loc_name": null, "layer": null, "bridge": null, "oneway": null, "surface": null, "lanes": null, "maxspeed": null, "name:etymology:wikidata": null, "name:etymology": null, "name": "Balanga Bypass Road", "boundary": null, "admin_level": null }, "geometry": { "type": "LineString", "coordinates": [ [ 120.530865, 14.6887506 ], [ 120.5308797, 14.688655 ], [ 120.5310032, 14.6879899 ], [ 120.531167, 14.6873436 ], [ 120.5313151, 14.686867 ], [ 120.531567, 14.6860215 ], [ 120.531632, 14.6857934 ], [ 120.5317784, 14.6855181 ], [ 120.532193, 14.6851563 ], [ 120.5323394, 14.6846608 ], [ 120.5324251, 14.6845104 ], [ 120.5325458, 14.6843635 ], [ 120.5338677, 14.6835128 ], [ 120.534018, 14.6834287 ], [ 120.5341588, 14.6833015 ], [ 120.5342695, 14.6831604 ], [ 120.5343646, 14.6830321 ], [ 120.5344377, 14.6829474 ], [ 120.5345285, 14.6828351 ], [ 120.5346212, 14.6827486 ], [ 120.5347328, 14.6826431 ] ] } },
{ "type": "Feature", "properties": { "full_id": "w1290008543", "osm_id": "1290008543", "osm_type": "way", "highway": "tertiary", "source:name": null, "loc_name": null, "layer": null, "bridge": null, "oneway": null, "surface": null, "lanes": null, "maxspeed": null, "name:etymology:wikidata": null, "name:etymology": null, "name": "Balanga Bypass Road", "boundary": null, "admin_level": null }, "geometry": { "type": "LineString", "coordinates": [ [ 120.5347328, 14.6826431 ], [ 120.5348493, 14.6825275 ], [ 120.534964, 14.6823751 ], [ 120.5351786, 14.6820786 ], [ 120.5352258, 14.6819745 ], [ 120.535288, 14.6816978 ], [ 120.5356068, 14.6807702 ], [ 120.5358062, 14.6799883 ] ] } },
{ "type": "Feature", "properties": { "full_id": "w1305795445", "osm_id": "1305795445", "osm_type": "way", "highway": "tertiary", "source:name": null, "loc_name": null, "layer": null, "bridge": null, "oneway": null, "surface": null, "lanes": null, "maxspeed": null, "name:etymology:wikidata": null, "name:etymology": null, "name": "Maluang Road", "boundary": null, "admin_level": null }, "geometry": { "type": "LineString", "coordinates": [ [ 120.4798477, 14.6465778 ], [ 120.4797867, 14.646071 ], [ 120.4798295, 14.6456041 ], [ 120.4797438, 14.6452198 ], [ 120.4794327, 14.6446074 ], [ 120.4793147, 14.64427 ], [ 120.4792093, 14.6440027 ], [ 120.4791001, 14.6437354 ], [ 120.4788748, 14.643341 ], [ 120.4787591, 14.6429892 ], [ 120.478617, 14.6425078 ], [ 120.4785226, 14.6420199 ], [ 120.478455, 14.6416137 ], [ 120.4783927, 14.6413179 ], [ 120.4783061, 14.6407925 ], [ 120.4781237, 14.6398428 ], [ 120.4779762, 14.6389968 ], [ 120.4778874, 14.6386696 ], [ 120.4777697, 14.6382857 ], [ 120.4772386, 14.6369726 ], [ 120.4771578, 14.6368621 ], [ 120.4770371, 14.6367466 ], [ 120.4765865, 14.636469 ], [ 120.4764859, 14.6364365 ], [ 120.4763599, 14.63643 ], [ 120.4759474, 14.6365056 ] ] } },
{ "type": "Feature", "properties": { "full_id": "w1305795446", "osm_id": "1305795446", "osm_type": "way", "highway": "tertiary", "source:name": null, "loc_name": null, "layer": null, "bridge": null, "oneway": null, "surface": null, "lanes": null, "maxspeed": null, "name:etymology:wikidata": null, "name:etymology": null, "name": "Maluang Road", "boundary": null, "admin_level": null }, "geometry": { "type": "LineString", "coordinates": [ [ 120.475714, 14.6365782 ], [ 120.4752135, 14.6366611 ] ] } }
]
}
