{
"type": "FeatureCollection",
"name": "unclassified",
"crs": { "type": "name", "properties": { "name": "urn:ogc:def:crs:OGC:1.3:CRS84" } },
"features": [
{ "type": "Feature", "properties": { "full_id": "w28400862", "osm_id": "28400862", "osm_type": "way", "highway": "unclassified", "smoothness": null, "oneway:bicycle": null, "oneway:conditional": null, "maxspeed": null, "description": null, "junction": null, "oneway": null, "lanes": null, "surface": null, "name": "Saint Joseph Street", "boundary": "administrative", "admin_level": "10" }, "geometry": { "type": "LineString", "coordinates": [ [ 120.5415884, 14.6810017 ], [ 120.5413793, 14.6808833 ], [ 120.5413056, 14.680821 ], [ 120.5413038, 14.6808178 ], [ 120.5412532, 14.6807302 ], [ 120.5411446, 14.6802875 ], [ 120.5410467, 14.6798964 ] ] } },
{ "type": "Feature", "properties": { "full_id": "w28400953", "osm_id": "28400953", "osm_type": "way", "highway": "unclassified", "smoothness": null, "oneway:bicycle": null, "oneway:conditional": null, "maxspeed": null, "description": null, "junction": null, "oneway": null, "lanes": null, "surface": null, "name": "A. Mabini Street", "boundary": null, "admin_level": null }, "geometry": { "type": "LineString", "coordinates": [ [ 120.5442741, 14.6813303 ], [ 120.5445386, 14.6800797 ], [ 120.5447698, 14.6788949 ], [ 120.544931, 14.6781529 ] ] } },
{ "type": "Feature", "properties": { "full_id": "w28400954", "osm_id": "28400954", "osm_type": "way", "highway": "unclassified", "smoothness": null, "oneway:bicycle": null, "oneway:conditional": null, "maxspeed": null, "description": null, "junction": null, "oneway": null, "lanes": null, "surface": null, "name": "P. Zamora Street", "boundary": null, "admin_level": null }, "geometry": { "type": "LineString", "coordinates": [ [ 120.5433338, 14.6806968 ], [ 120.5439353, 14.6785373 ], [ 120.5441766, 14.6777023 ], [ 120.5442632, 14.6774025 ], [ 120.5442724, 14.6773667 ] ] } },
{ "type": "Feature", "properties": { "full_id": "w28400955", "osm_id": "28400955", "osm_type": "way", "highway": "unclassified", "smoothness": null, "oneway:bicycle": null, "oneway:conditional": null, "maxspeed": null, "description": null, "junction": null, "oneway": null, "lanes": null, "surface": null, "name": "P. Gomez Street", "boundary": null, "admin_level": null }, "geometry": { "type": "LineString", "coordinates": [ [ 120.542552, 14.6801821 ], [ 120.5432201, 14.6787656 ], [ 120.5434247, 14.6783068 ], [ 120.543618, 14.6779103 ], [ 120.5437182, 14.6776737 ], [ 120.5437783, 14.6774754 ] ] } },
{ "type": "Feature", "properties": { "full_id": "w28401234", "osm_id": "28401234", "osm_type": "way", "highway": "unclassified", "smoothness": null, "oneway:bicycle": null, "oneway:conditional": null, "maxspeed": null, "description": null, "junction": null, "oneway": null, "lanes": null, "surface": "concrete", "name": "Molave Street", "boundary": null, "admin_level": null }, "geometry": { "type": "LineString", "coordinates": [ [ 120.5397747, 14.6846427 ], [ 120.5393984, 14.6842916 ], [ 120.5390988, 14.6840327 ], [ 120.5389543, 14.6839078 ], [ 120.5389307, 14.683857 ], [ 120.5389406, 14.6837756 ] ] } },
{ "type": "Feature", "properties": { "full_id": "w28401236", "osm_id": "28401236", "osm_type": "way", "highway": "unclassified", "smoothness": null, "oneway:bicycle": null, "oneway:conditional": null, "maxspeed": null, "description": null, "junction": null, "oneway": null, "lanes": null, "surface": null, "name": "Molave Street", "boundary": null, "admin_level": null }, "geometry": { "type": "LineString", "coordinates": [ [ 120.5395081, 14.6831138 ], [ 120.5393698, 14.6832622 ], [ 120.5389406, 14.6837756 ] ] } },
{ "type": "Feature", "properties": { "full_id": "w28401252", "osm_id": "28401252", "osm_type": "way", "highway": "unclassified", "smoothness": null, "oneway:bicycle": null, "oneway:conditional": null, "maxspeed": null, "description": null, "junction": null, "oneway": null, "lanes": "2", "surface": "asphalt", "name": "Zulueta Street", "boundary": null, "admin_level": null }, "geometry": { "type": "LineString", "coordinates": [ [ 120.5401976, 14.6788765 ], [ 120.5406055, 14.6780713 ], [ 120.5409979, 14.6772379 ], [ 120.5417318, 14.675775 ] ] } },
{ "type": "Feature", "properties": { "full_id": "w31847012", "osm_id": "31847012", "osm_type": "way", "highway": "unclassified", "smoothness": null, "oneway:bicycle": null, "oneway:conditional": null, "maxspeed": null, "description": null, "junction": null, "oneway": "yes", "lanes": null, "surface": null, "name": null, "boundary": null, "admin_level": null }, "geometry": { "type": "LineString", "coordinates": [ [ 120.5310785, 14.6760749 ], [ 120.5309813, 14.6760509 ], [ 120.5309379, 14.6760373 ], [ 120.5308968, 14.6760321 ], [ 120.5307507, 14.6760072 ], [ 120.5304696, 14.6759575 ], [ 120.5303862, 14.6759883 ], [ 120.530331, 14.6760191 ], [ 120.5302636, 14.6760807 ] ] } },
{ "type": "Feature", "properties": { "full_id": "w31847013", "osm_id": "31847013", "osm_type": "way", "highway": "unclassified", "smoothness": null, "oneway:bicycle": null, "oneway:conditional": null, "maxspeed": null, "description": null, "junction": null, "oneway": "yes", "lanes": null, "surface": null, "name": null, "boundary": null, "admin_level": null }, "geometry": { "type": "LineString", "coordinates": [ [ 120.5303285, 14.6756976 ], [ 120.5303718, 14.6757895 ], [ 120.5304728, 14.6758594 ], [ 120.5309532, 14.67596 ], [ 120.5310112, 14.6759727 ], [ 120.5310477, 14.6759835 ], [ 120.53107, 14.6759884 ], [ 120.5311036, 14.6760016 ] ] } },
{ "type": "Feature", "properties": { "full_id": "w31847014", "osm_id": "31847014", "osm_type": "way", "highway": "unclassified", "smoothness": null, "oneway:bicycle": null, "oneway:conditional": null, "maxspeed": null, "description": null, "junction": "circular", "oneway": null, "lanes": null, "surface": null, "name": "Bataan Capitol Roundabout", "boundary": null, "admin_level": null }, "geometry": { "type": "LineString", "coordinates": [ [ 120.5302636, 14.6760807 ], [ 120.530236, 14.6761125 ], [ 120.530199, 14.6761504 ], [ 120.5301287, 14.6762047 ], [ 120.5300409, 14.6762321 ], [ 120.5299779, 14.6762269 ], [ 120.5299249, 14.6762113 ], [ 120.5298746, 14.6761685 ], [ 120.5298338, 14.6761075 ], [ 120.5297978, 14.6760263 ], [ 120.5297785, 14.6759147 ], [ 120.5297905, 14.6758221 ], [ 120.5298114, 14.6757384 ], [ 120.5298413, 14.6756487 ], [ 120.529872, 14.6755741 ], [ 120.5299226, 14.6755235 ], [ 120.5299824, 14.6754727 ], [ 120.5300173, 14.6754556 ], [ 120.5300662, 14.6754298 ], [ 120.5301333, 14.6754107 ], [ 120.5301879, 14.6754359 ], [ 120.5302238, 14.6754724 ], [ 120.5302537, 14.6755083 ], [ 120.5302836, 14.6755591 ], [ 120.5303135, 14.6756427 ], [ 120.5303285, 14.6756976 ], [ 120.5303272, 14.6757922 ], [ 120.5303143, 14.6758529 ], [ 120.5303029, 14.6759149 ], [ 120.5302636, 14.6760807 ] ] } },
{ "type": "Feature", "properties": { "full_id": "w31847016", "osm_id": "31847016", "osm_type": "way", "highway": "unclassified", "smoothness": null, "oneway:bicycle": null, "oneway:conditional": null, "maxspeed": null, "description": "To Balanga Wetlands", "junction": null, "oneway": null, "lanes": null, "surface": null, "name": null, "boundary": "administrative", "admin_level": "10" }, "geometry": { "type": "LineString", "coordinates": [ [ 120.5547646, 14.6892486 ], [ 120.5546793, 14.6893796 ], [ 120.5545663, 14.6895082 ], [ 120.5544225, 14.6896623 ], [ 120.5543044, 14.6897753 ], [ 120.5542359, 14.6898575 ], [ 120.5541606, 14.6899602 ], [ 120.5541195, 14.6900445 ], [ 120.5540958, 14.6901605 ], [ 120.5540835, 14.6902755 ], [ 120.5540496, 14.6903986 ] ] } },
{ "type": "Feature", "properties": { "full_id": "w77594307", "osm_id": "77594307", "osm_type": "way", "highway": "unclassified", "smoothness": null, "oneway:bicycle": null, "oneway:conditional": null, "maxspeed": "40", "description": null, "junction": null, "oneway": null, "lanes": null, "surface": null, "name": null, "boundary": null, "admin_level": null }, "geometry": { "type": "LineString", "coordinates": [ [ 120.51974, 14.6842162 ], [ 120.5199338, 14.6841334 ], [ 120.5201858, 14.684015 ], [ 120.5202167, 14.6840008 ], [ 120.520271, 14.6839895 ], [ 120.5203226, 14.6839852 ], [ 120.5203963, 14.6839895 ], [ 120.5207007, 14.6840853 ], [ 120.521052, 14.6841958 ], [ 120.5212409, 14.6842552 ], [ 120.5216572, 14.6843762 ], [ 120.5220893, 14.6845396 ], [ 120.5223822, 14.6838612 ] ] } },
{ "type": "Feature", "properties": { "full_id": "w81459392", "osm_id": "81459392", "osm_type": "way", "highway": "unclassified", "smoothness": null, "oneway:bicycle": null, "oneway:conditional": "yes @ (Mo-Fr 08:00-18:00)", "maxspeed": null, "description": null, "junction": null, "oneway": null, "lanes": null, "surface": null, "name": "Malabia Street", "boundary": null, "admin_level": null }, "geometry": { "type": "LineString", "coordinates": [ [ 120.5399848, 14.6802843 ], [ 120.5399993, 14.6804814 ], [ 120.5400127, 14.6805824 ], [ 120.5400325, 14.6807666 ], [ 120.5400465, 14.6808949 ], [ 120.5400402, 14.6810301 ], [ 120.5400149, 14.6811345 ], [ 120.5399288, 14.6812883 ], [ 120.5398633, 14.6814184 ], [ 120.5398385, 14.681498 ], [ 120.5397506, 14.6818913 ], [ 120.5396922, 14.6821644 ], [ 120.5396518, 14.6823454 ], [ 120.539638, 14.6824073 ], [ 120.5395115, 14.6828321 ], [ 120.5394904, 14.682939 ], [ 120.539498, 14.6830389 ], [ 120.5395081, 14.6831138 ] ] } },
{ "type": "Feature", "properties": { "full_id": "w130503335", "osm_id": "130503335", "osm_type": "way", "highway": "unclassified", "smoothness": null, "oneway:bicycle": null, "oneway:conditional": null, "maxspeed": "40", "description": null, "junction": null, "oneway": null, "lanes": null, "surface": null, "name": null, "boundary": null, "admin_level": null }, "geometry": { "type": "LineString", "coordinates": [ [ 120.5220893, 14.6845396 ], [ 120.5224881, 14.6846533 ], [ 120.52252, 14.6846559 ], [ 120.5225496, 14.6846527 ], [ 120.522575, 14.6846403 ], [ 120.5225914, 14.684621 ], [ 120.5226429, 14.6845266 ], [ 120.5228552, 14.6839892 ] ] } },
{ "type": "Feature", "properties": { "full_id": "w163535966", "osm_id": "163535966", "osm_type": "way", "highway": "unclassified", "smoothness": null, "oneway:bicycle": null, "oneway:conditional": null, "maxspeed": null, "description": null, "junction": null, "oneway": null, "lanes": null, "surface": null, "name": null, "boundary": null, "admin_level": null }, "geometry": { "type": "LineString", "coordinates": [ [ 120.4935124, 14.6755986 ], [ 120.4934221, 14.6755316 ], [ 120.4930692, 14.6752949 ], [ 120.4929748, 14.6752581 ], [ 120.4928778, 14.6752266 ], [ 120.4927643, 14.6752088 ], [ 120.4926286, 14.6752076 ], [ 120.4924122, 14.6752349 ], [ 120.4919039, 14.6753057 ], [ 120.4917383, 14.6753113 ], [ 120.4915102, 14.6752958 ], [ 120.4914281, 14.6752774 ], [ 120.4913534, 14.6752367 ], [ 120.4913019, 14.6751753 ], [ 120.4912341, 14.6750059 ], [ 120.4911992, 14.6749617 ], [ 120.4911462, 14.6749344 ], [ 120.4910947, 14.6749237 ], [ 120.4901375, 14.6748485 ], [ 120.4888408, 14.6746906 ], [ 120.4882568, 14.6745705 ], [ 120.4875058, 14.6743915 ], [ 120.4862099, 14.6740303 ], [ 120.4855034, 14.6738183 ], [ 120.4851238, 14.6737117 ], [ 120.4849202, 14.6736546 ], [ 120.4848263, 14.6736078 ], [ 120.4847512, 14.6735378 ], [ 120.4842711, 14.6729826 ], [ 120.484204, 14.6729591 ], [ 120.4841316, 14.6729644 ], [ 120.4839251, 14.6731279 ], [ 120.4838607, 14.6731693 ], [ 120.4835281, 14.6732472 ], [ 120.4833243, 14.6732809 ], [ 120.4830962, 14.6732576 ], [ 120.4829032, 14.6732213 ], [ 120.4827851, 14.673159 ], [ 120.4826456, 14.6730371 ], [ 120.4825598, 14.6729592 ], [ 120.4824888, 14.6729378 ], [ 120.4824324, 14.6729553 ], [ 120.4823915, 14.672978 ], [ 120.4822808, 14.673063 ], [ 120.4821682, 14.6731252 ], [ 120.4819456, 14.6731927 ], [ 120.4815809, 14.6732913 ], [ 120.4811168, 14.6734418 ], [ 120.4809371, 14.6735352 ], [ 120.4808003, 14.6736312 ], [ 120.4806259, 14.6737531 ], [ 120.4804919, 14.673831 ], [ 120.4801914, 14.6739452 ], [ 120.4797811, 14.6740879 ], [ 120.4795182, 14.6741839 ], [ 120.4792841, 14.6742587 ], [ 120.47903, 14.674324 ], [ 120.478794, 14.6743681 ], [ 120.4782361, 14.6744174 ], [ 120.4779143, 14.6744356 ], [ 120.4776715, 14.6744356 ], [ 120.477587, 14.6744381 ], [ 120.4774154, 14.6744745 ], [ 120.4771739, 14.6745549 ], [ 120.4770908, 14.6745705 ], [ 120.4768924, 14.6745835 ], [ 120.4766348, 14.6745861 ], [ 120.4765303, 14.6745964 ], [ 120.4764068, 14.6746431 ], [ 120.4763331, 14.6746762 ], [ 120.476292, 14.6747293 ], [ 120.4762853, 14.6747854 ], [ 120.4763002, 14.6749104 ], [ 120.4763666, 14.6751776 ], [ 120.4765436, 14.6758211 ], [ 120.4766904, 14.6764227 ], [ 120.476726, 14.6765918 ], [ 120.4767327, 14.6766547 ], [ 120.4767234, 14.6767345 ], [ 120.4766214, 14.6769213 ], [ 120.4765276, 14.6770303 ], [ 120.4763747, 14.6771107 ], [ 120.4762995, 14.6771548 ], [ 120.4762513, 14.6772145 ], [ 120.4762325, 14.6773157 ], [ 120.4762505, 14.677458 ], [ 120.4762647, 14.6775596 ], [ 120.4763613, 14.6779487 ], [ 120.4765007, 14.6784158 ] ] } },
{ "type": "Feature", "properties": { "full_id": "w188210763", "osm_id": "188210763", "osm_type": "way", "highway": "unclassified", "smoothness": null, "oneway:bicycle": null, "oneway:conditional": null, "maxspeed": null, "description": null, "junction": null, "oneway": null, "lanes": null, "surface": null, "name": null, "boundary": null, "admin_level": null }, "geometry": { "type": "LineString", "coordinates": [ [ 120.4689717, 14.663448 ], [ 120.4676574, 14.6634522 ], [ 120.4674, 14.6634401 ], [ 120.4673423, 14.6634039 ], [ 120.4673181, 14.6633714 ], [ 120.4672926, 14.663313 ], [ 120.4672344, 14.663263 ], [ 120.4669065, 14.6630464 ], [ 120.4667039, 14.6628927 ], [ 120.4664142, 14.6626851 ], [ 120.4661312, 14.6624969 ], [ 120.4659637, 14.6623776 ] ] } },
{ "type": "Feature", "properties": { "full_id": "w188212298", "osm_id": "188212298", "osm_type": "way", "highway": "unclassified", "smoothness": null, "oneway:bicycle": null, "oneway:conditional": null, "maxspeed": null, "description": null, "junction": null, "oneway": null, "lanes": null, "surface": null, "name": null, "boundary": null, "admin_level": null }, "geometry": { "type": "LineString", "coordinates": [ [ 120.4676776, 14.6430893 ], [ 120.4677044, 14.6432137 ], [ 120.4677058, 14.6433235 ], [ 120.4676856, 14.643492 ], [ 120.4676198, 14.6436918 ], [ 120.4675112, 14.6439785 ], [ 120.4673992, 14.6442342 ], [ 120.4672666, 14.644473 ], [ 120.4671331, 14.6447124 ], [ 120.4670044, 14.644994 ], [ 120.4668891, 14.6452003 ], [ 120.4667448, 14.6453903 ], [ 120.4666061, 14.645539 ], [ 120.4664492, 14.6456986 ], [ 120.4661917, 14.6459633 ], [ 120.4660737, 14.646106 ], [ 120.4659088, 14.6463331 ], [ 120.4657049, 14.6466185 ], [ 120.4654627, 14.6469966 ], [ 120.465169, 14.647369 ], [ 120.4649652, 14.647622 ], [ 120.4648296, 14.6478076 ], [ 120.4646655, 14.6480692 ], [ 120.4645167, 14.6483261 ], [ 120.4643429, 14.6485848 ], [ 120.464143, 14.6488897 ], [ 120.4637407, 14.6494685 ], [ 120.4636744, 14.6496053 ], [ 120.4636824, 14.6497869 ], [ 120.4637092, 14.6498883 ] ] } },
{ "type": "Feature", "properties": { "full_id": "w264060759", "osm_id": "264060759", "osm_type": "way", "highway": "unclassified", "smoothness": null, "oneway:bicycle": null, "oneway:conditional": null, "maxspeed": null, "description": null, "junction": null, "oneway": null, "lanes": "2", "surface": "concrete", "name": "Anacleto del Rosario Street", "boundary": null, "admin_level": null }, "geometry": { "type": "LineString", "coordinates": [ [ 120.5580439, 14.6910541 ], [ 120.5583805, 14.6916691 ], [ 120.5588298, 14.6925353 ], [ 120.5590805, 14.6931663 ], [ 120.5591208, 14.6934309 ], [ 120.5591435, 14.693891 ], [ 120.5591751, 14.6942571 ], [ 120.5592658, 14.6945889 ], [ 120.5594732, 14.6953159 ], [ 120.5596223, 14.6959317 ], [ 120.5598413, 14.6967212 ], [ 120.5600907, 14.6975829 ], [ 120.5603885, 14.6985834 ], [ 120.5606515, 14.6995223 ], [ 120.560776, 14.6998973 ], [ 120.5610416, 14.7008252 ] ] } },
{ "type": "Feature", "properties": { "full_id": "w264060765", "osm_id": "264060765", "osm_type": "way", "highway": "unclassified", "smoothness": null, "oneway:bicycle": null, "oneway:conditional": null, "maxspeed": null, "description": null, "junction": null, "oneway": null, "lanes": null, "surface": null, "name": null, "boundary": null, "admin_level": null }, "geometry": { "type": "LineString", "coordinates": [ [ 120.4821981, 14.6542375 ], [ 120.4822651, 14.6545074 ], [ 120.4823147, 14.6546579 ], [ 120.4810634, 14.6549667 ], [ 120.4804462, 14.6550872 ], [ 120.4795955, 14.6552539 ], [ 120.4789727, 14.6553757 ], [ 120.4762355, 14.6559112 ], [ 120.4735523, 14.656504 ], [ 120.4734748, 14.6565211 ], [ 120.4704818, 14.6571982 ], [ 120.4703776, 14.6572333 ], [ 120.4703088, 14.6572734 ], [ 120.4702635, 14.6573099 ], [ 120.4702122, 14.6573629 ], [ 120.4701586, 14.6574499 ], [ 120.4700352, 14.6577185 ], [ 120.4699977, 14.6578248 ], [ 120.4699682, 14.6579455 ], [ 120.4699591, 14.6580222 ], [ 120.4699588, 14.6580791 ], [ 120.4699749, 14.6581661 ], [ 120.4700557, 14.6585062 ], [ 120.4700875, 14.658615 ], [ 120.4702377, 14.6590574 ], [ 120.4702833, 14.6591729 ], [ 120.4702981, 14.659217 ], [ 120.4703316, 14.6592923 ], [ 120.4705588, 14.6597574 ], [ 120.4708389, 14.660416 ], [ 120.4708841, 14.6605326 ], [ 120.4708962, 14.660591 ], [ 120.4709002, 14.660639 ], [ 120.4708995, 14.6607772 ], [ 120.4709016, 14.6610049 ], [ 120.4709716, 14.6618354 ], [ 120.4709576, 14.6618836 ], [ 120.4709197, 14.6619218 ], [ 120.4708623, 14.6619454 ], [ 120.4706092, 14.6619752 ], [ 120.4705408, 14.6619832 ], [ 120.4702099, 14.6620456 ], [ 120.4700238, 14.6620933 ], [ 120.4697449, 14.6621927 ], [ 120.4695618, 14.662251 ], [ 120.4694089, 14.6623056 ], [ 120.4693345, 14.6623587 ], [ 120.4692922, 14.6623983 ], [ 120.4692507, 14.6624606 ], [ 120.4691393, 14.6628057 ], [ 120.4690227, 14.6631262 ], [ 120.4689717, 14.663448 ] ] } },
{ "type": "Feature", "properties": { "full_id": "w264060767", "osm_id": "264060767", "osm_type": "way", "highway": "unclassified", "smoothness": null, "oneway:bicycle": null, "oneway:conditional": null, "maxspeed": null, "description": null, "junction": null, "oneway": null, "lanes": null, "surface": null, "name": null, "boundary": "administrative", "admin_level": "10" }, "geometry": { "type": "LineString", "coordinates": [ [ 120.4798477, 14.6465778 ], [ 120.4795829, 14.6480121 ], [ 120.4794005, 14.6491539 ], [ 120.4793039, 14.649839 ], [ 120.4795067, 14.6501769 ], [ 120.480129, 14.6510073 ], [ 120.4809014, 14.6521906 ], [ 120.481631, 14.6532701 ], [ 120.4821682, 14.6541865 ], [ 120.4821981, 14.6542375 ] ] } },
{ "type": "Feature", "properties": { "full_id": "w264060768", "osm_id": "264060768", "osm_type": "way", "highway": "unclassified", "smoothness": null, "oneway:bicycle": null, "oneway:conditional": null, "maxspeed": null, "description": "To Balanga Wetlands", "junction": null, "oneway": null, "lanes": null, "surface": null, "name": null, "boundary": null, "admin_level": null }, "geometry": { "type": "LineString", "coordinates": [ [ 120.5540496, 14.6903986 ], [ 120.5539762, 14.6905202 ], [ 120.5528077, 14.6919882 ], [ 120.5516421, 14.6934247 ], [ 120.5509292, 14.6943289 ], [ 120.5508828, 14.6943917 ], [ 120.5509195, 14.6944559 ], [ 120.5509884, 14.6945607 ], [ 120.5510268, 14.6946608 ], [ 120.5510328, 14.6947753 ], [ 120.5509854, 14.6949699 ], [ 120.5508375, 14.6955937 ], [ 120.5507902, 14.6957625 ], [ 120.5507281, 14.6958655 ], [ 120.5505772, 14.6960486 ], [ 120.5499736, 14.6966888 ] ] } },
{ "type": "Feature", "properties": { "full_id": "w300591101", "osm_id": "300591101", "osm_type": "way", "highway": "unclassified", "smoothness": "excellent", "oneway:bicycle": "yes", "oneway:conditional": null, "maxspeed": "30", "description": null, "junction": null, "oneway": "yes", "lanes": null, "surface": "concrete", "name": null, "boundary": null, "admin_level": null }, "geometry": { "type": "LineString", "coordinates": [ [ 120.5333626, 14.6560192 ], [ 120.5330765, 14.655854 ], [ 120.5328634, 14.6557251 ] ] } },
{ "type": "Feature", "properties": { "full_id": "w300591124", "osm_id": "300591124", "osm_type": "way", "highway": "unclassified", "smoothness": "excellent", "oneway:bicycle": "yes", "oneway:conditional": null, "maxspeed": "30", "description": null, "junction": null, "oneway": "yes", "lanes": null, "surface": "concrete", "name": null, "boundary": null, "admin_level": null }, "geometry": { "type": "LineString", "coordinates": [ [ 120.5329026, 14.6556306 ], [ 120.533153, 14.6557671 ], [ 120.5333233, 14.6558669 ] ] } },
{ "type": "Feature", "properties": { "full_id": "w301431324", "osm_id": "301431324", "osm_type": "way", "highway": "unclassified", "smoothness": null, "oneway:bicycle": null, "oneway:conditional": null, "maxspeed": "30", "description": null, "junction": null, "oneway": null, "lanes": null, "surface": "paved", "name": null, "boundary": null, "admin_level": null }, "geometry": { "type": "LineString", "coordinates": [ [ 120.4897698, 14.646825 ], [ 120.4898273, 14.6477677 ], [ 120.4899054, 14.648622 ], [ 120.4899234, 14.6489481 ], [ 120.4899929, 14.6499113 ], [ 120.4900017, 14.6500625 ], [ 120.4898714, 14.6500894 ], [ 120.4879168, 14.65023 ], [ 120.4874476, 14.6502638 ], [ 120.4862385, 14.6503579 ] ] } },
{ "type": "Feature", "properties": { "full_id": "w344294321", "osm_id": "344294321", "osm_type": "way", "highway": "unclassified", "smoothness": null, "oneway:bicycle": null, "oneway:conditional": null, "maxspeed": null, "description": null, "junction": null, "oneway": null, "lanes": null, "surface": null, "name": null, "boundary": null, "admin_level": null }, "geometry": { "type": "LineString", "coordinates": [ [ 120.4670095, 14.6235085 ], [ 120.4675919, 14.6222747 ], [ 120.4681274, 14.6211521 ], [ 120.4682091, 14.6209989 ], [ 120.468402, 14.6206372 ], [ 120.4688027, 14.6200202 ], [ 120.4692359, 14.619357 ], [ 120.469425, 14.619056 ], [ 120.4694867, 14.6189236 ], [ 120.4695591, 14.6187329 ], [ 120.469598, 14.6186641 ], [ 120.4696611, 14.6186122 ], [ 120.4697214, 14.6185992 ], [ 120.469771, 14.6186148 ], [ 120.4698823, 14.6187835 ], [ 120.4699145, 14.6188237 ], [ 120.4699561, 14.6188302 ], [ 120.4700017, 14.618812 ], [ 120.4700084, 14.618777 ], [ 120.4699776, 14.6185823 ], [ 120.4699923, 14.6184902 ], [ 120.4701103, 14.6182839 ], [ 120.4703383, 14.6179854 ], [ 120.4703893, 14.6179491 ], [ 120.4705207, 14.6179426 ], [ 120.4706709, 14.6179335 ], [ 120.4707272, 14.6179153 ], [ 120.4707581, 14.6178855 ], [ 120.4710867, 14.6171192 ], [ 120.4711504, 14.6170361 ], [ 120.4712543, 14.6169914 ], [ 120.4718685, 14.6168174 ], [ 120.472075, 14.6167396 ], [ 120.4721005, 14.6167098 ], [ 120.4721113, 14.6165904 ], [ 120.4722467, 14.6159013 ], [ 120.4723915, 14.6154912 ] ] } },
{ "type": "Feature", "properties": { "full_id": "w464918955", "osm_id": "464918955", "osm_type": "way", "highway": "unclassified", "smoothness": "excellent", "oneway:bicycle": "yes", "oneway:conditional": null, "maxspeed": "30", "description": null, "junction": "roundabout", "oneway": null, "lanes": null, "surface": "concrete", "name": null, "boundary": null, "admin_level": null }, "geometry": { "type": "LineString", "coordinates": [ [ 120.5328634, 14.6557251 ], [ 120.5328222, 14.6557415 ], [ 120.5327776, 14.6557386 ], [ 120.53274, 14.6557177 ], [ 120.5327146, 14.6556806 ], [ 120.5327093, 14.6556376 ], [ 120.5327243, 14.6555969 ], [ 120.532755, 14.6555677 ], [ 120.5327957, 14.6555541 ], [ 120.5328435, 14.6555606 ], [ 120.5328822, 14.6555883 ], [ 120.5329026, 14.6556306 ], [ 120.5328972, 14.6556834 ], [ 120.5328634, 14.6557251 ] ] } },
{ "type": "Feature", "properties": { "full_id": "w821734062", "osm_id": "821734062", "osm_type": "way", "highway": "unclassified", "smoothness": null, "oneway:bicycle": null, "oneway:conditional": null, "maxspeed": null, "description": null, "junction": null, "oneway": null, "lanes": null, "surface": null, "name": null, "boundary": null, "admin_level": null }, "geometry": { "type": "LineString", "coordinates": [ [ 120.5180479, 14.6844694 ], [ 120.5184035, 14.6844341 ], [ 120.5189574, 14.6843913 ], [ 120.5194026, 14.6843342 ], [ 120.5195706, 14.6842717 ], [ 120.51974, 14.6842162 ] ] } },
{ "type": "Feature", "properties": { "full_id": "w821737845", "osm_id": "821737845", "osm_type": "way", "highway": "unclassified", "smoothness": null, "oneway:bicycle": null, "oneway:conditional": null, "maxspeed": null, "description": null, "junction": null, "oneway": null, "lanes": null, "surface": null, "name": null, "boundary": null, "admin_level": null }, "geometry": { "type": "LineString", "coordinates": [ [ 120.5263321, 14.6734975 ], [ 120.5261591, 14.6733847 ], [ 120.5258775, 14.6733094 ], [ 120.5257434, 14.6732809 ], [ 120.5256388, 14.6732653 ], [ 120.5237036, 14.6727555 ] ] } },
{ "type": "Feature", "properties": { "full_id": "w821737846", "osm_id": "821737846", "osm_type": "way", "highway": "unclassified", "smoothness": null, "oneway:bicycle": null, "oneway:conditional": null, "maxspeed": null, "description": null, "junction": null, "oneway": null, "lanes": null, "surface": null, "name": null, "boundary": null, "admin_level": null }, "geometry": { "type": "LineString", "coordinates": [ [ 120.5269906, 14.6733893 ], [ 120.5276075, 14.6733925 ], [ 120.5278274, 14.6734132 ], [ 120.5282995, 14.6734729 ], [ 120.529072, 14.6735923 ], [ 120.5297171, 14.6736675 ] ] } },
{ "type": "Feature", "properties": { "full_id": "w821744320", "osm_id": "821744320", "osm_type": "way", "highway": "unclassified", "smoothness": null, "oneway:bicycle": null, "oneway:conditional": null, "maxspeed": null, "description": null, "junction": null, "oneway": null, "lanes": null, "surface": null, "name": null, "boundary": null, "admin_level": null }, "geometry": { "type": "LineString", "coordinates": [ [ 120.4647473, 14.6623555 ], [ 120.4647097, 14.663278 ], [ 120.4647016, 14.66347 ], [ 120.4646775, 14.6636698 ], [ 120.4646641, 14.6639449 ], [ 120.4646239, 14.6643341 ], [ 120.4645407, 14.6652137 ], [ 120.4644924, 14.6655796 ], [ 120.4644871, 14.6656886 ], [ 120.4645005, 14.6657638 ], [ 120.4645488, 14.6658235 ], [ 120.4649833, 14.6659533 ], [ 120.4650356, 14.6659779 ], [ 120.465045, 14.6660116 ], [ 120.4650436, 14.6660363 ], [ 120.4650168, 14.6660584 ], [ 120.4649618, 14.6660596 ], [ 120.464644, 14.6660519 ], [ 120.4643717, 14.6660804 ], [ 120.4641867, 14.6661141 ], [ 120.4640686, 14.6661557 ], [ 120.4637495, 14.6663165 ], [ 120.4636261, 14.6663944 ], [ 120.4635993, 14.6664593 ], [ 120.4636314, 14.6665449 ], [ 120.4636931, 14.666602 ], [ 120.4638943, 14.6666565 ], [ 120.4639667, 14.6666746 ], [ 120.4640123, 14.6666902 ], [ 120.4640257, 14.66672 ], [ 120.4640204, 14.6667564 ], [ 120.4639734, 14.6667862 ], [ 120.463661, 14.666973 ], [ 120.4635912, 14.6670405 ], [ 120.4635617, 14.6670976 ], [ 120.4635637, 14.66713 ], [ 120.4635778, 14.6671599 ], [ 120.4635932, 14.6671774 ], [ 120.4636154, 14.6671858 ], [ 120.4636985, 14.667191 ], [ 120.4637595, 14.6671949 ], [ 120.4637964, 14.6672027 ], [ 120.4638299, 14.6672247 ], [ 120.4639855, 14.6674505 ], [ 120.4640311, 14.6674764 ], [ 120.4640888, 14.6674777 ], [ 120.4641518, 14.6674738 ], [ 120.4642001, 14.6674777 ], [ 120.4642189, 14.6674959 ], [ 120.4642282, 14.6675257 ], [ 120.4642041, 14.667562 ], [ 120.4640365, 14.6676749 ], [ 120.4639386, 14.6677657 ] ] } },
{ "type": "Feature", "properties": { "full_id": "w821746394", "osm_id": "821746394", "osm_type": "way", "highway": "unclassified", "smoothness": null, "oneway:bicycle": null, "oneway:conditional": null, "maxspeed": null, "description": null, "junction": null, "oneway": null, "lanes": null, "surface": null, "name": null, "boundary": null, "admin_level": null }, "geometry": { "type": "LineString", "coordinates": [ [ 120.4703088, 14.6572734 ], [ 120.4698998, 14.6571255 ], [ 120.4694398, 14.6570529 ], [ 120.4690334, 14.6570023 ], [ 120.4689114, 14.6569763 ], [ 120.4688068, 14.6569426 ], [ 120.4687303, 14.656927 ], [ 120.4686418, 14.6569309 ], [ 120.4685117, 14.656953 ], [ 120.4680866, 14.6570334 ], [ 120.4679874, 14.6570477 ], [ 120.4679243, 14.6570684 ], [ 120.467817, 14.6571138 ], [ 120.467691, 14.6571696 ], [ 120.4667696, 14.6576211 ], [ 120.4666167, 14.6576886 ], [ 120.4665282, 14.6577262 ], [ 120.466429, 14.6577587 ], [ 120.4663391, 14.6577781 ], [ 120.4662627, 14.6578028 ], [ 120.4661635, 14.6578754 ], [ 120.4661306, 14.6579046 ], [ 120.466089, 14.6579215 ], [ 120.4660407, 14.657928 ], [ 120.4659556, 14.6579273 ], [ 120.4656592, 14.6579325 ], [ 120.4654165, 14.6579338 ], [ 120.4651684, 14.6579286 ], [ 120.464986, 14.6579325 ], [ 120.4648411, 14.6579611 ], [ 120.4647432, 14.6579818 ], [ 120.4644777, 14.658061 ], [ 120.4644053, 14.6580908 ], [ 120.4643355, 14.6581401 ], [ 120.464306, 14.6581959 ], [ 120.4643033, 14.6582764 ], [ 120.4643382, 14.6585307 ], [ 120.4643261, 14.6586708 ], [ 120.4642926, 14.6587188 ], [ 120.4642514, 14.6587318 ], [ 120.4642094, 14.6587382 ], [ 120.4629381, 14.6587227 ] ] } },
{ "type": "Feature", "properties": { "full_id": "w823044200", "osm_id": "823044200", "osm_type": "way", "highway": "unclassified", "smoothness": null, "oneway:bicycle": null, "oneway:conditional": null, "maxspeed": null, "description": null, "junction": null, "oneway": null, "lanes": null, "surface": null, "name": null, "boundary": null, "admin_level": null }, "geometry": { "type": "LineString", "coordinates": [ [ 120.4829514, 14.6629173 ], [ 120.4830748, 14.6628758 ], [ 120.4831418, 14.6628265 ], [ 120.483233, 14.6627253 ], [ 120.4833645, 14.6625696 ], [ 120.4835039, 14.6624217 ], [ 120.4835978, 14.6623387 ], [ 120.4836595, 14.6622816 ], [ 120.4837051, 14.6622556 ], [ 120.4837722, 14.6622582 ], [ 120.4838178, 14.6622504 ], [ 120.4838607, 14.6622167 ], [ 120.483917, 14.6621907 ], [ 120.4839787, 14.6621933 ], [ 120.4840136, 14.6622219 ], [ 120.4840028, 14.6622945 ], [ 120.4840082, 14.6624476 ], [ 120.4840296, 14.6624892 ], [ 120.4840806, 14.6625255 ], [ 120.484145, 14.6625229 ], [ 120.4842201, 14.6624736 ], [ 120.484432, 14.6622686 ], [ 120.4846331, 14.6620818 ], [ 120.4847565, 14.6619961 ], [ 120.4848316, 14.6619546 ], [ 120.4849362, 14.6619261 ], [ 120.4851079, 14.6619364 ], [ 120.4856068, 14.6620662 ], [ 120.4861835, 14.6621881 ], [ 120.4867521, 14.6623101 ], [ 120.4871222, 14.6624217 ], [ 120.487479, 14.6625436 ], [ 120.4876426, 14.6625981 ], [ 120.4878813, 14.6626448 ], [ 120.4880798, 14.6626708 ], [ 120.4885384, 14.6627616 ], [ 120.4887503, 14.6627928 ], [ 120.4888898, 14.6628116 ] ] } },
{ "type": "Feature", "properties": { "full_id": "w826124774", "osm_id": "826124774", "osm_type": "way", "highway": "unclassified", "smoothness": null, "oneway:bicycle": null, "oneway:conditional": null, "maxspeed": null, "description": null, "junction": null, "oneway": null, "lanes": null, "surface": null, "name": null, "boundary": null, "admin_level": null }, "geometry": { "type": "LineString", "coordinates": [ [ 120.5204127, 14.6763625 ], [ 120.5206384, 14.6764429 ], [ 120.5211628, 14.6767247 ] ] } },
{ "type": "Feature", "properties": { "full_id": "w832563974", "osm_id": "832563974", "osm_type": "way", "highway": "unclassified", "smoothness": null, "oneway:bicycle": null, "oneway:conditional": null, "maxspeed": null, "description": null, "junction": null, "oneway": "no", "lanes": "2", "surface": "asphalt", "name": "Tet Garcia Street", "boundary": null, "admin_level": null }, "geometry": { "type": "LineString", "coordinates": [ [ 120.5294838, 14.6715278 ], [ 120.5295413, 14.6720426 ], [ 120.5295968, 14.6725392 ], [ 120.5296946, 14.6734155 ], [ 120.529705, 14.673639 ], [ 120.5297171, 14.6736675 ] ] } },
{ "type": "Feature", "properties": { "full_id": "w832591543", "osm_id": "832591543", "osm_type": "way", "highway": "unclassified", "smoothness": "excellent", "oneway:bicycle": null, "oneway:conditional": null, "maxspeed": "30", "description": null, "junction": null, "oneway": null, "lanes": null, "surface": "concrete", "name": null, "boundary": null, "admin_level": null }, "geometry": { "type": "LineString", "coordinates": [ [ 120.5309247, 14.6536496 ], [ 120.5290918, 14.6515863 ], [ 120.5290643, 14.6515646 ], [ 120.5290392, 14.6515587 ], [ 120.5289952, 14.6515574 ], [ 120.5289731, 14.6515639 ], [ 120.5289178, 14.6516022 ], [ 120.5279512, 14.6524009 ] ] } },
{ "type": "Feature", "properties": { "full_id": "w836814951", "osm_id": "836814951", "osm_type": "way", "highway": "unclassified", "smoothness": null, "oneway:bicycle": null, "oneway:conditional": null, "maxspeed": null, "description": null, "junction": null, "oneway": null, "lanes": null, "surface": null, "name": null, "boundary": null, "admin_level": null }, "geometry": { "type": "LineString", "coordinates": [ [ 120.4659637, 14.6623776 ], [ 120.4652489, 14.6623593 ], [ 120.4649497, 14.6623555 ], [ 120.4647473, 14.6623555 ], [ 120.464412, 14.6623464 ], [ 120.4640123, 14.6623309 ], [ 120.4626792, 14.6622454 ] ] } },
{ "type": "Feature", "properties": { "full_id": "w872857951", "osm_id": "872857951", "osm_type": "way", "highway": "unclassified", "smoothness": "excellent", "oneway:bicycle": "yes", "oneway:conditional": null, "maxspeed": "30", "description": null, "junction": null, "oneway": "yes", "lanes": null, "surface": "concrete", "name": null, "boundary": null, "admin_level": null }, "geometry": { "type": "LineString", "coordinates": [ [ 120.5309893, 14.6535958 ], [ 120.5318696, 14.6545994 ], [ 120.5325548, 14.6553584 ], [ 120.5326192, 14.6554239 ], [ 120.5326955, 14.6554865 ], [ 120.5327957, 14.6555541 ] ] } },
{ "type": "Feature", "properties": { "full_id": "w872864243", "osm_id": "872864243", "osm_type": "way", "highway": "unclassified", "smoothness": "excellent", "oneway:bicycle": null, "oneway:conditional": null, "maxspeed": "30", "description": null, "junction": null, "oneway": null, "lanes": null, "surface": "concrete", "name": null, "boundary": null, "admin_level": null }, "geometry": { "type": "LineString", "coordinates": [ [ 120.5309247, 14.6536496 ], [ 120.5309893, 14.6535958 ], [ 120.5329986, 14.6519237 ] ] } },
{ "type": "Feature", "properties": { "full_id": "w872879007", "osm_id": "872879007", "osm_type": "way", "highway": "unclassified", "smoothness": "excellent", "oneway:bicycle": null, "oneway:conditional": null, "maxspeed": null, "description": null, "junction": null, "oneway": null, "lanes": null, "surface": "concrete", "name": null, "boundary": null, "admin_level": null }, "geometry": { "type": "LineString", "coordinates": [ [ 120.5318696, 14.6545994 ], [ 120.5318089, 14.6546504 ] ] } },
{ "type": "Feature", "properties": { "full_id": "w876535980", "osm_id": "876535980", "osm_type": "way", "highway": "unclassified", "smoothness": null, "oneway:bicycle": null, "oneway:conditional": null, "maxspeed": null, "description": null, "junction": null, "oneway": null, "lanes": null, "surface": null, "name": null, "boundary": null, "admin_level": null }, "geometry": { "type": "LineString", "coordinates": [ [ 120.4991385, 14.6477797 ], [ 120.499278, 14.6476772 ], [ 120.4994497, 14.6476097 ], [ 120.4997125, 14.647541 ], [ 120.5002972, 14.6472594 ], [ 120.5016357, 14.6465068 ], [ 120.5016866, 14.6463926 ], [ 120.5017241, 14.6462616 ], [ 120.501582, 14.646102 ], [ 120.5007371, 14.6452353 ], [ 120.5006419, 14.6451315 ], [ 120.5006178, 14.6450147 ], [ 120.5006795, 14.6449277 ], [ 120.5010402, 14.6447033 ], [ 120.5013889, 14.6445034 ], [ 120.5015351, 14.6444671 ], [ 120.501688, 14.6443983 ], [ 120.5018127, 14.6442673 ], [ 120.5020676, 14.643979 ], [ 120.5022016, 14.6438274 ], [ 120.5023371, 14.6437042 ], [ 120.5024564, 14.643603 ], [ 120.5025128, 14.6435815 ], [ 120.5025865, 14.6435808 ], [ 120.5026677, 14.64359 ], [ 120.5028802, 14.643625 ], [ 120.5030023, 14.6435952 ], [ 120.5036688, 14.6432448 ], [ 120.5037144, 14.6432137 ], [ 120.5037271, 14.6431715 ], [ 120.5037191, 14.6431138 ], [ 120.5035373, 14.6427374 ], [ 120.5034287, 14.6425506 ], [ 120.5033818, 14.6424468 ], [ 120.5032866, 14.6422211 ], [ 120.503253, 14.6421095 ], [ 120.5032745, 14.6420018 ], [ 120.5033965, 14.6419019 ], [ 120.5062705, 14.6406108 ], [ 120.5066085, 14.6404214 ], [ 120.5067319, 14.6402267 ], [ 120.506807, 14.6399932 ], [ 120.5069116, 14.6393755 ], [ 120.5069277, 14.6390459 ], [ 120.5069169, 14.6386696 ], [ 120.5068552, 14.6379248 ], [ 120.5067426, 14.6377146 ], [ 120.5065522, 14.6374577 ], [ 120.5062866, 14.6371437 ], [ 120.5062088, 14.6369984 ], [ 120.5061874, 14.6367856 ], [ 120.5062625, 14.6365364 ], [ 120.5065843, 14.6359733 ], [ 120.5070041, 14.635318 ], [ 120.5073259, 14.6349724 ] ] } },
{ "type": "Feature", "properties": { "full_id": "w876556097", "osm_id": "876556097", "osm_type": "way", "highway": "unclassified", "smoothness": null, "oneway:bicycle": null, "oneway:conditional": null, "maxspeed": null, "description": null, "junction": null, "oneway": null, "lanes": null, "surface": null, "name": null, "boundary": null, "admin_level": null }, "geometry": { "type": "LineString", "coordinates": [ [ 120.4682091, 14.6209989 ], [ 120.4681429, 14.6207183 ], [ 120.4680893, 14.6206106 ], [ 120.4677714, 14.6203666 ], [ 120.4675703, 14.6202057 ], [ 120.467404, 14.620015 ], [ 120.4672551, 14.6196919 ], [ 120.4671532, 14.6191922 ], [ 120.4669628, 14.617831 ], [ 120.4668353, 14.6166332 ], [ 120.4667884, 14.6152317 ], [ 120.4668018, 14.6144349 ], [ 120.4667911, 14.6141312 ], [ 120.466716, 14.6136381 ], [ 120.4665953, 14.6129607 ], [ 120.4660642, 14.6110867 ], [ 120.4658818, 14.6102614 ], [ 120.4655734, 14.6088027 ], [ 120.4655144, 14.6085198 ], [ 120.4656109, 14.6077412 ], [ 120.4656646, 14.6071234 ], [ 120.4656163, 14.6068613 ], [ 120.4655331, 14.6065343 ], [ 120.4655707, 14.606228 ], [ 120.4657477, 14.605426 ], [ 120.4657477, 14.6049666 ], [ 120.4656672, 14.6043177 ], [ 120.4655117, 14.6039932 ], [ 120.4653802, 14.6038401 ], [ 120.4652327, 14.6037752 ], [ 120.4649162, 14.6037285 ], [ 120.4641893, 14.6036999 ], [ 120.4640901, 14.6036895 ], [ 120.4639721, 14.6036143 ], [ 120.4635134, 14.6031315 ], [ 120.4633793, 14.6029472 ], [ 120.4633176, 14.60282 ], [ 120.4631004, 14.6022438 ], [ 120.4627892, 14.6014833 ], [ 120.462749, 14.6013821 ], [ 120.462757, 14.601299 ], [ 120.4629233, 14.6003906 ], [ 120.4629394, 14.6001284 ], [ 120.4629046, 14.5998585 ], [ 120.4628053, 14.5994717 ], [ 120.4626632, 14.5988202 ], [ 120.4626417, 14.5987242 ], [ 120.4625908, 14.5986437 ], [ 120.4622635, 14.5982777 ], [ 120.4613757, 14.597429 ], [ 120.4610592, 14.5971954 ] ] } },
{ "type": "Feature", "properties": { "full_id": "w876561377", "osm_id": "876561377", "osm_type": "way", "highway": "unclassified", "smoothness": null, "oneway:bicycle": null, "oneway:conditional": null, "maxspeed": null, "description": null, "junction": null, "oneway": null, "lanes": null, "surface": null, "name": null, "boundary": null, "admin_level": null }, "geometry": { "type": "LineString", "coordinates": [ [ 120.4655949, 14.6230426 ], [ 120.4650918, 14.6225257 ], [ 120.4647138, 14.6221328 ], [ 120.4643409, 14.6217734 ], [ 120.4641049, 14.6214788 ], [ 120.4639801, 14.6213191 ], [ 120.4638956, 14.6212101 ], [ 120.4637803, 14.6210428 ], [ 120.4635242, 14.6207793 ], [ 120.4633458, 14.6205659 ], [ 120.463044, 14.6200707 ], [ 120.462576, 14.6193454 ], [ 120.4622407, 14.6186291 ], [ 120.4620892, 14.618293 ], [ 120.4618612, 14.6178089 ], [ 120.4618362, 14.6177153 ], [ 120.4617926, 14.6175521 ], [ 120.4617164, 14.6172665 ], [ 120.4615098, 14.6165968 ], [ 120.4614964, 14.6161505 ], [ 120.4615098, 14.6155951 ], [ 120.4615795, 14.6149565 ], [ 120.4615809, 14.614357 ], [ 120.461648, 14.6137886 ], [ 120.4616373, 14.613472 ], [ 120.4616077, 14.613254 ] ] } },
{ "type": "Feature", "properties": { "full_id": "w879165582", "osm_id": "879165582", "osm_type": "way", "highway": "unclassified", "smoothness": null, "oneway:bicycle": null, "oneway:conditional": null, "maxspeed": "20", "description": null, "junction": null, "oneway": null, "lanes": null, "surface": "concrete", "name": "Jade Street", "boundary": null, "admin_level": null }, "geometry": { "type": "LineString", "coordinates": [ [ 120.5269906, 14.6733893 ], [ 120.5269725, 14.6733549 ], [ 120.526933, 14.6733184 ] ] } },
{ "type": "Feature", "properties": { "full_id": "w879165583", "osm_id": "879165583", "osm_type": "way", "highway": "unclassified", "smoothness": null, "oneway:bicycle": null, "oneway:conditional": null, "maxspeed": "20", "description": null, "junction": null, "oneway": null, "lanes": null, "surface": "concrete", "name": "Ruby Street", "boundary": null, "admin_level": null }, "geometry": { "type": "LineString", "coordinates": [ [ 120.5263321, 14.6734975 ], [ 120.5263924, 14.6734534 ], [ 120.5264515, 14.673434 ], [ 120.526933, 14.6733184 ] ] } },
{ "type": "Feature", "properties": { "full_id": "w909878308", "osm_id": "909878308", "osm_type": "way", "highway": "unclassified", "smoothness": null, "oneway:bicycle": null, "oneway:conditional": null, "maxspeed": null, "description": null, "junction": null, "oneway": null, "lanes": null, "surface": null, "name": null, "boundary": null, "admin_level": null }, "geometry": { "type": "LineString", "coordinates": [ [ 120.497974, 14.6620872 ], [ 120.4963168, 14.661472 ], [ 120.4956175, 14.6612131 ], [ 120.4946609, 14.660874 ], [ 120.4944782, 14.6608025 ], [ 120.4943136, 14.6607274 ], [ 120.4940775, 14.6605717 ], [ 120.4939654, 14.660518 ], [ 120.4938726, 14.6604736 ], [ 120.4935947, 14.6603745 ], [ 120.4935585, 14.6603541 ], [ 120.4933372, 14.6602292 ], [ 120.493069, 14.6600216 ], [ 120.4927471, 14.6597828 ], [ 120.4924145, 14.6596064 ], [ 120.492082, 14.6594715 ], [ 120.4917386, 14.6593365 ], [ 120.4915361, 14.6591874 ], [ 120.4910305, 14.6588798 ], [ 120.490529, 14.658623 ], [ 120.4902041, 14.6584074 ], [ 120.4901049, 14.6583931 ], [ 120.490019, 14.6584334 ], [ 120.4898286, 14.6586902 ], [ 120.4897052, 14.6588693 ], [ 120.4896301, 14.6590769 ], [ 120.4895733, 14.6595212 ], [ 120.4894423, 14.6605456 ], [ 120.4893605, 14.6610644 ], [ 120.4891156, 14.6627137 ], [ 120.4890986, 14.6627624 ], [ 120.4890749, 14.6627922 ], [ 120.4890387, 14.6628038 ], [ 120.4888898, 14.6628116 ] ] } },
{ "type": "Feature", "properties": { "full_id": "w921142419", "osm_id": "921142419", "osm_type": "way", "highway": "unclassified", "smoothness": null, "oneway:bicycle": null, "oneway:conditional": null, "maxspeed": "40", "description": null, "junction": null, "oneway": null, "lanes": null, "surface": null, "name": null, "boundary": null, "admin_level": null }, "geometry": { "type": "LineString", "coordinates": [ [ 120.5182386, 14.6828799 ], [ 120.5188532, 14.6830499 ], [ 120.5199172, 14.6833242 ], [ 120.5199927, 14.6833301 ], [ 120.5200135, 14.6833265 ], [ 120.520218, 14.6832912 ], [ 120.5202874, 14.6832918 ], [ 120.5203414, 14.6832989 ], [ 120.5212449, 14.6835366 ], [ 120.5215013, 14.6836041 ], [ 120.5218904, 14.6837177 ], [ 120.5223822, 14.6838612 ], [ 120.5228552, 14.6839892 ], [ 120.5230246, 14.683718 ], [ 120.5230699, 14.6836733 ], [ 120.5231971, 14.6835676 ], [ 120.5233628, 14.6834782 ] ] } },
{ "type": "Feature", "properties": { "full_id": "w1058734924", "osm_id": "1058734924", "osm_type": "way", "highway": "unclassified", "smoothness": null, "oneway:bicycle": null, "oneway:conditional": null, "maxspeed": null, "description": null, "junction": null, "oneway": null, "lanes": null, "surface": null, "name": null, "boundary": null, "admin_level": null }, "geometry": { "type": "LineString", "coordinates": [ [ 120.4617562, 14.6426903 ], [ 120.4616573, 14.6428192 ], [ 120.4614186, 14.6430762 ], [ 120.4609734, 14.6434862 ], [ 120.4581034, 14.6465614 ], [ 120.4550726, 14.6513428 ], [ 120.4547995, 14.6518419 ], [ 120.4542381, 14.6524144 ], [ 120.4535857, 14.6530015 ], [ 120.4527967, 14.6537795 ], [ 120.4522353, 14.654308 ], [ 120.4512339, 14.6549832 ], [ 120.4500049, 14.6556732 ], [ 120.4494131, 14.6559521 ], [ 120.4489428, 14.6559961 ], [ 120.4481083, 14.6562897 ], [ 120.4476531, 14.6565246 ] ] } },
{ "type": "Feature", "properties": { "full_id": "w1076729012", "osm_id": "1076729012", "osm_type": "way", "highway": "unclassified", "smoothness": "excellent", "oneway:bicycle": "yes", "oneway:conditional": null, "maxspeed": "30", "description": null, "junction": null, "oneway": "yes", "lanes": null, "surface": "concrete", "name": null, "boundary": null, "admin_level": null }, "geometry": { "type": "LineString", "coordinates": [ [ 120.5327243, 14.6555969 ], [ 120.532646, 14.6555452 ], [ 120.5325616, 14.655481 ], [ 120.5324932, 14.6554207 ], [ 120.5318089, 14.6546504 ], [ 120.5309247, 14.6536496 ] ] } },
{ "type": "Feature", "properties": { "full_id": "w1076729016", "osm_id": "1076729016", "osm_type": "way", "highway": "unclassified", "smoothness": "excellent", "oneway:bicycle": "yes", "oneway:conditional": null, "maxspeed": "30", "description": null, "junction": null, "oneway": "yes", "lanes": null, "surface": "concrete", "name": null, "boundary": null, "admin_level": null }, "geometry": { "type": "LineString", "coordinates": [ [ 120.5336279, 14.6561616 ], [ 120.5333626, 14.6560192 ] ] } },
{ "type": "Feature", "properties": { "full_id": "w1076729017", "osm_id": "1076729017", "osm_type": "way", "highway": "unclassified", "smoothness": "excellent", "oneway:bicycle": "yes", "oneway:conditional": null, "maxspeed": "30", "description": null, "junction": null, "oneway": "yes", "lanes": null, "surface": "concrete", "name": null, "boundary": null, "admin_level": null }, "geometry": { "type": "LineString", "coordinates": [ [ 120.5333233, 14.6558669 ], [ 120.533686, 14.6560535 ] ] } },
{ "type": "Feature", "properties": { "full_id": "w1290008542", "osm_id": "1290008542", "osm_type": "way", "highway": "unclassified", "smoothness": null, "oneway:bicycle": null, "oneway:conditional": null, "maxspeed": null, "description": null, "junction": null, "oneway": null, "lanes": null, "surface": null, "name": null, "boundary": null, "admin_level": null }, "geometry": { "type": "LineString", "coordinates": [ [ 120.5352258, 14.6819745 ], [ 120.535465, 14.6820302 ], [ 120.535579, 14.6820302 ], [ 120.535664, 14.681975 ], [ 120.5358627, 14.6817631 ], [ 120.5359666, 14.6817201 ], [ 120.5360927, 14.6817162 ], [ 120.5362224, 14.6817656 ] ] } },
{ "type": "Feature", "properties": { "full_id": "w1322966025", "osm_id": "1322966025", "osm_type": "way", "highway": "unclassified", "smoothness": null, "oneway:bicycle": null, "oneway:conditional": null, "maxspeed": null, "description": null, "junction": null, "oneway": null, "lanes": null, "surface": null, "name": null, "boundary": null, "admin_level": null }, "geometry": { "type": "LineString", "coordinates": [ [ 120.4642618, 14.6240663 ], [ 120.4642537, 14.6235875 ], [ 120.4642752, 14.6234201 ], [ 120.4643369, 14.6232799 ], [ 120.4650918, 14.6225257 ] ] } },
{ "type": "Feature", "properties": { "full_id": "w1322966026", "osm_id": "1322966026", "osm_type": "way", "highway": "unclassified", "smoothness": null, "oneway:bicycle": null, "oneway:conditional": null, "maxspeed": null, "description": null, "junction": null, "oneway": null, "lanes": null, "surface": null, "name": null, "boundary": null, "admin_level": null }, "geometry": { "type": "LineString", "coordinates": [ [ 120.4634331, 14.6240927 ], [ 120.4634142, 14.6236113 ] ] } },
{ "type": "Feature", "properties": { "full_id": "w1322966027", "osm_id": "1322966027", "osm_type": "way", "highway": "unclassified", "smoothness": null, "oneway:bicycle": null, "oneway:conditional": null, "maxspeed": null, "description": null, "junction": null, "oneway": null, "lanes": null, "surface": null, "name": null, "boundary": null, "admin_level": null }, "geometry": { "type": "LineString", "coordinates": [ [ 120.4628766, 14.6236488 ], [ 120.4630038, 14.6236199 ], [ 120.4634142, 14.6236113 ], [ 120.4642537, 14.6235875 ] ] } },
{ "type": "Feature", "properties": { "full_id": "w1408819019", "osm_id": "1408819019", "osm_type": "way", "highway": "unclassified", "smoothness": null, "oneway:bicycle": null, "oneway:conditional": null, "maxspeed": null, "description": null, "junction": null, "oneway": null, "lanes": null, "surface": null, "name": null, "boundary": null, "admin_level": null }, "geometry": { "type": "LineString", "coordinates": [ [ 120.5372304, 14.6814988 ], [ 120.5371287, 14.6814626 ], [ 120.5370529, 14.6814334 ], [ 120.5368343, 14.6814191 ], [ 120.5366237, 14.681449 ], [ 120.5364963, 14.6815566 ], [ 120.5364373, 14.6816708 ], [ 120.5363803, 14.6817182 ], [ 120.5363123, 14.6817448 ], [ 120.5362224, 14.6817656 ] ] } }
]
}
